<?xml version="1.0" encoding="UTF-8"?>
<gpx xmlns:gpxdata="http://www.cluetrust.com/XML/GPXDATA/1/0" xmlns:xsi="http://www.w3.org/2001/XMLSchema-instance" xmlns="http://www.topografix.com/GPX/1/1" version="1.1" creator="http://ridewithgps.com/" xsi:schemaLocation="http://www.topografix.com/GPX/1/1 http://www.topografix.com/GPX/1/1/gpx.xsd http://www.cluetrust.com/XML/GPXDATA/1/0 http://www.cluetrust.com/Schemas/gpxdata10.xsd">
  <metadata>
    <name>Texas Chainring Massacre</name>
    <link href="https://ridewithgps.com/routes/18243663">
      <text>Texas Chainring Massacre</text>
    </link>
    <time>2016-12-27T10:58:09Z</time>
  </metadata>
  <trk>
    <name>Texas Chainring Massacre</name>
    <trkseg>
      <trkpt lat="33.47835" lon="-97.16427">
        <ele>209.9</ele>
      </trkpt>
      <trkpt lat="33.47862" lon="-97.16446">
        <ele>210.2</ele>
      </trkpt>
      <trkpt lat="33.479219" lon="-97.16484">
        <ele>211.1</ele>
      </trkpt>
      <trkpt lat="33.47959" lon="-97.16501">
        <ele>211.7</ele>
      </trkpt>
      <trkpt lat="33.48006" lon="-97.16517">
        <ele>212.3</ele>
      </trkpt>
      <trkpt lat="33.480469" lon="-97.165229">
        <ele>212.7</ele>
      </trkpt>
      <trkpt lat="33.48259" lon="-97.16521">
        <ele>214.2</ele>
      </trkpt>
      <trkpt lat="33.483629" lon="-97.16521">
        <ele>214.6</ele>
      </trkpt>
      <trkpt lat="33.48463" lon="-97.16522">
        <ele>215.0</ele>
      </trkpt>
      <trkpt lat="33.485329" lon="-97.16522">
        <ele>216.2</ele>
      </trkpt>
      <trkpt lat="33.48602" lon="-97.16522">
        <ele>217.2</ele>
      </trkpt>
      <trkpt lat="33.48669" lon="-97.16522">
        <ele>217.8</ele>
      </trkpt>
      <trkpt lat="33.4874" lon="-97.16521">
        <ele>219.0</ele>
      </trkpt>
      <trkpt lat="33.48823" lon="-97.16518">
        <ele>219.9</ele>
      </trkpt>
      <trkpt lat="33.48888" lon="-97.16518">
        <ele>219.7</ele>
      </trkpt>
      <trkpt lat="33.48905" lon="-97.16518">
        <ele>219.8</ele>
      </trkpt>
      <trkpt lat="33.48959" lon="-97.16518">
        <ele>219.7</ele>
      </trkpt>
      <trkpt lat="33.49026" lon="-97.16518">
        <ele>219.6</ele>
      </trkpt>
      <trkpt lat="33.49165" lon="-97.16517">
        <ele>219.5</ele>
      </trkpt>
      <trkpt lat="33.49304" lon="-97.16519">
        <ele>220.1</ele>
      </trkpt>
      <trkpt lat="33.49351" lon="-97.1652">
        <ele>220.6</ele>
      </trkpt>
      <trkpt lat="33.494439" lon="-97.165229">
        <ele>221.1</ele>
      </trkpt>
      <trkpt lat="33.494999" lon="-97.1652">
        <ele>220.4</ele>
      </trkpt>
      <trkpt lat="33.49561" lon="-97.16512">
        <ele>219.9</ele>
      </trkpt>
      <trkpt lat="33.49618" lon="-97.16503">
        <ele>220.5</ele>
      </trkpt>
      <trkpt lat="33.4974" lon="-97.164869">
        <ele>222.8</ele>
      </trkpt>
      <trkpt lat="33.49783" lon="-97.16489">
        <ele>223.1</ele>
      </trkpt>
      <trkpt lat="33.49873" lon="-97.165">
        <ele>222.4</ele>
      </trkpt>
      <trkpt lat="33.49986" lon="-97.16518">
        <ele>224.4</ele>
      </trkpt>
      <trkpt lat="33.50113" lon="-97.16535">
        <ele>224.9</ele>
      </trkpt>
      <trkpt lat="33.50181" lon="-97.16546">
        <ele>225.1</ele>
      </trkpt>
      <trkpt lat="33.502049" lon="-97.16547">
        <ele>225.3</ele>
      </trkpt>
      <trkpt lat="33.502339" lon="-97.16549">
        <ele>225.6</ele>
      </trkpt>
      <trkpt lat="33.50296" lon="-97.16551">
        <ele>226.2</ele>
      </trkpt>
      <trkpt lat="33.50566" lon="-97.16558">
        <ele>229.0</ele>
      </trkpt>
      <trkpt lat="33.50777" lon="-97.16565">
        <ele>229.7</ele>
      </trkpt>
      <trkpt lat="33.50788" lon="-97.16565">
        <ele>229.7</ele>
      </trkpt>
      <trkpt lat="33.50793" lon="-97.16564">
        <ele>229.7</ele>
      </trkpt>
      <trkpt lat="33.50799" lon="-97.16562">
        <ele>229.8</ele>
      </trkpt>
      <trkpt lat="33.50804" lon="-97.16559">
        <ele>229.8</ele>
      </trkpt>
      <trkpt lat="33.50808" lon="-97.16555">
        <ele>229.8</ele>
      </trkpt>
      <trkpt lat="33.508119" lon="-97.1655">
        <ele>229.8</ele>
      </trkpt>
      <trkpt lat="33.5082" lon="-97.16537">
        <ele>229.9</ele>
      </trkpt>
      <trkpt lat="33.5082" lon="-97.16537">
        <ele>229.9</ele>
      </trkpt>
      <trkpt lat="33.509459" lon="-97.16555">
        <ele>230.3</ele>
      </trkpt>
      <trkpt lat="33.51108" lon="-97.16579">
        <ele>231.0</ele>
      </trkpt>
      <trkpt lat="33.51263" lon="-97.16602">
        <ele>229.2</ele>
      </trkpt>
      <trkpt lat="33.51353" lon="-97.16615">
        <ele>229.1</ele>
      </trkpt>
      <trkpt lat="33.51417" lon="-97.16624">
        <ele>229.1</ele>
      </trkpt>
      <trkpt lat="33.51446" lon="-97.16629">
        <ele>229.0</ele>
      </trkpt>
      <trkpt lat="33.51495" lon="-97.16635">
        <ele>229.0</ele>
      </trkpt>
      <trkpt lat="33.51565" lon="-97.16642">
        <ele>228.8</ele>
      </trkpt>
      <trkpt lat="33.516289" lon="-97.16646">
        <ele>229.9</ele>
      </trkpt>
      <trkpt lat="33.51691" lon="-97.16649">
        <ele>231.0</ele>
      </trkpt>
      <trkpt lat="33.517699" lon="-97.1665">
        <ele>231.3</ele>
      </trkpt>
      <trkpt lat="33.51831" lon="-97.16652">
        <ele>230.2</ele>
      </trkpt>
      <trkpt lat="33.51957" lon="-97.16659">
        <ele>229.5</ele>
      </trkpt>
      <trkpt lat="33.52057" lon="-97.16663">
        <ele>229.4</ele>
      </trkpt>
      <trkpt lat="33.520829" lon="-97.16664">
        <ele>229.5</ele>
      </trkpt>
      <trkpt lat="33.52347" lon="-97.16669">
        <ele>232.0</ele>
      </trkpt>
      <trkpt lat="33.525" lon="-97.16673">
        <ele>232.8</ele>
      </trkpt>
      <trkpt lat="33.52657" lon="-97.16678">
        <ele>232.5</ele>
      </trkpt>
      <trkpt lat="33.52814" lon="-97.16683">
        <ele>232.2</ele>
      </trkpt>
      <trkpt lat="33.52821" lon="-97.16683">
        <ele>232.2</ele>
      </trkpt>
      <trkpt lat="33.52821" lon="-97.16683">
        <ele>232.2</ele>
      </trkpt>
      <trkpt lat="33.528109" lon="-97.16749">
        <ele>232.3</ele>
      </trkpt>
      <trkpt lat="33.52803" lon="-97.16795">
        <ele>232.4</ele>
      </trkpt>
      <trkpt lat="33.52801" lon="-97.16813">
        <ele>232.4</ele>
      </trkpt>
      <trkpt lat="33.528" lon="-97.16832">
        <ele>232.3</ele>
      </trkpt>
      <trkpt lat="33.528019" lon="-97.16885">
        <ele>232.2</ele>
      </trkpt>
      <trkpt lat="33.528019" lon="-97.1695">
        <ele>232.2</ele>
      </trkpt>
      <trkpt lat="33.52803" lon="-97.17245">
        <ele>231.5</ele>
      </trkpt>
      <trkpt lat="33.52806" lon="-97.17797">
        <ele>227.0</ele>
      </trkpt>
      <trkpt lat="33.52807" lon="-97.17856">
        <ele>226.7</ele>
      </trkpt>
      <trkpt lat="33.52809" lon="-97.18108">
        <ele>226.1</ele>
      </trkpt>
      <trkpt lat="33.52809" lon="-97.18151">
        <ele>225.6</ele>
      </trkpt>
      <trkpt lat="33.52808" lon="-97.18291">
        <ele>222.7</ele>
      </trkpt>
      <trkpt lat="33.52807" lon="-97.183539">
        <ele>219.4</ele>
      </trkpt>
      <trkpt lat="33.52807" lon="-97.18736">
        <ele>225.2</ele>
      </trkpt>
      <trkpt lat="33.52806" lon="-97.18854">
        <ele>227.8</ele>
      </trkpt>
      <trkpt lat="33.52806" lon="-97.18955">
        <ele>229.0</ele>
      </trkpt>
      <trkpt lat="33.52806" lon="-97.19069">
        <ele>226.7</ele>
      </trkpt>
      <trkpt lat="33.52807" lon="-97.197329">
        <ele>219.6</ele>
      </trkpt>
      <trkpt lat="33.52808" lon="-97.20108">
        <ele>223.3</ele>
      </trkpt>
      <trkpt lat="33.52808" lon="-97.20108">
        <ele>223.3</ele>
      </trkpt>
      <trkpt lat="33.52716" lon="-97.20107">
        <ele>223.6</ele>
      </trkpt>
      <trkpt lat="33.52622" lon="-97.20107">
        <ele>224.0</ele>
      </trkpt>
      <trkpt lat="33.52509" lon="-97.20106">
        <ele>220.1</ele>
      </trkpt>
      <trkpt lat="33.52441" lon="-97.20112">
        <ele>219.8</ele>
      </trkpt>
      <trkpt lat="33.52347" lon="-97.20117">
        <ele>222.1</ele>
      </trkpt>
      <trkpt lat="33.522799" lon="-97.201179">
        <ele>223.5</ele>
      </trkpt>
      <trkpt lat="33.52162" lon="-97.20116">
        <ele>225.7</ele>
      </trkpt>
      <trkpt lat="33.52104" lon="-97.201179">
        <ele>224.8</ele>
      </trkpt>
      <trkpt lat="33.51717" lon="-97.20119">
        <ele>228.2</ele>
      </trkpt>
      <trkpt lat="33.51597" lon="-97.20119">
        <ele>232.1</ele>
      </trkpt>
      <trkpt lat="33.51453" lon="-97.20119">
        <ele>237.2</ele>
      </trkpt>
      <trkpt lat="33.51207" lon="-97.201179">
        <ele>243.6</ele>
      </trkpt>
      <trkpt lat="33.51017" lon="-97.201179">
        <ele>244.5</ele>
      </trkpt>
      <trkpt lat="33.510019" lon="-97.201179">
        <ele>244.7</ele>
      </trkpt>
      <trkpt lat="33.50939" lon="-97.201179">
        <ele>246.2</ele>
      </trkpt>
      <trkpt lat="33.50939" lon="-97.201179">
        <ele>246.2</ele>
      </trkpt>
      <trkpt lat="33.50939" lon="-97.2024">
        <ele>247.7</ele>
      </trkpt>
      <trkpt lat="33.50938" lon="-97.206909">
        <ele>246.6</ele>
      </trkpt>
      <trkpt lat="33.50936" lon="-97.20702">
        <ele>246.3</ele>
      </trkpt>
      <trkpt lat="33.50933" lon="-97.20714">
        <ele>246.1</ele>
      </trkpt>
      <trkpt lat="33.50933" lon="-97.20714">
        <ele>246.1</ele>
      </trkpt>
      <trkpt lat="33.50945" lon="-97.20733">
        <ele>246.0</ele>
      </trkpt>
      <trkpt lat="33.50954" lon="-97.20753">
        <ele>245.8</ele>
      </trkpt>
      <trkpt lat="33.50959" lon="-97.20775">
        <ele>245.4</ele>
      </trkpt>
      <trkpt lat="33.509569" lon="-97.21772">
        <ele>246.8</ele>
      </trkpt>
      <trkpt lat="33.509569" lon="-97.21868">
        <ele>247.4</ele>
      </trkpt>
      <trkpt lat="33.5096" lon="-97.224279">
        <ele>250.8</ele>
      </trkpt>
      <trkpt lat="33.50968" lon="-97.22435">
        <ele>250.8</ele>
      </trkpt>
      <trkpt lat="33.50972" lon="-97.2244">
        <ele>250.9</ele>
      </trkpt>
      <trkpt lat="33.50987" lon="-97.22458">
        <ele>251.1</ele>
      </trkpt>
      <trkpt lat="33.51001" lon="-97.22478">
        <ele>251.4</ele>
      </trkpt>
      <trkpt lat="33.51008" lon="-97.22493">
        <ele>251.5</ele>
      </trkpt>
      <trkpt lat="33.51012" lon="-97.22511">
        <ele>251.7</ele>
      </trkpt>
      <trkpt lat="33.51012" lon="-97.22533">
        <ele>251.9</ele>
      </trkpt>
      <trkpt lat="33.51014" lon="-97.22985">
        <ele>255.6</ele>
      </trkpt>
      <trkpt lat="33.510109" lon="-97.23213">
        <ele>257.4</ele>
      </trkpt>
      <trkpt lat="33.51012" lon="-97.23625">
        <ele>266.4</ele>
      </trkpt>
      <trkpt lat="33.51016" lon="-97.24024">
        <ele>270.2</ele>
      </trkpt>
      <trkpt lat="33.51028" lon="-97.24885">
        <ele>256.0</ele>
      </trkpt>
      <trkpt lat="33.51028" lon="-97.24885">
        <ele>256.0</ele>
      </trkpt>
      <trkpt lat="33.5138" lon="-97.2488">
        <ele>250.8</ele>
      </trkpt>
      <trkpt lat="33.5138" lon="-97.2488">
        <ele>250.8</ele>
      </trkpt>
      <trkpt lat="33.51379" lon="-97.24965">
        <ele>252.7</ele>
      </trkpt>
      <trkpt lat="33.51379" lon="-97.25054">
        <ele>255.6</ele>
      </trkpt>
      <trkpt lat="33.5138" lon="-97.25063">
        <ele>256.1</ele>
      </trkpt>
      <trkpt lat="33.51381" lon="-97.25203">
        <ele>262.2</ele>
      </trkpt>
      <trkpt lat="33.51381" lon="-97.25327">
        <ele>266.1</ele>
      </trkpt>
      <trkpt lat="33.51384" lon="-97.25445">
        <ele>267.3</ele>
      </trkpt>
      <trkpt lat="33.51384" lon="-97.25565">
        <ele>269.7</ele>
      </trkpt>
      <trkpt lat="33.513849" lon="-97.25677">
        <ele>271.6</ele>
      </trkpt>
      <trkpt lat="33.51386" lon="-97.25772">
        <ele>273.9</ele>
      </trkpt>
      <trkpt lat="33.51388" lon="-97.25905">
        <ele>275.8</ele>
      </trkpt>
      <trkpt lat="33.51391" lon="-97.26048">
        <ele>277.9</ele>
      </trkpt>
      <trkpt lat="33.51392" lon="-97.261799">
        <ele>280.2</ele>
      </trkpt>
      <trkpt lat="33.51393" lon="-97.26403">
        <ele>280.2</ele>
      </trkpt>
      <trkpt lat="33.51395" lon="-97.26566">
        <ele>276.5</ele>
      </trkpt>
      <trkpt lat="33.51395" lon="-97.2676">
        <ele>272.8</ele>
      </trkpt>
      <trkpt lat="33.51395" lon="-97.2676">
        <ele>272.8</ele>
      </trkpt>
      <trkpt lat="33.516109" lon="-97.26755">
        <ele>273.9</ele>
      </trkpt>
      <trkpt lat="33.51652" lon="-97.26754">
        <ele>274.3</ele>
      </trkpt>
      <trkpt lat="33.51666" lon="-97.26755">
        <ele>274.7</ele>
      </trkpt>
      <trkpt lat="33.51673" lon="-97.26758">
        <ele>274.8</ele>
      </trkpt>
      <trkpt lat="33.51681" lon="-97.26763">
        <ele>274.9</ele>
      </trkpt>
      <trkpt lat="33.51681" lon="-97.26763">
        <ele>274.9</ele>
      </trkpt>
      <trkpt lat="33.51661" lon="-97.26784">
        <ele>274.5</ele>
      </trkpt>
      <trkpt lat="33.51562" lon="-97.26883">
        <ele>271.7</ele>
      </trkpt>
      <trkpt lat="33.515569" lon="-97.26887">
        <ele>271.6</ele>
      </trkpt>
      <trkpt lat="33.515389" lon="-97.269049">
        <ele>271.4</ele>
      </trkpt>
      <trkpt lat="33.51509" lon="-97.26933">
        <ele>270.9</ele>
      </trkpt>
      <trkpt lat="33.51478" lon="-97.26961">
        <ele>270.6</ele>
      </trkpt>
      <trkpt lat="33.514409" lon="-97.26992">
        <ele>270.2</ele>
      </trkpt>
      <trkpt lat="33.51412" lon="-97.27015">
        <ele>270.0</ele>
      </trkpt>
      <trkpt lat="33.513869" lon="-97.27034">
        <ele>269.8</ele>
      </trkpt>
      <trkpt lat="33.51364" lon="-97.27049">
        <ele>269.6</ele>
      </trkpt>
      <trkpt lat="33.51256" lon="-97.27128">
        <ele>269.0</ele>
      </trkpt>
      <trkpt lat="33.51198" lon="-97.27169">
        <ele>268.8</ele>
      </trkpt>
      <trkpt lat="33.51146" lon="-97.27206">
        <ele>268.9</ele>
      </trkpt>
      <trkpt lat="33.511" lon="-97.2724">
        <ele>268.9</ele>
      </trkpt>
      <trkpt lat="33.51035" lon="-97.27285">
        <ele>269.1</ele>
      </trkpt>
      <trkpt lat="33.506659" lon="-97.275499">
        <ele>273.2</ele>
      </trkpt>
      <trkpt lat="33.505899" lon="-97.27604">
        <ele>272.5</ele>
      </trkpt>
      <trkpt lat="33.500909" lon="-97.27961">
        <ele>265.5</ele>
      </trkpt>
      <trkpt lat="33.500079" lon="-97.28024">
        <ele>268.1</ele>
      </trkpt>
      <trkpt lat="33.498579" lon="-97.28131">
        <ele>272.6</ele>
      </trkpt>
      <trkpt lat="33.49718" lon="-97.28231">
        <ele>273.8</ele>
      </trkpt>
      <trkpt lat="33.49573" lon="-97.28334">
        <ele>272.5</ele>
      </trkpt>
      <trkpt lat="33.49564" lon="-97.28341">
        <ele>272.4</ele>
      </trkpt>
      <trkpt lat="33.495379" lon="-97.28359">
        <ele>271.9</ele>
      </trkpt>
      <trkpt lat="33.495379" lon="-97.28359">
        <ele>271.9</ele>
      </trkpt>
      <trkpt lat="33.495379" lon="-97.283779">
        <ele>271.9</ele>
      </trkpt>
      <trkpt lat="33.49537" lon="-97.28397">
        <ele>271.8</ele>
      </trkpt>
      <trkpt lat="33.49537" lon="-97.28402">
        <ele>271.8</ele>
      </trkpt>
      <trkpt lat="33.495359" lon="-97.28444">
        <ele>271.8</ele>
      </trkpt>
      <trkpt lat="33.49534" lon="-97.28551">
        <ele>271.5</ele>
      </trkpt>
      <trkpt lat="33.49535" lon="-97.28702">
        <ele>274.8</ele>
      </trkpt>
      <trkpt lat="33.49535" lon="-97.287719">
        <ele>276.3</ele>
      </trkpt>
      <trkpt lat="33.49537" lon="-97.28818">
        <ele>277.0</ele>
      </trkpt>
      <trkpt lat="33.49542" lon="-97.289869">
        <ele>282.0</ele>
      </trkpt>
      <trkpt lat="33.49543" lon="-97.29033">
        <ele>283.4</ele>
      </trkpt>
      <trkpt lat="33.49544" lon="-97.29092">
        <ele>284.3</ele>
      </trkpt>
      <trkpt lat="33.49544" lon="-97.29149">
        <ele>285.0</ele>
      </trkpt>
      <trkpt lat="33.49546" lon="-97.29227">
        <ele>286.0</ele>
      </trkpt>
      <trkpt lat="33.49546" lon="-97.2924">
        <ele>286.2</ele>
      </trkpt>
      <trkpt lat="33.495469" lon="-97.2925">
        <ele>286.4</ele>
      </trkpt>
      <trkpt lat="33.495489" lon="-97.29258">
        <ele>286.5</ele>
      </trkpt>
      <trkpt lat="33.49551" lon="-97.29266">
        <ele>286.6</ele>
      </trkpt>
      <trkpt lat="33.49555" lon="-97.2928">
        <ele>286.7</ele>
      </trkpt>
      <trkpt lat="33.49557" lon="-97.292869">
        <ele>286.8</ele>
      </trkpt>
      <trkpt lat="33.4956" lon="-97.29293">
        <ele>286.8</ele>
      </trkpt>
      <trkpt lat="33.49564" lon="-97.29299">
        <ele>286.9</ele>
      </trkpt>
      <trkpt lat="33.49569" lon="-97.29308">
        <ele>287.0</ele>
      </trkpt>
      <trkpt lat="33.49578" lon="-97.29321">
        <ele>287.1</ele>
      </trkpt>
      <trkpt lat="33.49586" lon="-97.29332">
        <ele>287.2</ele>
      </trkpt>
      <trkpt lat="33.495939" lon="-97.29343">
        <ele>287.3</ele>
      </trkpt>
      <trkpt lat="33.49601" lon="-97.29356">
        <ele>287.4</ele>
      </trkpt>
      <trkpt lat="33.496049" lon="-97.29366">
        <ele>287.5</ele>
      </trkpt>
      <trkpt lat="33.49609" lon="-97.29376">
        <ele>287.6</ele>
      </trkpt>
      <trkpt lat="33.496119" lon="-97.29386">
        <ele>287.7</ele>
      </trkpt>
      <trkpt lat="33.496139" lon="-97.29395">
        <ele>287.7</ele>
      </trkpt>
      <trkpt lat="33.49615" lon="-97.29405">
        <ele>287.8</ele>
      </trkpt>
      <trkpt lat="33.49617" lon="-97.29423">
        <ele>288.0</ele>
      </trkpt>
      <trkpt lat="33.49619" lon="-97.29472">
        <ele>288.4</ele>
      </trkpt>
      <trkpt lat="33.49627" lon="-97.29727">
        <ele>290.3</ele>
      </trkpt>
      <trkpt lat="33.49631" lon="-97.29834">
        <ele>290.3</ele>
      </trkpt>
      <trkpt lat="33.49631" lon="-97.29834">
        <ele>290.3</ele>
      </trkpt>
      <trkpt lat="33.49438" lon="-97.29839">
        <ele>287.0</ele>
      </trkpt>
      <trkpt lat="33.49365" lon="-97.29841">
        <ele>286.1</ele>
      </trkpt>
      <trkpt lat="33.48259" lon="-97.29876">
        <ele>286.2</ele>
      </trkpt>
      <trkpt lat="33.48259" lon="-97.29876">
        <ele>286.2</ele>
      </trkpt>
      <trkpt lat="33.48259" lon="-97.29986">
        <ele>284.5</ele>
      </trkpt>
      <trkpt lat="33.48258" lon="-97.30124">
        <ele>282.3</ele>
      </trkpt>
      <trkpt lat="33.48261" lon="-97.30454">
        <ele>284.7</ele>
      </trkpt>
      <trkpt lat="33.48261" lon="-97.30482">
        <ele>284.5</ele>
      </trkpt>
      <trkpt lat="33.48265" lon="-97.306">
        <ele>283.3</ele>
      </trkpt>
      <trkpt lat="33.4827" lon="-97.30777">
        <ele>279.6</ele>
      </trkpt>
      <trkpt lat="33.48274" lon="-97.30906">
        <ele>276.8</ele>
      </trkpt>
      <trkpt lat="33.48278" lon="-97.31023">
        <ele>273.6</ele>
      </trkpt>
      <trkpt lat="33.48281" lon="-97.31143">
        <ele>271.0</ele>
      </trkpt>
      <trkpt lat="33.48286" lon="-97.31272">
        <ele>269.5</ele>
      </trkpt>
      <trkpt lat="33.48288" lon="-97.31328">
        <ele>268.2</ele>
      </trkpt>
      <trkpt lat="33.48287" lon="-97.31338">
        <ele>267.9</ele>
      </trkpt>
      <trkpt lat="33.482819" lon="-97.31343">
        <ele>267.8</ele>
      </trkpt>
      <trkpt lat="33.482729" lon="-97.31346">
        <ele>267.7</ele>
      </trkpt>
      <trkpt lat="33.4806" lon="-97.31353">
        <ele>266.7</ele>
      </trkpt>
      <trkpt lat="33.47999" lon="-97.31355">
        <ele>266.2</ele>
      </trkpt>
      <trkpt lat="33.47817" lon="-97.31363">
        <ele>267.3</ele>
      </trkpt>
      <trkpt lat="33.4763" lon="-97.313689">
        <ele>265.3</ele>
      </trkpt>
      <trkpt lat="33.47495" lon="-97.31376">
        <ele>260.0</ele>
      </trkpt>
      <trkpt lat="33.47486" lon="-97.31378">
        <ele>260.3</ele>
      </trkpt>
      <trkpt lat="33.47479" lon="-97.31381">
        <ele>260.6</ele>
      </trkpt>
      <trkpt lat="33.47473" lon="-97.31388">
        <ele>260.9</ele>
      </trkpt>
      <trkpt lat="33.474719" lon="-97.313999">
        <ele>260.7</ele>
      </trkpt>
      <trkpt lat="33.47473" lon="-97.31417">
        <ele>260.0</ele>
      </trkpt>
      <trkpt lat="33.474739" lon="-97.31442">
        <ele>259.6</ele>
      </trkpt>
      <trkpt lat="33.47475" lon="-97.31475">
        <ele>259.3</ele>
      </trkpt>
      <trkpt lat="33.47477" lon="-97.31525">
        <ele>258.7</ele>
      </trkpt>
      <trkpt lat="33.47479" lon="-97.31577">
        <ele>258.1</ele>
      </trkpt>
      <trkpt lat="33.474809" lon="-97.3162">
        <ele>257.7</ele>
      </trkpt>
      <trkpt lat="33.474809" lon="-97.31669">
        <ele>257.2</ele>
      </trkpt>
      <trkpt lat="33.4748" lon="-97.31712">
        <ele>256.7</ele>
      </trkpt>
      <trkpt lat="33.47479" lon="-97.31747">
        <ele>256.4</ele>
      </trkpt>
      <trkpt lat="33.47477" lon="-97.31779">
        <ele>256.1</ele>
      </trkpt>
      <trkpt lat="33.47476" lon="-97.31811">
        <ele>256.1</ele>
      </trkpt>
      <trkpt lat="33.474739" lon="-97.31851">
        <ele>258.4</ele>
      </trkpt>
      <trkpt lat="33.474739" lon="-97.31875">
        <ele>261.0</ele>
      </trkpt>
      <trkpt lat="33.47476" lon="-97.31899">
        <ele>261.2</ele>
      </trkpt>
      <trkpt lat="33.47478" lon="-97.319239">
        <ele>261.0</ele>
      </trkpt>
      <trkpt lat="33.47482" lon="-97.31948">
        <ele>260.8</ele>
      </trkpt>
      <trkpt lat="33.474829" lon="-97.31963">
        <ele>261.3</ele>
      </trkpt>
      <trkpt lat="33.474829" lon="-97.31973">
        <ele>262.0</ele>
      </trkpt>
      <trkpt lat="33.47482" lon="-97.31995">
        <ele>263.1</ele>
      </trkpt>
      <trkpt lat="33.47491" lon="-97.32265">
        <ele>269.4</ele>
      </trkpt>
      <trkpt lat="33.47499" lon="-97.3252">
        <ele>272.1</ele>
      </trkpt>
      <trkpt lat="33.47506" lon="-97.32711">
        <ele>275.1</ele>
      </trkpt>
      <trkpt lat="33.47508" lon="-97.32769">
        <ele>275.5</ele>
      </trkpt>
      <trkpt lat="33.47509" lon="-97.32819">
        <ele>275.5</ele>
      </trkpt>
      <trkpt lat="33.47509" lon="-97.32855">
        <ele>275.4</ele>
      </trkpt>
      <trkpt lat="33.475099" lon="-97.32886">
        <ele>275.1</ele>
      </trkpt>
      <trkpt lat="33.475119" lon="-97.32916">
        <ele>274.5</ele>
      </trkpt>
      <trkpt lat="33.475119" lon="-97.32934">
        <ele>273.9</ele>
      </trkpt>
      <trkpt lat="33.475099" lon="-97.32941">
        <ele>273.6</ele>
      </trkpt>
      <trkpt lat="33.47507" lon="-97.32947">
        <ele>273.3</ele>
      </trkpt>
      <trkpt lat="33.47497" lon="-97.32962">
        <ele>273.0</ele>
      </trkpt>
      <trkpt lat="33.47482" lon="-97.32983">
        <ele>272.9</ele>
      </trkpt>
      <trkpt lat="33.47482" lon="-97.32983">
        <ele>272.9</ele>
      </trkpt>
      <trkpt lat="33.46927" lon="-97.32995">
        <ele>272.8</ele>
      </trkpt>
      <trkpt lat="33.46927" lon="-97.32995">
        <ele>272.8</ele>
      </trkpt>
      <trkpt lat="33.46847" lon="-97.33144">
        <ele>271.6</ele>
      </trkpt>
      <trkpt lat="33.46797" lon="-97.33229">
        <ele>268.2</ele>
      </trkpt>
      <trkpt lat="33.46776" lon="-97.33264">
        <ele>267.3</ele>
      </trkpt>
      <trkpt lat="33.46671" lon="-97.33442">
        <ele>260.4</ele>
      </trkpt>
      <trkpt lat="33.465429" lon="-97.33664">
        <ele>253.9</ele>
      </trkpt>
      <trkpt lat="33.46497" lon="-97.33741">
        <ele>251.8</ele>
      </trkpt>
      <trkpt lat="33.464869" lon="-97.33754">
        <ele>251.4</ele>
      </trkpt>
      <trkpt lat="33.46474" lon="-97.33765">
        <ele>250.9</ele>
      </trkpt>
      <trkpt lat="33.464419" lon="-97.33789">
        <ele>249.4</ele>
      </trkpt>
      <trkpt lat="33.46388" lon="-97.33829">
        <ele>246.8</ele>
      </trkpt>
      <trkpt lat="33.46371" lon="-97.33841">
        <ele>247.0</ele>
      </trkpt>
      <trkpt lat="33.463569" lon="-97.3385">
        <ele>248.1</ele>
      </trkpt>
      <trkpt lat="33.46336" lon="-97.33856">
        <ele>248.9</ele>
      </trkpt>
      <trkpt lat="33.463009" lon="-97.33864">
        <ele>249.4</ele>
      </trkpt>
      <trkpt lat="33.4626" lon="-97.33871">
        <ele>251.2</ele>
      </trkpt>
      <trkpt lat="33.462049" lon="-97.3388">
        <ele>252.2</ele>
      </trkpt>
      <trkpt lat="33.46174" lon="-97.33884">
        <ele>253.4</ele>
      </trkpt>
      <trkpt lat="33.461489" lon="-97.33889">
        <ele>253.5</ele>
      </trkpt>
      <trkpt lat="33.46138" lon="-97.33892">
        <ele>253.6</ele>
      </trkpt>
      <trkpt lat="33.461239" lon="-97.33899">
        <ele>253.9</ele>
      </trkpt>
      <trkpt lat="33.46114" lon="-97.33909">
        <ele>254.5</ele>
      </trkpt>
      <trkpt lat="33.46107" lon="-97.3392">
        <ele>254.8</ele>
      </trkpt>
      <trkpt lat="33.46106" lon="-97.33927">
        <ele>255.1</ele>
      </trkpt>
      <trkpt lat="33.46107" lon="-97.33937">
        <ele>255.5</ele>
      </trkpt>
      <trkpt lat="33.4611" lon="-97.3395">
        <ele>255.8</ele>
      </trkpt>
      <trkpt lat="33.46117" lon="-97.33971">
        <ele>256.2</ele>
      </trkpt>
      <trkpt lat="33.46121" lon="-97.33993">
        <ele>256.4</ele>
      </trkpt>
      <trkpt lat="33.46121" lon="-97.34014">
        <ele>256.8</ele>
      </trkpt>
      <trkpt lat="33.46126" lon="-97.34262">
        <ele>263.6</ele>
      </trkpt>
      <trkpt lat="33.46125" lon="-97.34275">
        <ele>264.2</ele>
      </trkpt>
      <trkpt lat="33.461199" lon="-97.34284">
        <ele>264.4</ele>
      </trkpt>
      <trkpt lat="33.461109" lon="-97.34296">
        <ele>264.6</ele>
      </trkpt>
      <trkpt lat="33.46094" lon="-97.34314">
        <ele>264.5</ele>
      </trkpt>
      <trkpt lat="33.46053" lon="-97.34356">
        <ele>263.4</ele>
      </trkpt>
      <trkpt lat="33.46022" lon="-97.34388">
        <ele>262.5</ele>
      </trkpt>
      <trkpt lat="33.46016" lon="-97.34397">
        <ele>262.3</ele>
      </trkpt>
      <trkpt lat="33.460099" lon="-97.34409">
        <ele>262.0</ele>
      </trkpt>
      <trkpt lat="33.46009" lon="-97.34422">
        <ele>261.9</ele>
      </trkpt>
      <trkpt lat="33.46009" lon="-97.34442">
        <ele>261.6</ele>
      </trkpt>
      <trkpt lat="33.46011" lon="-97.34475">
        <ele>261.3</ele>
      </trkpt>
      <trkpt lat="33.46013" lon="-97.34518">
        <ele>261.2</ele>
      </trkpt>
      <trkpt lat="33.46014" lon="-97.3459">
        <ele>261.4</ele>
      </trkpt>
      <trkpt lat="33.46015" lon="-97.34656">
        <ele>261.2</ele>
      </trkpt>
      <trkpt lat="33.46016" lon="-97.34729">
        <ele>260.5</ele>
      </trkpt>
      <trkpt lat="33.460169" lon="-97.34783">
        <ele>259.9</ele>
      </trkpt>
      <trkpt lat="33.460169" lon="-97.348429">
        <ele>259.1</ele>
      </trkpt>
      <trkpt lat="33.460169" lon="-97.34895">
        <ele>257.4</ele>
      </trkpt>
      <trkpt lat="33.460189" lon="-97.34947">
        <ele>256.3</ele>
      </trkpt>
      <trkpt lat="33.4602" lon="-97.34994">
        <ele>255.6</ele>
      </trkpt>
      <trkpt lat="33.4602" lon="-97.35015">
        <ele>255.0</ele>
      </trkpt>
      <trkpt lat="33.4602" lon="-97.35059">
        <ele>253.5</ele>
      </trkpt>
      <trkpt lat="33.460209" lon="-97.35096">
        <ele>250.4</ele>
      </trkpt>
      <trkpt lat="33.46022" lon="-97.35118">
        <ele>249.8</ele>
      </trkpt>
      <trkpt lat="33.460209" lon="-97.35122">
        <ele>249.9</ele>
      </trkpt>
      <trkpt lat="33.4602" lon="-97.35127">
        <ele>250.1</ele>
      </trkpt>
      <trkpt lat="33.46014" lon="-97.35135">
        <ele>250.5</ele>
      </trkpt>
      <trkpt lat="33.46005" lon="-97.351429">
        <ele>250.8</ele>
      </trkpt>
      <trkpt lat="33.45932" lon="-97.35183">
        <ele>248.7</ele>
      </trkpt>
      <trkpt lat="33.458979" lon="-97.35209">
        <ele>247.9</ele>
      </trkpt>
      <trkpt lat="33.458689" lon="-97.35243">
        <ele>246.6</ele>
      </trkpt>
      <trkpt lat="33.45843" lon="-97.35281">
        <ele>246.4</ele>
      </trkpt>
      <trkpt lat="33.45821" lon="-97.35315">
        <ele>245.2</ele>
      </trkpt>
      <trkpt lat="33.45792" lon="-97.35396">
        <ele>240.7</ele>
      </trkpt>
      <trkpt lat="33.457659" lon="-97.35457">
        <ele>237.9</ele>
      </trkpt>
      <trkpt lat="33.45756" lon="-97.35478">
        <ele>237.7</ele>
      </trkpt>
      <trkpt lat="33.45753" lon="-97.35488">
        <ele>237.6</ele>
      </trkpt>
      <trkpt lat="33.45751" lon="-97.35509">
        <ele>237.3</ele>
      </trkpt>
      <trkpt lat="33.45753" lon="-97.35562">
        <ele>234.7</ele>
      </trkpt>
      <trkpt lat="33.457549" lon="-97.35685">
        <ele>233.6</ele>
      </trkpt>
      <trkpt lat="33.45758" lon="-97.358279">
        <ele>233.2</ele>
      </trkpt>
      <trkpt lat="33.45761" lon="-97.36008">
        <ele>232.8</ele>
      </trkpt>
      <trkpt lat="33.45758" lon="-97.36018">
        <ele>232.6</ele>
      </trkpt>
      <trkpt lat="33.45752" lon="-97.36024">
        <ele>232.4</ele>
      </trkpt>
      <trkpt lat="33.45722" lon="-97.360249">
        <ele>232.6</ele>
      </trkpt>
      <trkpt lat="33.45671" lon="-97.360249">
        <ele>232.6</ele>
      </trkpt>
      <trkpt lat="33.45626" lon="-97.360249">
        <ele>232.9</ele>
      </trkpt>
      <trkpt lat="33.45595" lon="-97.36027">
        <ele>232.5</ele>
      </trkpt>
      <trkpt lat="33.455759" lon="-97.36032">
        <ele>232.1</ele>
      </trkpt>
      <trkpt lat="33.45562" lon="-97.36039">
        <ele>232.0</ele>
      </trkpt>
      <trkpt lat="33.45535" lon="-97.36058">
        <ele>227.3</ele>
      </trkpt>
      <trkpt lat="33.45523" lon="-97.36065">
        <ele>228.9</ele>
      </trkpt>
      <trkpt lat="33.455109" lon="-97.36075">
        <ele>235.9</ele>
      </trkpt>
      <trkpt lat="33.45499" lon="-97.36087">
        <ele>238.8</ele>
      </trkpt>
      <trkpt lat="33.45488" lon="-97.361">
        <ele>240.4</ele>
      </trkpt>
      <trkpt lat="33.454749" lon="-97.36117">
        <ele>241.4</ele>
      </trkpt>
      <trkpt lat="33.4547" lon="-97.3613">
        <ele>242.8</ele>
      </trkpt>
      <trkpt lat="33.45467" lon="-97.36143">
        <ele>244.0</ele>
      </trkpt>
      <trkpt lat="33.45463" lon="-97.36165">
        <ele>245.6</ele>
      </trkpt>
      <trkpt lat="33.45458" lon="-97.36202">
        <ele>248.4</ele>
      </trkpt>
      <trkpt lat="33.45456" lon="-97.36227">
        <ele>250.3</ele>
      </trkpt>
      <trkpt lat="33.45456" lon="-97.36246">
        <ele>251.7</ele>
      </trkpt>
      <trkpt lat="33.454639" lon="-97.36274">
        <ele>255.2</ele>
      </trkpt>
      <trkpt lat="33.454729" lon="-97.36302">
        <ele>256.3</ele>
      </trkpt>
      <trkpt lat="33.45481" lon="-97.3632">
        <ele>257.5</ele>
      </trkpt>
      <trkpt lat="33.45489" lon="-97.36332">
        <ele>258.4</ele>
      </trkpt>
      <trkpt lat="33.45505" lon="-97.36362">
        <ele>259.7</ele>
      </trkpt>
      <trkpt lat="33.45518" lon="-97.36391">
        <ele>261.4</ele>
      </trkpt>
      <trkpt lat="33.455289" lon="-97.36417">
        <ele>262.1</ele>
      </trkpt>
      <trkpt lat="33.45541" lon="-97.364459">
        <ele>263.2</ele>
      </trkpt>
      <trkpt lat="33.455669" lon="-97.36507">
        <ele>265.4</ele>
      </trkpt>
      <trkpt lat="33.45581" lon="-97.36538">
        <ele>266.0</ele>
      </trkpt>
      <trkpt lat="33.45619" lon="-97.36621">
        <ele>267.4</ele>
      </trkpt>
      <trkpt lat="33.45677" lon="-97.36742">
        <ele>268.6</ele>
      </trkpt>
      <trkpt lat="33.45761" lon="-97.3692">
        <ele>264.9</ele>
      </trkpt>
      <trkpt lat="33.4583" lon="-97.37064">
        <ele>267.9</ele>
      </trkpt>
      <trkpt lat="33.45844" lon="-97.37096">
        <ele>269.9</ele>
      </trkpt>
      <trkpt lat="33.45847" lon="-97.37108">
        <ele>270.7</ele>
      </trkpt>
      <trkpt lat="33.45846" lon="-97.37116">
        <ele>271.0</ele>
      </trkpt>
      <trkpt lat="33.45809" lon="-97.37176">
        <ele>271.3</ele>
      </trkpt>
      <trkpt lat="33.457749" lon="-97.37231">
        <ele>268.1</ele>
      </trkpt>
      <trkpt lat="33.45765" lon="-97.37251">
        <ele>267.8</ele>
      </trkpt>
      <trkpt lat="33.45752" lon="-97.37278">
        <ele>267.5</ele>
      </trkpt>
      <trkpt lat="33.45744" lon="-97.37291">
        <ele>267.1</ele>
      </trkpt>
      <trkpt lat="33.45732" lon="-97.37295">
        <ele>266.7</ele>
      </trkpt>
      <trkpt lat="33.457189" lon="-97.37294">
        <ele>266.4</ele>
      </trkpt>
      <trkpt lat="33.45694" lon="-97.37291">
        <ele>265.5</ele>
      </trkpt>
      <trkpt lat="33.45677" lon="-97.37296">
        <ele>263.7</ele>
      </trkpt>
      <trkpt lat="33.456519" lon="-97.37308">
        <ele>260.0</ele>
      </trkpt>
      <trkpt lat="33.45627" lon="-97.3732">
        <ele>257.0</ele>
      </trkpt>
      <trkpt lat="33.45594" lon="-97.37325">
        <ele>253.9</ele>
      </trkpt>
      <trkpt lat="33.45547" lon="-97.37332">
        <ele>249.5</ele>
      </trkpt>
      <trkpt lat="33.45523" lon="-97.37331">
        <ele>247.1</ele>
      </trkpt>
      <trkpt lat="33.45508" lon="-97.37332">
        <ele>246.5</ele>
      </trkpt>
      <trkpt lat="33.45496" lon="-97.37336">
        <ele>246.3</ele>
      </trkpt>
      <trkpt lat="33.45492" lon="-97.37347">
        <ele>246.0</ele>
      </trkpt>
      <trkpt lat="33.45489" lon="-97.37362">
        <ele>246.0</ele>
      </trkpt>
      <trkpt lat="33.4549" lon="-97.37385">
        <ele>246.2</ele>
      </trkpt>
      <trkpt lat="33.454929" lon="-97.37421">
        <ele>245.9</ele>
      </trkpt>
      <trkpt lat="33.45503" lon="-97.37458">
        <ele>244.9</ele>
      </trkpt>
      <trkpt lat="33.455199" lon="-97.37504">
        <ele>243.2</ele>
      </trkpt>
      <trkpt lat="33.45543" lon="-97.37554">
        <ele>242.0</ele>
      </trkpt>
      <trkpt lat="33.45568" lon="-97.376099">
        <ele>239.2</ele>
      </trkpt>
      <trkpt lat="33.45574" lon="-97.37653">
        <ele>237.4</ele>
      </trkpt>
      <trkpt lat="33.45575" lon="-97.37681">
        <ele>236.2</ele>
      </trkpt>
      <trkpt lat="33.455759" lon="-97.37701">
        <ele>235.5</ele>
      </trkpt>
      <trkpt lat="33.4557" lon="-97.37736">
        <ele>234.4</ele>
      </trkpt>
      <trkpt lat="33.45566" lon="-97.37761">
        <ele>234.5</ele>
      </trkpt>
      <trkpt lat="33.455669" lon="-97.37776">
        <ele>235.3</ele>
      </trkpt>
      <trkpt lat="33.45571" lon="-97.37791">
        <ele>236.0</ele>
      </trkpt>
      <trkpt lat="33.4558" lon="-97.37815">
        <ele>236.8</ele>
      </trkpt>
      <trkpt lat="33.45597" lon="-97.37848">
        <ele>237.7</ele>
      </trkpt>
      <trkpt lat="33.45608" lon="-97.37873">
        <ele>237.7</ele>
      </trkpt>
      <trkpt lat="33.456159" lon="-97.37895">
        <ele>237.6</ele>
      </trkpt>
      <trkpt lat="33.456359" lon="-97.3796">
        <ele>237.4</ele>
      </trkpt>
      <trkpt lat="33.45673" lon="-97.38075">
        <ele>234.9</ele>
      </trkpt>
      <trkpt lat="33.45696" lon="-97.38148">
        <ele>234.3</ele>
      </trkpt>
      <trkpt lat="33.45713" lon="-97.381919">
        <ele>233.9</ele>
      </trkpt>
      <trkpt lat="33.45724" lon="-97.38213">
        <ele>233.6</ele>
      </trkpt>
      <trkpt lat="33.45735" lon="-97.38227">
        <ele>233.3</ele>
      </trkpt>
      <trkpt lat="33.457479" lon="-97.38239">
        <ele>233.4</ele>
      </trkpt>
      <trkpt lat="33.45781" lon="-97.382679">
        <ele>233.2</ele>
      </trkpt>
      <trkpt lat="33.458" lon="-97.38283">
        <ele>233.8</ele>
      </trkpt>
      <trkpt lat="33.45814" lon="-97.3829">
        <ele>234.1</ele>
      </trkpt>
      <trkpt lat="33.4585" lon="-97.38304">
        <ele>236.6</ele>
      </trkpt>
      <trkpt lat="33.45891" lon="-97.38318">
        <ele>237.5</ele>
      </trkpt>
      <trkpt lat="33.45928" lon="-97.3833">
        <ele>239.2</ele>
      </trkpt>
      <trkpt lat="33.45956" lon="-97.38336">
        <ele>239.9</ele>
      </trkpt>
      <trkpt lat="33.46007" lon="-97.38342">
        <ele>242.1</ele>
      </trkpt>
      <trkpt lat="33.46058" lon="-97.38345">
        <ele>242.5</ele>
      </trkpt>
      <trkpt lat="33.46128" lon="-97.383439">
        <ele>245.9</ele>
      </trkpt>
      <trkpt lat="33.46146" lon="-97.38347">
        <ele>246.0</ele>
      </trkpt>
      <trkpt lat="33.46155" lon="-97.38355">
        <ele>245.7</ele>
      </trkpt>
      <trkpt lat="33.46159" lon="-97.38363">
        <ele>245.3</ele>
      </trkpt>
      <trkpt lat="33.46163" lon="-97.38381">
        <ele>244.2</ele>
      </trkpt>
      <trkpt lat="33.46164" lon="-97.38432">
        <ele>237.9</ele>
      </trkpt>
      <trkpt lat="33.46166" lon="-97.38484">
        <ele>240.2</ele>
      </trkpt>
      <trkpt lat="33.4617" lon="-97.385409">
        <ele>241.2</ele>
      </trkpt>
      <trkpt lat="33.46172" lon="-97.38594">
        <ele>240.5</ele>
      </trkpt>
      <trkpt lat="33.46177" lon="-97.38646">
        <ele>239.8</ele>
      </trkpt>
      <trkpt lat="33.46183" lon="-97.3867">
        <ele>239.9</ele>
      </trkpt>
      <trkpt lat="33.461889" lon="-97.38687">
        <ele>239.9</ele>
      </trkpt>
      <trkpt lat="33.462" lon="-97.38705">
        <ele>239.9</ele>
      </trkpt>
      <trkpt lat="33.46213" lon="-97.3872">
        <ele>240.0</ele>
      </trkpt>
      <trkpt lat="33.46229" lon="-97.38734">
        <ele>240.5</ele>
      </trkpt>
      <trkpt lat="33.46242" lon="-97.38748">
        <ele>240.8</ele>
      </trkpt>
      <trkpt lat="33.46256" lon="-97.38763">
        <ele>241.6</ele>
      </trkpt>
      <trkpt lat="33.462649" lon="-97.3878">
        <ele>241.2</ele>
      </trkpt>
      <trkpt lat="33.462739" lon="-97.38804">
        <ele>240.6</ele>
      </trkpt>
      <trkpt lat="33.462809" lon="-97.38826">
        <ele>240.4</ele>
      </trkpt>
      <trkpt lat="33.46284" lon="-97.38845">
        <ele>240.0</ele>
      </trkpt>
      <trkpt lat="33.46284" lon="-97.38875">
        <ele>239.2</ele>
      </trkpt>
      <trkpt lat="33.462829" lon="-97.38905">
        <ele>238.2</ele>
      </trkpt>
      <trkpt lat="33.46276" lon="-97.391409">
        <ele>238.3</ele>
      </trkpt>
      <trkpt lat="33.46276" lon="-97.391409">
        <ele>238.3</ele>
      </trkpt>
      <trkpt lat="33.46116" lon="-97.39146">
        <ele>235.9</ele>
      </trkpt>
      <trkpt lat="33.46087" lon="-97.39146">
        <ele>235.2</ele>
      </trkpt>
      <trkpt lat="33.46056" lon="-97.39145">
        <ele>234.9</ele>
      </trkpt>
      <trkpt lat="33.46031" lon="-97.39143">
        <ele>234.8</ele>
      </trkpt>
      <trkpt lat="33.46011" lon="-97.39139">
        <ele>234.9</ele>
      </trkpt>
      <trkpt lat="33.45996" lon="-97.39135">
        <ele>234.8</ele>
      </trkpt>
      <trkpt lat="33.45921" lon="-97.39092">
        <ele>234.8</ele>
      </trkpt>
      <trkpt lat="33.45888" lon="-97.39096">
        <ele>234.9</ele>
      </trkpt>
      <trkpt lat="33.458599" lon="-97.39107">
        <ele>234.8</ele>
      </trkpt>
      <trkpt lat="33.45832" lon="-97.391229">
        <ele>234.5</ele>
      </trkpt>
      <trkpt lat="33.45806" lon="-97.391409">
        <ele>234.6</ele>
      </trkpt>
      <trkpt lat="33.4574" lon="-97.39189">
        <ele>235.0</ele>
      </trkpt>
      <trkpt lat="33.456609" lon="-97.39243">
        <ele>235.1</ele>
      </trkpt>
      <trkpt lat="33.456359" lon="-97.3926">
        <ele>235.1</ele>
      </trkpt>
      <trkpt lat="33.456069" lon="-97.39275">
        <ele>234.9</ele>
      </trkpt>
      <trkpt lat="33.45579" lon="-97.39292">
        <ele>235.1</ele>
      </trkpt>
      <trkpt lat="33.45561" lon="-97.39309">
        <ele>235.2</ele>
      </trkpt>
      <trkpt lat="33.45552" lon="-97.39321">
        <ele>235.6</ele>
      </trkpt>
      <trkpt lat="33.45547" lon="-97.39331">
        <ele>236.0</ele>
      </trkpt>
      <trkpt lat="33.455329" lon="-97.39371">
        <ele>236.6</ele>
      </trkpt>
      <trkpt lat="33.45527" lon="-97.39386">
        <ele>236.5</ele>
      </trkpt>
      <trkpt lat="33.45518" lon="-97.39398">
        <ele>236.6</ele>
      </trkpt>
      <trkpt lat="33.45508" lon="-97.394049">
        <ele>236.8</ele>
      </trkpt>
      <trkpt lat="33.45471" lon="-97.3942">
        <ele>236.7</ele>
      </trkpt>
      <trkpt lat="33.45427" lon="-97.39437">
        <ele>236.6</ele>
      </trkpt>
      <trkpt lat="33.45394" lon="-97.39449">
        <ele>236.8</ele>
      </trkpt>
      <trkpt lat="33.45359" lon="-97.39457">
        <ele>237.3</ele>
      </trkpt>
      <trkpt lat="33.4532" lon="-97.39462">
        <ele>238.4</ele>
      </trkpt>
      <trkpt lat="33.45288" lon="-97.39464">
        <ele>239.5</ele>
      </trkpt>
      <trkpt lat="33.45275" lon="-97.394679">
        <ele>239.9</ele>
      </trkpt>
      <trkpt lat="33.45232" lon="-97.39454">
        <ele>241.3</ele>
      </trkpt>
      <trkpt lat="33.45179" lon="-97.39426">
        <ele>243.5</ele>
      </trkpt>
      <trkpt lat="33.45141" lon="-97.39404">
        <ele>244.9</ele>
      </trkpt>
      <trkpt lat="33.45093" lon="-97.39389">
        <ele>247.2</ele>
      </trkpt>
      <trkpt lat="33.45037" lon="-97.39379">
        <ele>252.3</ele>
      </trkpt>
      <trkpt lat="33.45" lon="-97.39367">
        <ele>254.5</ele>
      </trkpt>
      <trkpt lat="33.449309" lon="-97.39352">
        <ele>254.5</ele>
      </trkpt>
      <trkpt lat="33.44845" lon="-97.3934">
        <ele>256.3</ele>
      </trkpt>
      <trkpt lat="33.44783" lon="-97.39332">
        <ele>256.3</ele>
      </trkpt>
      <trkpt lat="33.44744" lon="-97.3933">
        <ele>256.6</ele>
      </trkpt>
      <trkpt lat="33.44635" lon="-97.39327">
        <ele>258.9</ele>
      </trkpt>
      <trkpt lat="33.44605" lon="-97.39328">
        <ele>261.1</ele>
      </trkpt>
      <trkpt lat="33.445839" lon="-97.39332">
        <ele>263.0</ele>
      </trkpt>
      <trkpt lat="33.44536" lon="-97.3936">
        <ele>266.9</ele>
      </trkpt>
      <trkpt lat="33.445" lon="-97.39382">
        <ele>269.1</ele>
      </trkpt>
      <trkpt lat="33.44486" lon="-97.39399">
        <ele>269.7</ele>
      </trkpt>
      <trkpt lat="33.44427" lon="-97.39489">
        <ele>273.2</ele>
      </trkpt>
      <trkpt lat="33.44354" lon="-97.39566">
        <ele>275.1</ele>
      </trkpt>
      <trkpt lat="33.44323" lon="-97.39587">
        <ele>275.5</ele>
      </trkpt>
      <trkpt lat="33.442999" lon="-97.39592">
        <ele>275.6</ele>
      </trkpt>
      <trkpt lat="33.44014" lon="-97.39594">
        <ele>281.6</ele>
      </trkpt>
      <trkpt lat="33.438769" lon="-97.39595">
        <ele>286.5</ele>
      </trkpt>
      <trkpt lat="33.4386" lon="-97.39597">
        <ele>286.5</ele>
      </trkpt>
      <trkpt lat="33.43695" lon="-97.39601">
        <ele>283.5</ele>
      </trkpt>
      <trkpt lat="33.43678" lon="-97.39603">
        <ele>283.1</ele>
      </trkpt>
      <trkpt lat="33.4367" lon="-97.39596">
        <ele>282.6</ele>
      </trkpt>
      <trkpt lat="33.43663" lon="-97.39583">
        <ele>281.9</ele>
      </trkpt>
      <trkpt lat="33.43657" lon="-97.39312">
        <ele>282.9</ele>
      </trkpt>
      <trkpt lat="33.436529" lon="-97.38396">
        <ele>274.2</ele>
      </trkpt>
      <trkpt lat="33.43651" lon="-97.381829">
        <ele>272.7</ele>
      </trkpt>
      <trkpt lat="33.43648" lon="-97.38157">
        <ele>272.7</ele>
      </trkpt>
      <trkpt lat="33.43631" lon="-97.38157">
        <ele>272.7</ele>
      </trkpt>
      <trkpt lat="33.43502" lon="-97.38159">
        <ele>272.2</ele>
      </trkpt>
      <trkpt lat="33.43291" lon="-97.3816">
        <ele>267.0</ele>
      </trkpt>
      <trkpt lat="33.43256" lon="-97.38159">
        <ele>265.9</ele>
      </trkpt>
      <trkpt lat="33.43246" lon="-97.38164">
        <ele>265.7</ele>
      </trkpt>
      <trkpt lat="33.43236" lon="-97.381739">
        <ele>265.5</ele>
      </trkpt>
      <trkpt lat="33.431959" lon="-97.38214">
        <ele>264.0</ele>
      </trkpt>
      <trkpt lat="33.43159" lon="-97.38254">
        <ele>263.2</ele>
      </trkpt>
      <trkpt lat="33.431359" lon="-97.38274">
        <ele>262.8</ele>
      </trkpt>
      <trkpt lat="33.43121" lon="-97.3828">
        <ele>262.6</ele>
      </trkpt>
      <trkpt lat="33.43074" lon="-97.383">
        <ele>262.5</ele>
      </trkpt>
      <trkpt lat="33.430639" lon="-97.38301">
        <ele>262.5</ele>
      </trkpt>
      <trkpt lat="33.43057" lon="-97.38301">
        <ele>262.4</ele>
      </trkpt>
      <trkpt lat="33.43052" lon="-97.38298">
        <ele>262.4</ele>
      </trkpt>
      <trkpt lat="33.43049" lon="-97.38292">
        <ele>262.4</ele>
      </trkpt>
      <trkpt lat="33.43047" lon="-97.382859">
        <ele>262.7</ele>
      </trkpt>
      <trkpt lat="33.430439" lon="-97.3818">
        <ele>263.4</ele>
      </trkpt>
      <trkpt lat="33.430419" lon="-97.38172">
        <ele>263.8</ele>
      </trkpt>
      <trkpt lat="33.43036" lon="-97.38166">
        <ele>264.8</ele>
      </trkpt>
      <trkpt lat="33.43036" lon="-97.38166">
        <ele>264.8</ele>
      </trkpt>
      <trkpt lat="33.43032" lon="-97.38162">
        <ele>265.3</ele>
      </trkpt>
      <trkpt lat="33.43025" lon="-97.3816">
        <ele>265.9</ele>
      </trkpt>
      <trkpt lat="33.430169" lon="-97.38158">
        <ele>266.6</ele>
      </trkpt>
      <trkpt lat="33.42875" lon="-97.3816">
        <ele>270.0</ele>
      </trkpt>
      <trkpt lat="33.42779" lon="-97.38161">
        <ele>268.4</ele>
      </trkpt>
      <trkpt lat="33.4269" lon="-97.38164">
        <ele>265.9</ele>
      </trkpt>
      <trkpt lat="33.42684" lon="-97.38164">
        <ele>265.6</ele>
      </trkpt>
      <trkpt lat="33.42563" lon="-97.38164">
        <ele>263.4</ele>
      </trkpt>
      <trkpt lat="33.42414" lon="-97.38166">
        <ele>260.6</ele>
      </trkpt>
      <trkpt lat="33.42304" lon="-97.38169">
        <ele>266.6</ele>
      </trkpt>
      <trkpt lat="33.422469" lon="-97.38169">
        <ele>266.4</ele>
      </trkpt>
      <trkpt lat="33.42139" lon="-97.38173">
        <ele>263.6</ele>
      </trkpt>
      <trkpt lat="33.4213" lon="-97.381739">
        <ele>263.6</ele>
      </trkpt>
      <trkpt lat="33.421169" lon="-97.381739">
        <ele>263.7</ele>
      </trkpt>
      <trkpt lat="33.42108" lon="-97.38173">
        <ele>263.7</ele>
      </trkpt>
      <trkpt lat="33.420949" lon="-97.38168">
        <ele>263.7</ele>
      </trkpt>
      <trkpt lat="33.4194" lon="-97.38104">
        <ele>260.7</ele>
      </trkpt>
      <trkpt lat="33.416089" lon="-97.3796">
        <ele>247.3</ele>
      </trkpt>
      <trkpt lat="33.41389" lon="-97.37845">
        <ele>249.4</ele>
      </trkpt>
      <trkpt lat="33.41324" lon="-97.37809">
        <ele>249.0</ele>
      </trkpt>
      <trkpt lat="33.41314" lon="-97.37809">
        <ele>248.6</ele>
      </trkpt>
      <trkpt lat="33.41304" lon="-97.37809">
        <ele>248.2</ele>
      </trkpt>
      <trkpt lat="33.41294" lon="-97.37823">
        <ele>248.3</ele>
      </trkpt>
      <trkpt lat="33.41284" lon="-97.37849">
        <ele>248.9</ele>
      </trkpt>
      <trkpt lat="33.41264" lon="-97.37906">
        <ele>249.8</ele>
      </trkpt>
      <trkpt lat="33.412439" lon="-97.37955">
        <ele>249.7</ele>
      </trkpt>
      <trkpt lat="33.41229" lon="-97.37993">
        <ele>249.7</ele>
      </trkpt>
      <trkpt lat="33.4122" lon="-97.38003">
        <ele>249.4</ele>
      </trkpt>
      <trkpt lat="33.4121" lon="-97.3801">
        <ele>248.9</ele>
      </trkpt>
      <trkpt lat="33.41181" lon="-97.38021">
        <ele>247.0</ele>
      </trkpt>
      <trkpt lat="33.41151" lon="-97.38028">
        <ele>244.3</ele>
      </trkpt>
      <trkpt lat="33.41142" lon="-97.38031">
        <ele>243.8</ele>
      </trkpt>
      <trkpt lat="33.41127" lon="-97.38036">
        <ele>243.9</ele>
      </trkpt>
      <trkpt lat="33.41116" lon="-97.38038">
        <ele>244.2</ele>
      </trkpt>
      <trkpt lat="33.41109" lon="-97.38039">
        <ele>244.3</ele>
      </trkpt>
      <trkpt lat="33.411" lon="-97.3804">
        <ele>244.7</ele>
      </trkpt>
      <trkpt lat="33.4106" lon="-97.38036">
        <ele>247.5</ele>
      </trkpt>
      <trkpt lat="33.409439" lon="-97.38025">
        <ele>250.4</ele>
      </trkpt>
      <trkpt lat="33.40916" lon="-97.38022">
        <ele>254.2</ele>
      </trkpt>
      <trkpt lat="33.40908" lon="-97.38024">
        <ele>255.2</ele>
      </trkpt>
      <trkpt lat="33.40882" lon="-97.38046">
        <ele>258.1</ele>
      </trkpt>
      <trkpt lat="33.40826" lon="-97.38097">
        <ele>262.8</ele>
      </trkpt>
      <trkpt lat="33.40688" lon="-97.38223">
        <ele>271.4</ele>
      </trkpt>
      <trkpt lat="33.40628" lon="-97.38279">
        <ele>272.6</ele>
      </trkpt>
      <trkpt lat="33.40594" lon="-97.38308">
        <ele>273.6</ele>
      </trkpt>
      <trkpt lat="33.404829" lon="-97.38393">
        <ele>273.6</ele>
      </trkpt>
      <trkpt lat="33.4045" lon="-97.38419">
        <ele>274.0</ele>
      </trkpt>
      <trkpt lat="33.4044" lon="-97.38424">
        <ele>274.2</ele>
      </trkpt>
      <trkpt lat="33.40431" lon="-97.38428">
        <ele>274.3</ele>
      </trkpt>
      <trkpt lat="33.40424" lon="-97.3843">
        <ele>274.3</ele>
      </trkpt>
      <trkpt lat="33.404159" lon="-97.38431">
        <ele>274.4</ele>
      </trkpt>
      <trkpt lat="33.40289" lon="-97.38435">
        <ele>274.9</ele>
      </trkpt>
      <trkpt lat="33.400869" lon="-97.38442">
        <ele>277.4</ele>
      </trkpt>
      <trkpt lat="33.398269" lon="-97.38452">
        <ele>273.7</ele>
      </trkpt>
      <trkpt lat="33.39784" lon="-97.38454">
        <ele>276.4</ele>
      </trkpt>
      <trkpt lat="33.396279" lon="-97.38461">
        <ele>283.8</ele>
      </trkpt>
      <trkpt lat="33.39567" lon="-97.38463">
        <ele>285.3</ele>
      </trkpt>
      <trkpt lat="33.39056" lon="-97.384829">
        <ele>290.7</ele>
      </trkpt>
      <trkpt lat="33.37195" lon="-97.38553">
        <ele>298.9</ele>
      </trkpt>
      <trkpt lat="33.37195" lon="-97.38553">
        <ele>298.9</ele>
      </trkpt>
      <trkpt lat="33.37192" lon="-97.38407">
        <ele>297.0</ele>
      </trkpt>
      <trkpt lat="33.371879" lon="-97.3814">
        <ele>294.7</ele>
      </trkpt>
      <trkpt lat="33.37174" lon="-97.37205">
        <ele>287.4</ele>
      </trkpt>
      <trkpt lat="33.371699" lon="-97.36997">
        <ele>284.4</ele>
      </trkpt>
      <trkpt lat="33.37147" lon="-97.35526">
        <ele>277.6</ele>
      </trkpt>
      <trkpt lat="33.371409" lon="-97.35196">
        <ele>284.4</ele>
      </trkpt>
      <trkpt lat="33.371389" lon="-97.35045">
        <ele>286.7</ele>
      </trkpt>
      <trkpt lat="33.371389" lon="-97.35019">
        <ele>287.0</ele>
      </trkpt>
      <trkpt lat="33.37137" lon="-97.34941">
        <ele>286.6</ele>
      </trkpt>
      <trkpt lat="33.37136" lon="-97.34865">
        <ele>285.1</ele>
      </trkpt>
      <trkpt lat="33.37135" lon="-97.34792">
        <ele>283.9</ele>
      </trkpt>
      <trkpt lat="33.37135" lon="-97.34748">
        <ele>283.2</ele>
      </trkpt>
      <trkpt lat="33.37136" lon="-97.34727">
        <ele>283.0</ele>
      </trkpt>
      <trkpt lat="33.37142" lon="-97.34712">
        <ele>282.9</ele>
      </trkpt>
      <trkpt lat="33.37154" lon="-97.34703">
        <ele>282.8</ele>
      </trkpt>
      <trkpt lat="33.37165" lon="-97.347">
        <ele>282.8</ele>
      </trkpt>
      <trkpt lat="33.37565" lon="-97.34686">
        <ele>277.8</ele>
      </trkpt>
      <trkpt lat="33.37645" lon="-97.34683">
        <ele>276.3</ele>
      </trkpt>
      <trkpt lat="33.38947" lon="-97.3463">
        <ele>248.3</ele>
      </trkpt>
      <trkpt lat="33.3913" lon="-97.34622">
        <ele>251.1</ele>
      </trkpt>
      <trkpt lat="33.396389" lon="-97.346">
        <ele>266.6</ele>
      </trkpt>
      <trkpt lat="33.39979" lon="-97.34591">
        <ele>260.4</ele>
      </trkpt>
      <trkpt lat="33.40263" lon="-97.34576">
        <ele>269.1</ele>
      </trkpt>
      <trkpt lat="33.40269" lon="-97.34574">
        <ele>268.7</ele>
      </trkpt>
      <trkpt lat="33.40273" lon="-97.34569">
        <ele>268.3</ele>
      </trkpt>
      <trkpt lat="33.40273" lon="-97.34564">
        <ele>268.0</ele>
      </trkpt>
      <trkpt lat="33.40273" lon="-97.34554">
        <ele>267.5</ele>
      </trkpt>
      <trkpt lat="33.40139" lon="-97.3419">
        <ele>255.5</ele>
      </trkpt>
      <trkpt lat="33.40135" lon="-97.34181">
        <ele>254.9</ele>
      </trkpt>
      <trkpt lat="33.40128" lon="-97.34173">
        <ele>254.5</ele>
      </trkpt>
      <trkpt lat="33.40123" lon="-97.34171">
        <ele>254.5</ele>
      </trkpt>
      <trkpt lat="33.40113" lon="-97.34172">
        <ele>254.5</ele>
      </trkpt>
      <trkpt lat="33.40103" lon="-97.34177">
        <ele>254.7</ele>
      </trkpt>
      <trkpt lat="33.40091" lon="-97.34181">
        <ele>254.9</ele>
      </trkpt>
      <trkpt lat="33.40086" lon="-97.34182">
        <ele>254.9</ele>
      </trkpt>
      <trkpt lat="33.40081" lon="-97.3418">
        <ele>254.7</ele>
      </trkpt>
      <trkpt lat="33.400779" lon="-97.34179">
        <ele>254.6</ele>
      </trkpt>
      <trkpt lat="33.40073" lon="-97.34173">
        <ele>254.1</ele>
      </trkpt>
      <trkpt lat="33.399299" lon="-97.33655">
        <ele>249.4</ele>
      </trkpt>
      <trkpt lat="33.39918" lon="-97.33617">
        <ele>248.8</ele>
      </trkpt>
      <trkpt lat="33.398919" lon="-97.33523">
        <ele>246.8</ele>
      </trkpt>
      <trkpt lat="33.39882" lon="-97.33487">
        <ele>248.0</ele>
      </trkpt>
      <trkpt lat="33.39866" lon="-97.33433">
        <ele>249.0</ele>
      </trkpt>
      <trkpt lat="33.39812" lon="-97.33248">
        <ele>246.5</ele>
      </trkpt>
      <trkpt lat="33.39793" lon="-97.33179">
        <ele>246.0</ele>
      </trkpt>
      <trkpt lat="33.397489" lon="-97.33028">
        <ele>244.7</ele>
      </trkpt>
      <trkpt lat="33.39674" lon="-97.32768">
        <ele>242.3</ele>
      </trkpt>
      <trkpt lat="33.39613" lon="-97.32562">
        <ele>241.1</ele>
      </trkpt>
      <trkpt lat="33.39598" lon="-97.32509">
        <ele>239.9</ele>
      </trkpt>
      <trkpt lat="33.39594" lon="-97.32505">
        <ele>239.8</ele>
      </trkpt>
      <trkpt lat="33.39588" lon="-97.32503">
        <ele>239.8</ele>
      </trkpt>
      <trkpt lat="33.39557" lon="-97.32501">
        <ele>239.4</ele>
      </trkpt>
      <trkpt lat="33.39405" lon="-97.32501">
        <ele>235.2</ele>
      </trkpt>
      <trkpt lat="33.39398" lon="-97.32499">
        <ele>235.1</ele>
      </trkpt>
      <trkpt lat="33.39394" lon="-97.32496">
        <ele>235.1</ele>
      </trkpt>
      <trkpt lat="33.39391" lon="-97.3249">
        <ele>235.1</ele>
      </trkpt>
      <trkpt lat="33.3939" lon="-97.32484">
        <ele>235.1</ele>
      </trkpt>
      <trkpt lat="33.3939" lon="-97.32468">
        <ele>234.9</ele>
      </trkpt>
      <trkpt lat="33.3939" lon="-97.32452">
        <ele>234.3</ele>
      </trkpt>
      <trkpt lat="33.39398" lon="-97.31943">
        <ele>221.2</ele>
      </trkpt>
      <trkpt lat="33.39397" lon="-97.31939">
        <ele>220.4</ele>
      </trkpt>
      <trkpt lat="33.39388" lon="-97.31929">
        <ele>218.6</ele>
      </trkpt>
      <trkpt lat="33.39374" lon="-97.319149">
        <ele>220.0</ele>
      </trkpt>
      <trkpt lat="33.393369" lon="-97.31873">
        <ele>224.6</ele>
      </trkpt>
      <trkpt lat="33.39321" lon="-97.31855">
        <ele>225.5</ele>
      </trkpt>
      <trkpt lat="33.39311" lon="-97.3184">
        <ele>226.9</ele>
      </trkpt>
      <trkpt lat="33.39304" lon="-97.31824">
        <ele>228.6</ele>
      </trkpt>
      <trkpt lat="33.39269" lon="-97.31693">
        <ele>241.3</ele>
      </trkpt>
      <trkpt lat="33.39256" lon="-97.31647">
        <ele>242.0</ele>
      </trkpt>
      <trkpt lat="33.39249" lon="-97.31632">
        <ele>241.9</ele>
      </trkpt>
      <trkpt lat="33.389249" lon="-97.31122">
        <ele>235.5</ele>
      </trkpt>
      <trkpt lat="33.38899" lon="-97.31078">
        <ele>231.8</ele>
      </trkpt>
      <trkpt lat="33.388489" lon="-97.30994">
        <ele>233.0</ele>
      </trkpt>
      <trkpt lat="33.3879" lon="-97.30901">
        <ele>234.4</ele>
      </trkpt>
      <trkpt lat="33.38588" lon="-97.30579">
        <ele>241.7</ele>
      </trkpt>
      <trkpt lat="33.38488" lon="-97.3042">
        <ele>236.1</ele>
      </trkpt>
      <trkpt lat="33.38439" lon="-97.30344">
        <ele>233.9</ele>
      </trkpt>
      <trkpt lat="33.38433" lon="-97.30331">
        <ele>233.7</ele>
      </trkpt>
      <trkpt lat="33.384259" lon="-97.30314">
        <ele>233.6</ele>
      </trkpt>
      <trkpt lat="33.38424" lon="-97.30299">
        <ele>233.5</ele>
      </trkpt>
      <trkpt lat="33.38421" lon="-97.30283">
        <ele>233.4</ele>
      </trkpt>
      <trkpt lat="33.38421" lon="-97.30162">
        <ele>231.8</ele>
      </trkpt>
      <trkpt lat="33.384189" lon="-97.30033">
        <ele>230.5</ele>
      </trkpt>
      <trkpt lat="33.38414" lon="-97.296989">
        <ele>224.6</ele>
      </trkpt>
      <trkpt lat="33.38413" lon="-97.29566">
        <ele>216.1</ele>
      </trkpt>
      <trkpt lat="33.38411" lon="-97.295">
        <ele>214.6</ele>
      </trkpt>
      <trkpt lat="33.384079" lon="-97.29446">
        <ele>213.4</ele>
      </trkpt>
      <trkpt lat="33.384059" lon="-97.29412">
        <ele>215.7</ele>
      </trkpt>
      <trkpt lat="33.38405" lon="-97.293539">
        <ele>217.8</ele>
      </trkpt>
      <trkpt lat="33.38402" lon="-97.29195">
        <ele>216.1</ele>
      </trkpt>
      <trkpt lat="33.383989" lon="-97.29052">
        <ele>216.0</ele>
      </trkpt>
      <trkpt lat="33.38395" lon="-97.29038">
        <ele>216.1</ele>
      </trkpt>
      <trkpt lat="33.38386" lon="-97.29031">
        <ele>216.2</ele>
      </trkpt>
      <trkpt lat="33.38376" lon="-97.2903">
        <ele>216.5</ele>
      </trkpt>
      <trkpt lat="33.383159" lon="-97.29031">
        <ele>220.6</ele>
      </trkpt>
      <trkpt lat="33.38308" lon="-97.2903">
        <ele>220.8</ele>
      </trkpt>
      <trkpt lat="33.38304" lon="-97.29026">
        <ele>221.1</ele>
      </trkpt>
      <trkpt lat="33.38298" lon="-97.29021">
        <ele>221.5</ele>
      </trkpt>
      <trkpt lat="33.38295" lon="-97.29015">
        <ele>221.8</ele>
      </trkpt>
      <trkpt lat="33.38293" lon="-97.290049">
        <ele>222.2</ele>
      </trkpt>
      <trkpt lat="33.3829" lon="-97.28754">
        <ele>223.4</ele>
      </trkpt>
      <trkpt lat="33.3829" lon="-97.286109">
        <ele>221.5</ele>
      </trkpt>
      <trkpt lat="33.38291" lon="-97.285929">
        <ele>221.1</ele>
      </trkpt>
      <trkpt lat="33.38295" lon="-97.28581">
        <ele>220.8</ele>
      </trkpt>
      <trkpt lat="33.38301" lon="-97.2857">
        <ele>220.4</ele>
      </trkpt>
      <trkpt lat="33.38345" lon="-97.28525">
        <ele>220.3</ele>
      </trkpt>
      <trkpt lat="33.38367" lon="-97.28497">
        <ele>219.3</ele>
      </trkpt>
      <trkpt lat="33.383809" lon="-97.28473">
        <ele>217.3</ele>
      </trkpt>
      <trkpt lat="33.38395" lon="-97.28446">
        <ele>215.5</ele>
      </trkpt>
      <trkpt lat="33.383989" lon="-97.284319">
        <ele>214.5</ele>
      </trkpt>
      <trkpt lat="33.38396" lon="-97.28408">
        <ele>213.2</ele>
      </trkpt>
      <trkpt lat="33.38365" lon="-97.28381">
        <ele>210.8</ele>
      </trkpt>
      <trkpt lat="33.38324" lon="-97.283779">
        <ele>210.2</ele>
      </trkpt>
      <trkpt lat="33.38304" lon="-97.28365">
        <ele>210.0</ele>
      </trkpt>
      <trkpt lat="33.38293" lon="-97.28326">
        <ele>209.9</ele>
      </trkpt>
      <trkpt lat="33.38293" lon="-97.27992">
        <ele>209.2</ele>
      </trkpt>
      <trkpt lat="33.3829" lon="-97.27733">
        <ele>208.7</ele>
      </trkpt>
      <trkpt lat="33.38289" lon="-97.27621">
        <ele>208.4</ele>
      </trkpt>
      <trkpt lat="33.38288" lon="-97.2757">
        <ele>208.0</ele>
      </trkpt>
      <trkpt lat="33.38295" lon="-97.2753">
        <ele>207.8</ele>
      </trkpt>
      <trkpt lat="33.383159" lon="-97.27439">
        <ele>207.5</ele>
      </trkpt>
      <trkpt lat="33.383249" lon="-97.27418">
        <ele>207.8</ele>
      </trkpt>
      <trkpt lat="33.38384" lon="-97.27378">
        <ele>208.5</ele>
      </trkpt>
      <trkpt lat="33.38429" lon="-97.27349">
        <ele>209.0</ele>
      </trkpt>
      <trkpt lat="33.38452" lon="-97.27324">
        <ele>209.4</ele>
      </trkpt>
      <trkpt lat="33.384729" lon="-97.27288">
        <ele>209.4</ele>
      </trkpt>
      <trkpt lat="33.38483" lon="-97.27273">
        <ele>209.3</ele>
      </trkpt>
      <trkpt lat="33.38543" lon="-97.27265">
        <ele>209.8</ele>
      </trkpt>
      <trkpt lat="33.3858" lon="-97.27262">
        <ele>210.3</ele>
      </trkpt>
      <trkpt lat="33.3859" lon="-97.27251">
        <ele>210.4</ele>
      </trkpt>
      <trkpt lat="33.38597" lon="-97.27238">
        <ele>209.8</ele>
      </trkpt>
      <trkpt lat="33.38589" lon="-97.27182">
        <ele>202.1</ele>
      </trkpt>
      <trkpt lat="33.385849" lon="-97.27153">
        <ele>209.0</ele>
      </trkpt>
      <trkpt lat="33.38581" lon="-97.27101">
        <ele>208.6</ele>
      </trkpt>
      <trkpt lat="33.38574" lon="-97.26976">
        <ele>214.0</ele>
      </trkpt>
      <trkpt lat="33.3857" lon="-97.26927">
        <ele>217.7</ele>
      </trkpt>
      <trkpt lat="33.385669" lon="-97.26869">
        <ele>220.7</ele>
      </trkpt>
      <trkpt lat="33.38564" lon="-97.26827">
        <ele>222.0</ele>
      </trkpt>
      <trkpt lat="33.38552" lon="-97.26622">
        <ele>227.3</ele>
      </trkpt>
      <trkpt lat="33.385469" lon="-97.26523">
        <ele>224.5</ele>
      </trkpt>
      <trkpt lat="33.385469" lon="-97.26523">
        <ele>224.5</ele>
      </trkpt>
      <trkpt lat="33.38684" lon="-97.26522">
        <ele>228.3</ele>
      </trkpt>
      <trkpt lat="33.3877" lon="-97.26521">
        <ele>231.1</ele>
      </trkpt>
      <trkpt lat="33.38929" lon="-97.26517">
        <ele>234.2</ele>
      </trkpt>
      <trkpt lat="33.3921" lon="-97.26513">
        <ele>237.9</ele>
      </trkpt>
      <trkpt lat="33.39327" lon="-97.2651">
        <ele>244.3</ele>
      </trkpt>
      <trkpt lat="33.395519" lon="-97.265">
        <ele>243.3</ele>
      </trkpt>
      <trkpt lat="33.39584" lon="-97.26499">
        <ele>243.7</ele>
      </trkpt>
      <trkpt lat="33.396299" lon="-97.26499">
        <ele>244.1</ele>
      </trkpt>
      <trkpt lat="33.39642" lon="-97.26496">
        <ele>244.1</ele>
      </trkpt>
      <trkpt lat="33.39654" lon="-97.26493">
        <ele>244.1</ele>
      </trkpt>
      <trkpt lat="33.39654" lon="-97.26493">
        <ele>244.1</ele>
      </trkpt>
      <trkpt lat="33.39654" lon="-97.26429">
        <ele>243.5</ele>
      </trkpt>
      <trkpt lat="33.39652" lon="-97.26314">
        <ele>244.2</ele>
      </trkpt>
      <trkpt lat="33.39652" lon="-97.26213">
        <ele>244.5</ele>
      </trkpt>
      <trkpt lat="33.39651" lon="-97.26151">
        <ele>244.5</ele>
      </trkpt>
      <trkpt lat="33.39652" lon="-97.260949">
        <ele>244.3</ele>
      </trkpt>
      <trkpt lat="33.39652" lon="-97.260949">
        <ele>244.3</ele>
      </trkpt>
      <trkpt lat="33.396929" lon="-97.26097">
        <ele>244.6</ele>
      </trkpt>
      <trkpt lat="33.3988" lon="-97.26096">
        <ele>247.2</ele>
      </trkpt>
      <trkpt lat="33.39885" lon="-97.26096">
        <ele>247.2</ele>
      </trkpt>
      <trkpt lat="33.398899" lon="-97.260949">
        <ele>247.3</ele>
      </trkpt>
      <trkpt lat="33.39893" lon="-97.260949">
        <ele>247.3</ele>
      </trkpt>
      <trkpt lat="33.39897" lon="-97.26093">
        <ele>247.3</ele>
      </trkpt>
      <trkpt lat="33.39903" lon="-97.26089">
        <ele>247.3</ele>
      </trkpt>
      <trkpt lat="33.399099" lon="-97.2609">
        <ele>247.3</ele>
      </trkpt>
      <trkpt lat="33.39931" lon="-97.26092">
        <ele>247.4</ele>
      </trkpt>
      <trkpt lat="33.39959" lon="-97.26092">
        <ele>247.4</ele>
      </trkpt>
      <trkpt lat="33.39983" lon="-97.26092">
        <ele>247.5</ele>
      </trkpt>
      <trkpt lat="33.400239" lon="-97.26092">
        <ele>247.3</ele>
      </trkpt>
      <trkpt lat="33.400489" lon="-97.26091">
        <ele>246.6</ele>
      </trkpt>
      <trkpt lat="33.40135" lon="-97.26089">
        <ele>245.4</ele>
      </trkpt>
      <trkpt lat="33.40226" lon="-97.26088">
        <ele>246.5</ele>
      </trkpt>
      <trkpt lat="33.402299" lon="-97.26088">
        <ele>246.5</ele>
      </trkpt>
      <trkpt lat="33.40316" lon="-97.26087">
        <ele>247.5</ele>
      </trkpt>
      <trkpt lat="33.40354" lon="-97.260859">
        <ele>247.6</ele>
      </trkpt>
      <trkpt lat="33.40523" lon="-97.26083">
        <ele>247.9</ele>
      </trkpt>
      <trkpt lat="33.40661" lon="-97.2608">
        <ele>250.7</ele>
      </trkpt>
      <trkpt lat="33.410649" lon="-97.26071">
        <ele>249.8</ele>
      </trkpt>
      <trkpt lat="33.411879" lon="-97.26069">
        <ele>251.8</ele>
      </trkpt>
      <trkpt lat="33.41585" lon="-97.2606">
        <ele>253.4</ele>
      </trkpt>
      <trkpt lat="33.4179" lon="-97.26056">
        <ele>258.6</ele>
      </trkpt>
      <trkpt lat="33.418709" lon="-97.26056">
        <ele>261.6</ele>
      </trkpt>
      <trkpt lat="33.419739" lon="-97.26057">
        <ele>264.2</ele>
      </trkpt>
      <trkpt lat="33.42054" lon="-97.26057">
        <ele>265.5</ele>
      </trkpt>
      <trkpt lat="33.42105" lon="-97.26055">
        <ele>264.3</ele>
      </trkpt>
      <trkpt lat="33.421529" lon="-97.26055">
        <ele>263.1</ele>
      </trkpt>
      <trkpt lat="33.42252" lon="-97.26052">
        <ele>259.4</ele>
      </trkpt>
      <trkpt lat="33.42298" lon="-97.26051">
        <ele>258.5</ele>
      </trkpt>
      <trkpt lat="33.423769" lon="-97.26049">
        <ele>257.2</ele>
      </trkpt>
      <trkpt lat="33.42402" lon="-97.26049">
        <ele>257.1</ele>
      </trkpt>
      <trkpt lat="33.42416" lon="-97.26049">
        <ele>257.0</ele>
      </trkpt>
      <trkpt lat="33.42429" lon="-97.260499">
        <ele>256.8</ele>
      </trkpt>
      <trkpt lat="33.42429" lon="-97.260499">
        <ele>256.8</ele>
      </trkpt>
      <trkpt lat="33.42425" lon="-97.25816">
        <ele>254.0</ele>
      </trkpt>
      <trkpt lat="33.424239" lon="-97.25737">
        <ele>251.9</ele>
      </trkpt>
      <trkpt lat="33.42421" lon="-97.25566">
        <ele>250.7</ele>
      </trkpt>
      <trkpt lat="33.42421" lon="-97.25548">
        <ele>250.6</ele>
      </trkpt>
      <trkpt lat="33.42421" lon="-97.25548">
        <ele>250.6</ele>
      </trkpt>
      <trkpt lat="33.42445" lon="-97.25548">
        <ele>250.7</ele>
      </trkpt>
      <trkpt lat="33.42629" lon="-97.25546">
        <ele>246.3</ele>
      </trkpt>
      <trkpt lat="33.42931" lon="-97.25541">
        <ele>245.7</ele>
      </trkpt>
      <trkpt lat="33.43058" lon="-97.25541">
        <ele>248.6</ele>
      </trkpt>
      <trkpt lat="33.43072" lon="-97.25537">
        <ele>248.8</ele>
      </trkpt>
      <trkpt lat="33.43088" lon="-97.25529">
        <ele>248.9</ele>
      </trkpt>
      <trkpt lat="33.431179" lon="-97.255039">
        <ele>249.1</ele>
      </trkpt>
      <trkpt lat="33.431469" lon="-97.25482">
        <ele>249.1</ele>
      </trkpt>
      <trkpt lat="33.43171" lon="-97.25472">
        <ele>249.1</ele>
      </trkpt>
      <trkpt lat="33.43187" lon="-97.25469">
        <ele>249.1</ele>
      </trkpt>
      <trkpt lat="33.43219" lon="-97.254679">
        <ele>249.0</ele>
      </trkpt>
      <trkpt lat="33.43696" lon="-97.2546">
        <ele>240.8</ele>
      </trkpt>
      <trkpt lat="33.44001" lon="-97.25454">
        <ele>244.5</ele>
      </trkpt>
      <trkpt lat="33.441679" lon="-97.25454">
        <ele>247.2</ele>
      </trkpt>
      <trkpt lat="33.44366" lon="-97.25452">
        <ele>245.9</ele>
      </trkpt>
      <trkpt lat="33.44495" lon="-97.25451">
        <ele>243.0</ele>
      </trkpt>
      <trkpt lat="33.446469" lon="-97.25448">
        <ele>239.3</ele>
      </trkpt>
      <trkpt lat="33.44701" lon="-97.25447">
        <ele>239.4</ele>
      </trkpt>
      <trkpt lat="33.452489" lon="-97.254409">
        <ele>248.3</ele>
      </trkpt>
      <trkpt lat="33.45622" lon="-97.25436">
        <ele>255.5</ele>
      </trkpt>
      <trkpt lat="33.458759" lon="-97.25433">
        <ele>256.6</ele>
      </trkpt>
      <trkpt lat="33.46009" lon="-97.25432">
        <ele>256.9</ele>
      </trkpt>
      <trkpt lat="33.46145" lon="-97.2543">
        <ele>255.0</ele>
      </trkpt>
      <trkpt lat="33.46268" lon="-97.25426">
        <ele>251.4</ele>
      </trkpt>
      <trkpt lat="33.46589" lon="-97.2542">
        <ele>249.0</ele>
      </trkpt>
      <trkpt lat="33.46589" lon="-97.2542">
        <ele>249.0</ele>
      </trkpt>
      <trkpt lat="33.46584" lon="-97.25114">
        <ele>243.8</ele>
      </trkpt>
      <trkpt lat="33.465829" lon="-97.25029">
        <ele>244.6</ele>
      </trkpt>
      <trkpt lat="33.465809" lon="-97.24926">
        <ele>245.0</ele>
      </trkpt>
      <trkpt lat="33.465829" lon="-97.24909">
        <ele>245.0</ele>
      </trkpt>
      <trkpt lat="33.46586" lon="-97.24899">
        <ele>245.0</ele>
      </trkpt>
      <trkpt lat="33.46591" lon="-97.2489">
        <ele>245.0</ele>
      </trkpt>
      <trkpt lat="33.46598" lon="-97.24884">
        <ele>245.0</ele>
      </trkpt>
      <trkpt lat="33.46607" lon="-97.24881">
        <ele>245.1</ele>
      </trkpt>
      <trkpt lat="33.46616" lon="-97.2488">
        <ele>245.2</ele>
      </trkpt>
      <trkpt lat="33.469009" lon="-97.24881">
        <ele>246.9</ele>
      </trkpt>
      <trkpt lat="33.469009" lon="-97.24881">
        <ele>246.9</ele>
      </trkpt>
      <trkpt lat="33.468989" lon="-97.245009">
        <ele>247.3</ele>
      </trkpt>
      <trkpt lat="33.46898" lon="-97.24342">
        <ele>244.9</ele>
      </trkpt>
      <trkpt lat="33.46895" lon="-97.24015">
        <ele>248.5</ele>
      </trkpt>
      <trkpt lat="33.46893" lon="-97.23884">
        <ele>249.6</ele>
      </trkpt>
      <trkpt lat="33.468919" lon="-97.23826">
        <ele>249.7</ele>
      </trkpt>
      <trkpt lat="33.46889" lon="-97.23614">
        <ele>255.4</ele>
      </trkpt>
      <trkpt lat="33.46887" lon="-97.23574">
        <ele>256.2</ele>
      </trkpt>
      <trkpt lat="33.46886" lon="-97.23555">
        <ele>256.5</ele>
      </trkpt>
      <trkpt lat="33.46885" lon="-97.23538">
        <ele>256.6</ele>
      </trkpt>
      <trkpt lat="33.468829" lon="-97.2352">
        <ele>256.6</ele>
      </trkpt>
      <trkpt lat="33.46882" lon="-97.23501">
        <ele>256.7</ele>
      </trkpt>
      <trkpt lat="33.46882" lon="-97.23455">
        <ele>256.6</ele>
      </trkpt>
      <trkpt lat="33.468809" lon="-97.23204">
        <ele>257.4</ele>
      </trkpt>
      <trkpt lat="33.4688" lon="-97.23157">
        <ele>257.2</ele>
      </trkpt>
      <trkpt lat="33.4688" lon="-97.23062">
        <ele>256.1</ele>
      </trkpt>
      <trkpt lat="33.46879" lon="-97.23016">
        <ele>255.4</ele>
      </trkpt>
      <trkpt lat="33.46879" lon="-97.22693">
        <ele>252.1</ele>
      </trkpt>
      <trkpt lat="33.46875" lon="-97.22376">
        <ele>247.9</ele>
      </trkpt>
      <trkpt lat="33.468739" lon="-97.223429">
        <ele>247.6</ele>
      </trkpt>
      <trkpt lat="33.468739" lon="-97.22328">
        <ele>247.4</ele>
      </trkpt>
      <trkpt lat="33.46877" lon="-97.22321">
        <ele>247.2</ele>
      </trkpt>
      <trkpt lat="33.46882" lon="-97.22315">
        <ele>246.9</ele>
      </trkpt>
      <trkpt lat="33.46888" lon="-97.22313">
        <ele>246.7</ele>
      </trkpt>
      <trkpt lat="33.46902" lon="-97.22312">
        <ele>245.9</ele>
      </trkpt>
      <trkpt lat="33.46902" lon="-97.22312">
        <ele>245.9</ele>
      </trkpt>
      <trkpt lat="33.46902" lon="-97.22017">
        <ele>245.2</ele>
      </trkpt>
      <trkpt lat="33.46904" lon="-97.21585">
        <ele>237.1</ele>
      </trkpt>
      <trkpt lat="33.469029" lon="-97.21528">
        <ele>235.6</ele>
      </trkpt>
      <trkpt lat="33.469029" lon="-97.21513">
        <ele>235.4</ele>
      </trkpt>
      <trkpt lat="33.46905" lon="-97.21504">
        <ele>235.3</ele>
      </trkpt>
      <trkpt lat="33.46909" lon="-97.21494">
        <ele>235.3</ele>
      </trkpt>
      <trkpt lat="33.46914" lon="-97.21485">
        <ele>235.5</ele>
      </trkpt>
      <trkpt lat="33.4692" lon="-97.21478">
        <ele>235.7</ele>
      </trkpt>
      <trkpt lat="33.46926" lon="-97.21471">
        <ele>235.8</ele>
      </trkpt>
      <trkpt lat="33.469369" lon="-97.21464">
        <ele>236.1</ele>
      </trkpt>
      <trkpt lat="33.469479" lon="-97.2146">
        <ele>236.4</ele>
      </trkpt>
      <trkpt lat="33.46961" lon="-97.21458">
        <ele>236.8</ele>
      </trkpt>
      <trkpt lat="33.46987" lon="-97.21458">
        <ele>237.4</ele>
      </trkpt>
      <trkpt lat="33.47095" lon="-97.21459">
        <ele>241.8</ele>
      </trkpt>
      <trkpt lat="33.47408" lon="-97.21459">
        <ele>244.8</ele>
      </trkpt>
      <trkpt lat="33.47415" lon="-97.21458">
        <ele>244.7</ele>
      </trkpt>
      <trkpt lat="33.47421" lon="-97.214519">
        <ele>244.5</ele>
      </trkpt>
      <trkpt lat="33.474249" lon="-97.21441">
        <ele>244.3</ele>
      </trkpt>
      <trkpt lat="33.474249" lon="-97.21424">
        <ele>244.1</ele>
      </trkpt>
      <trkpt lat="33.47422" lon="-97.21004">
        <ele>243.7</ele>
      </trkpt>
      <trkpt lat="33.47421" lon="-97.20845">
        <ele>241.1</ele>
      </trkpt>
      <trkpt lat="33.4742" lon="-97.20233">
        <ele>229.0</ele>
      </trkpt>
      <trkpt lat="33.474359" lon="-97.20216">
        <ele>229.4</ele>
      </trkpt>
      <trkpt lat="33.4745" lon="-97.20197">
        <ele>229.7</ele>
      </trkpt>
      <trkpt lat="33.474559" lon="-97.20182">
        <ele>229.6</ele>
      </trkpt>
      <trkpt lat="33.47458" lon="-97.20165">
        <ele>229.4</ele>
      </trkpt>
      <trkpt lat="33.474559" lon="-97.19946">
        <ele>224.7</ele>
      </trkpt>
      <trkpt lat="33.47453" lon="-97.19924">
        <ele>224.0</ele>
      </trkpt>
      <trkpt lat="33.47453" lon="-97.19924">
        <ele>224.0</ele>
      </trkpt>
      <trkpt lat="33.47455" lon="-97.198939">
        <ele>223.1</ele>
      </trkpt>
      <trkpt lat="33.47457" lon="-97.19812">
        <ele>220.4</ele>
      </trkpt>
      <trkpt lat="33.47467" lon="-97.19371">
        <ele>228.2</ele>
      </trkpt>
      <trkpt lat="33.4747" lon="-97.19325">
        <ele>227.2</ele>
      </trkpt>
      <trkpt lat="33.474719" lon="-97.1931">
        <ele>226.8</ele>
      </trkpt>
      <trkpt lat="33.474739" lon="-97.19298">
        <ele>226.6</ele>
      </trkpt>
      <trkpt lat="33.474809" lon="-97.19276">
        <ele>226.1</ele>
      </trkpt>
      <trkpt lat="33.474919" lon="-97.19248">
        <ele>225.5</ele>
      </trkpt>
      <trkpt lat="33.475029" lon="-97.19219">
        <ele>224.9</ele>
      </trkpt>
      <trkpt lat="33.47516" lon="-97.19194">
        <ele>224.4</ele>
      </trkpt>
      <trkpt lat="33.47532" lon="-97.19168">
        <ele>223.9</ele>
      </trkpt>
      <trkpt lat="33.47554" lon="-97.19137">
        <ele>223.2</ele>
      </trkpt>
      <trkpt lat="33.47578" lon="-97.19111">
        <ele>222.3</ele>
      </trkpt>
      <trkpt lat="33.47598" lon="-97.19091">
        <ele>220.9</ele>
      </trkpt>
      <trkpt lat="33.47626" lon="-97.19069">
        <ele>219.7</ele>
      </trkpt>
      <trkpt lat="33.476509" lon="-97.19054">
        <ele>218.3</ele>
      </trkpt>
      <trkpt lat="33.476799" lon="-97.1904">
        <ele>216.5</ele>
      </trkpt>
      <trkpt lat="33.47703" lon="-97.19032">
        <ele>215.8</ele>
      </trkpt>
      <trkpt lat="33.477339" lon="-97.19024">
        <ele>215.1</ele>
      </trkpt>
      <trkpt lat="33.47768" lon="-97.190209">
        <ele>214.0</ele>
      </trkpt>
      <trkpt lat="33.47795" lon="-97.19019">
        <ele>214.0</ele>
      </trkpt>
      <trkpt lat="33.47823" lon="-97.1902">
        <ele>213.1</ele>
      </trkpt>
      <trkpt lat="33.478409" lon="-97.1902">
        <ele>213.3</ele>
      </trkpt>
      <trkpt lat="33.47928" lon="-97.19018">
        <ele>216.8</ele>
      </trkpt>
      <trkpt lat="33.48031" lon="-97.19015">
        <ele>218.3</ele>
      </trkpt>
      <trkpt lat="33.48147" lon="-97.19013">
        <ele>221.7</ele>
      </trkpt>
      <trkpt lat="33.482819" lon="-97.19014">
        <ele>224.3</ele>
      </trkpt>
      <trkpt lat="33.48371" lon="-97.19013">
        <ele>225.6</ele>
      </trkpt>
      <trkpt lat="33.48677" lon="-97.19013">
        <ele>233.1</ele>
      </trkpt>
      <trkpt lat="33.487099" lon="-97.19013">
        <ele>233.5</ele>
      </trkpt>
      <trkpt lat="33.48753" lon="-97.19008">
        <ele>234.3</ele>
      </trkpt>
      <trkpt lat="33.48753" lon="-97.19008">
        <ele>234.3</ele>
      </trkpt>
      <trkpt lat="33.487499" lon="-97.18995">
        <ele>234.4</ele>
      </trkpt>
      <trkpt lat="33.48747" lon="-97.18982">
        <ele>234.6</ele>
      </trkpt>
      <trkpt lat="33.48743" lon="-97.189629">
        <ele>234.9</ele>
      </trkpt>
      <trkpt lat="33.487409" lon="-97.18953">
        <ele>235.0</ele>
      </trkpt>
      <trkpt lat="33.4874" lon="-97.18947">
        <ele>235.2</ele>
      </trkpt>
      <trkpt lat="33.48738" lon="-97.18928">
        <ele>235.4</ele>
      </trkpt>
      <trkpt lat="33.48736" lon="-97.189089">
        <ele>235.4</ele>
      </trkpt>
      <trkpt lat="33.48736" lon="-97.18896">
        <ele>235.3</ele>
      </trkpt>
      <trkpt lat="33.48735" lon="-97.18884">
        <ele>235.1</ele>
      </trkpt>
      <trkpt lat="33.48735" lon="-97.18855">
        <ele>234.5</ele>
      </trkpt>
      <trkpt lat="33.48736" lon="-97.18828">
        <ele>234.2</ele>
      </trkpt>
      <trkpt lat="33.48736" lon="-97.188">
        <ele>231.9</ele>
      </trkpt>
      <trkpt lat="33.48736" lon="-97.18774">
        <ele>231.4</ele>
      </trkpt>
      <trkpt lat="33.48737" lon="-97.187">
        <ele>230.5</ele>
      </trkpt>
      <trkpt lat="33.48737" lon="-97.18698">
        <ele>230.5</ele>
      </trkpt>
      <trkpt lat="33.487389" lon="-97.18684">
        <ele>230.2</ele>
      </trkpt>
      <trkpt lat="33.4874" lon="-97.18585">
        <ele>227.7</ele>
      </trkpt>
      <trkpt lat="33.4874" lon="-97.18376">
        <ele>221.4</ele>
      </trkpt>
      <trkpt lat="33.4874" lon="-97.18314">
        <ele>219.5</ele>
      </trkpt>
      <trkpt lat="33.4874" lon="-97.18214">
        <ele>217.6</ele>
      </trkpt>
      <trkpt lat="33.4874" lon="-97.18004">
        <ele>212.7</ele>
      </trkpt>
      <trkpt lat="33.4874" lon="-97.17872">
        <ele>209.7</ele>
      </trkpt>
      <trkpt lat="33.48746" lon="-97.17372">
        <ele>205.7</ele>
      </trkpt>
      <trkpt lat="33.48746" lon="-97.17317">
        <ele>204.9</ele>
      </trkpt>
      <trkpt lat="33.48746" lon="-97.172929">
        <ele>200.1</ele>
      </trkpt>
      <trkpt lat="33.48747" lon="-97.17243">
        <ele>208.0</ele>
      </trkpt>
      <trkpt lat="33.487479" lon="-97.17213">
        <ele>208.7</ele>
      </trkpt>
      <trkpt lat="33.487479" lon="-97.17174">
        <ele>207.7</ele>
      </trkpt>
      <trkpt lat="33.48749" lon="-97.17144">
        <ele>207.3</ele>
      </trkpt>
      <trkpt lat="33.487499" lon="-97.1713">
        <ele>207.3</ele>
      </trkpt>
      <trkpt lat="33.487499" lon="-97.17119">
        <ele>207.3</ele>
      </trkpt>
      <trkpt lat="33.48752" lon="-97.17093">
        <ele>207.3</ele>
      </trkpt>
      <trkpt lat="33.48753" lon="-97.17076">
        <ele>207.3</ele>
      </trkpt>
      <trkpt lat="33.48755" lon="-97.17057">
        <ele>207.3</ele>
      </trkpt>
      <trkpt lat="33.48755" lon="-97.17055">
        <ele>207.3</ele>
      </trkpt>
      <trkpt lat="33.487569" lon="-97.17041">
        <ele>207.3</ele>
      </trkpt>
      <trkpt lat="33.4876" lon="-97.17025">
        <ele>207.3</ele>
      </trkpt>
      <trkpt lat="33.48762" lon="-97.17008">
        <ele>207.3</ele>
      </trkpt>
      <trkpt lat="33.48765" lon="-97.16994">
        <ele>207.3</ele>
      </trkpt>
      <trkpt lat="33.48767" lon="-97.16982">
        <ele>207.3</ele>
      </trkpt>
      <trkpt lat="33.48771" lon="-97.16962">
        <ele>207.3</ele>
      </trkpt>
      <trkpt lat="33.48775" lon="-97.16944">
        <ele>207.4</ele>
      </trkpt>
      <trkpt lat="33.4878" lon="-97.16922">
        <ele>207.5</ele>
      </trkpt>
      <trkpt lat="33.487859" lon="-97.16898">
        <ele>207.7</ele>
      </trkpt>
      <trkpt lat="33.48794" lon="-97.16867">
        <ele>207.9</ele>
      </trkpt>
      <trkpt lat="33.48803" lon="-97.16831">
        <ele>208.4</ele>
      </trkpt>
      <trkpt lat="33.48809" lon="-97.16806">
        <ele>208.9</ele>
      </trkpt>
      <trkpt lat="33.48813" lon="-97.16785">
        <ele>209.4</ele>
      </trkpt>
      <trkpt lat="33.488149" lon="-97.167689">
        <ele>209.7</ele>
      </trkpt>
      <trkpt lat="33.488169" lon="-97.16757">
        <ele>209.8</ele>
      </trkpt>
      <trkpt lat="33.48818" lon="-97.16746">
        <ele>210.0</ele>
      </trkpt>
      <trkpt lat="33.48819" lon="-97.1673">
        <ele>210.5</ele>
      </trkpt>
      <trkpt lat="33.4882" lon="-97.16713">
        <ele>211.2</ele>
      </trkpt>
      <trkpt lat="33.48821" lon="-97.16703">
        <ele>211.6</ele>
      </trkpt>
      <trkpt lat="33.48821" lon="-97.16685">
        <ele>212.5</ele>
      </trkpt>
      <trkpt lat="33.48821" lon="-97.16685">
        <ele>212.5</ele>
      </trkpt>
      <trkpt lat="33.48754" lon="-97.16686">
        <ele>213.0</ele>
      </trkpt>
      <trkpt lat="33.48754" lon="-97.16686">
        <ele>213.0</ele>
      </trkpt>
      <trkpt lat="33.487499" lon="-97.16685">
        <ele>213.1</ele>
      </trkpt>
      <trkpt lat="33.487479" lon="-97.16682">
        <ele>213.2</ele>
      </trkpt>
      <trkpt lat="33.48747" lon="-97.16679">
        <ele>213.3</ele>
      </trkpt>
      <trkpt lat="33.48743" lon="-97.16603">
        <ele>217.3</ele>
      </trkpt>
      <trkpt lat="33.4874" lon="-97.16521">
        <ele>219.0</ele>
      </trkpt>
      <trkpt lat="33.4874" lon="-97.16521">
        <ele>219.0</ele>
      </trkpt>
      <trkpt lat="33.48669" lon="-97.16522">
        <ele>217.8</ele>
      </trkpt>
      <trkpt lat="33.48602" lon="-97.16522">
        <ele>217.2</ele>
      </trkpt>
      <trkpt lat="33.485329" lon="-97.16522">
        <ele>216.2</ele>
      </trkpt>
      <trkpt lat="33.48463" lon="-97.16522">
        <ele>215.0</ele>
      </trkpt>
      <trkpt lat="33.483629" lon="-97.16521">
        <ele>214.6</ele>
      </trkpt>
      <trkpt lat="33.48259" lon="-97.16521">
        <ele>214.2</ele>
      </trkpt>
      <trkpt lat="33.480469" lon="-97.165229">
        <ele>212.7</ele>
      </trkpt>
      <trkpt lat="33.48006" lon="-97.16517">
        <ele>212.3</ele>
      </trkpt>
      <trkpt lat="33.47959" lon="-97.16501">
        <ele>211.7</ele>
      </trkpt>
      <trkpt lat="33.479219" lon="-97.16484">
        <ele>211.1</ele>
      </trkpt>
      <trkpt lat="33.47862" lon="-97.16446">
        <ele>210.2</ele>
      </trkpt>
      <trkpt lat="33.47835" lon="-97.16428">
        <ele>209.9</ele>
      </trkpt>
    </trkseg>
  </trk>
</gpx>
