<?xml version="1.0" encoding="UTF-8"?>
<gpx xmlns:gpxdata="http://www.cluetrust.com/XML/GPXDATA/1/0" xmlns:xsi="http://www.w3.org/2001/XMLSchema-instance" xmlns="http://www.topografix.com/GPX/1/1" version="1.1" creator="http://ridewithgps.com/" xsi:schemaLocation="http://www.topografix.com/GPX/1/1 http://www.topografix.com/GPX/1/1/gpx.xsd http://www.cluetrust.com/XML/GPXDATA/1/0 http://www.cluetrust.com/Schemas/gpxdata10.xsd">
  <metadata>
    <name>Valley of Tears--2026 Short Course</name>
    <link href="https://ridewithgps.com/routes/53666855">
      <text>Valley of Tears--2026 Short Course</text>
    </link>
    <time>2026-01-06T10:30:41Z</time>
  </metadata>
  <trk>
    <name>Valley of Tears--2026 Short Course</name>
    <trkseg>
      <trkpt lat="34.39379" lon="-100.89758">
        <ele>712.5</ele>
      </trkpt>
      <trkpt lat="34.393295" lon="-100.89757">
        <ele>711.9</ele>
      </trkpt>
      <trkpt lat="34.3928" lon="-100.89756">
        <ele>711.2</ele>
      </trkpt>
      <trkpt lat="34.3928" lon="-100.89778">
        <ele>711.0</ele>
      </trkpt>
      <trkpt lat="34.3928" lon="-100.898837">
        <ele>710.8</ele>
      </trkpt>
      <trkpt lat="34.3928" lon="-100.899893">
        <ele>710.3</ele>
      </trkpt>
      <trkpt lat="34.3928" lon="-100.90095">
        <ele>709.8</ele>
      </trkpt>
      <trkpt lat="34.39278" lon="-100.90127">
        <ele>710.0</ele>
      </trkpt>
      <trkpt lat="34.39203" lon="-100.90113">
        <ele>708.9</ele>
      </trkpt>
      <trkpt lat="34.39137" lon="-100.901115">
        <ele>709.1</ele>
      </trkpt>
      <trkpt lat="34.39071" lon="-100.9011">
        <ele>709.5</ele>
      </trkpt>
      <trkpt lat="34.390065" lon="-100.90109">
        <ele>709.4</ele>
      </trkpt>
      <trkpt lat="34.38942" lon="-100.90108">
        <ele>709.3</ele>
      </trkpt>
      <trkpt lat="34.388539" lon="-100.901073">
        <ele>709.1</ele>
      </trkpt>
      <trkpt lat="34.387657" lon="-100.901066">
        <ele>708.6</ele>
      </trkpt>
      <trkpt lat="34.386776" lon="-100.901059">
        <ele>708.4</ele>
      </trkpt>
      <trkpt lat="34.385894" lon="-100.901051">
        <ele>707.9</ele>
      </trkpt>
      <trkpt lat="34.385013" lon="-100.901044">
        <ele>706.5</ele>
      </trkpt>
      <trkpt lat="34.384131" lon="-100.901037">
        <ele>704.9</ele>
      </trkpt>
      <trkpt lat="34.38325" lon="-100.90103">
        <ele>704.5</ele>
      </trkpt>
      <trkpt lat="34.382368" lon="-100.901016">
        <ele>706.5</ele>
      </trkpt>
      <trkpt lat="34.381486" lon="-100.901002">
        <ele>707.4</ele>
      </trkpt>
      <trkpt lat="34.380604" lon="-100.900988">
        <ele>706.3</ele>
      </trkpt>
      <trkpt lat="34.379722" lon="-100.900974">
        <ele>705.9</ele>
      </trkpt>
      <trkpt lat="34.37884" lon="-100.90096">
        <ele>706.3</ele>
      </trkpt>
      <trkpt lat="34.377958" lon="-100.900946">
        <ele>707.5</ele>
      </trkpt>
      <trkpt lat="34.377076" lon="-100.900932">
        <ele>708.0</ele>
      </trkpt>
      <trkpt lat="34.376194" lon="-100.900918">
        <ele>708.5</ele>
      </trkpt>
      <trkpt lat="34.375312" lon="-100.900904">
        <ele>709.9</ele>
      </trkpt>
      <trkpt lat="34.37443" lon="-100.90089">
        <ele>710.0</ele>
      </trkpt>
      <trkpt lat="34.373565" lon="-100.900893">
        <ele>710.4</ele>
      </trkpt>
      <trkpt lat="34.3727" lon="-100.900895">
        <ele>710.5</ele>
      </trkpt>
      <trkpt lat="34.371835" lon="-100.900898">
        <ele>710.2</ele>
      </trkpt>
      <trkpt lat="34.37097" lon="-100.9009">
        <ele>709.7</ele>
      </trkpt>
      <trkpt lat="34.37031" lon="-100.900893">
        <ele>708.4</ele>
      </trkpt>
      <trkpt lat="34.36965" lon="-100.900887">
        <ele>708.0</ele>
      </trkpt>
      <trkpt lat="34.36899" lon="-100.90088">
        <ele>707.7</ele>
      </trkpt>
      <trkpt lat="34.3681" lon="-100.900883">
        <ele>706.8</ele>
      </trkpt>
      <trkpt lat="34.36721" lon="-100.900887">
        <ele>706.4</ele>
      </trkpt>
      <trkpt lat="34.36632" lon="-100.90089">
        <ele>707.7</ele>
      </trkpt>
      <trkpt lat="34.3656" lon="-100.90085">
        <ele>708.4</ele>
      </trkpt>
      <trkpt lat="34.364907" lon="-100.90085">
        <ele>708.8</ele>
      </trkpt>
      <trkpt lat="34.364213" lon="-100.90085">
        <ele>707.8</ele>
      </trkpt>
      <trkpt lat="34.36352" lon="-100.90085">
        <ele>706.7</ele>
      </trkpt>
      <trkpt lat="34.36332" lon="-100.90089">
        <ele>706.7</ele>
      </trkpt>
      <trkpt lat="34.36323" lon="-100.90098">
        <ele>706.9</ele>
      </trkpt>
      <trkpt lat="34.36317" lon="-100.90108">
        <ele>706.9</ele>
      </trkpt>
      <trkpt lat="34.36309" lon="-100.90135">
        <ele>707.3</ele>
      </trkpt>
      <trkpt lat="34.36309" lon="-100.902377">
        <ele>709.2</ele>
      </trkpt>
      <trkpt lat="34.36309" lon="-100.903405">
        <ele>711.1</ele>
      </trkpt>
      <trkpt lat="34.36309" lon="-100.904432">
        <ele>712.7</ele>
      </trkpt>
      <trkpt lat="34.36309" lon="-100.90546">
        <ele>713.7</ele>
      </trkpt>
      <trkpt lat="34.36309" lon="-100.906487">
        <ele>714.8</ele>
      </trkpt>
      <trkpt lat="34.36309" lon="-100.907515">
        <ele>715.9</ele>
      </trkpt>
      <trkpt lat="34.36309" lon="-100.908542">
        <ele>717.5</ele>
      </trkpt>
      <trkpt lat="34.36309" lon="-100.90957">
        <ele>718.4</ele>
      </trkpt>
      <trkpt lat="34.36306" lon="-100.91003">
        <ele>719.1</ele>
      </trkpt>
      <trkpt lat="34.36299" lon="-100.91025">
        <ele>719.1</ele>
      </trkpt>
      <trkpt lat="34.36288" lon="-100.91038">
        <ele>719.1</ele>
      </trkpt>
      <trkpt lat="34.36277" lon="-100.91047">
        <ele>719.1</ele>
      </trkpt>
      <trkpt lat="34.36261" lon="-100.91056">
        <ele>719.1</ele>
      </trkpt>
      <trkpt lat="34.36172" lon="-100.910545">
        <ele>719.0</ele>
      </trkpt>
      <trkpt lat="34.36083" lon="-100.91053">
        <ele>719.8</ele>
      </trkpt>
      <trkpt lat="34.359975" lon="-100.910485">
        <ele>720.0</ele>
      </trkpt>
      <trkpt lat="34.35912" lon="-100.91044">
        <ele>719.6</ele>
      </trkpt>
      <trkpt lat="34.358645" lon="-100.91043">
        <ele>718.8</ele>
      </trkpt>
      <trkpt lat="34.35817" lon="-100.91042">
        <ele>718.5</ele>
      </trkpt>
      <trkpt lat="34.357492" lon="-100.910412">
        <ele>717.6</ele>
      </trkpt>
      <trkpt lat="34.356815" lon="-100.910405">
        <ele>716.9</ele>
      </trkpt>
      <trkpt lat="34.356137" lon="-100.910397">
        <ele>716.2</ele>
      </trkpt>
      <trkpt lat="34.35546" lon="-100.91039">
        <ele>715.8</ele>
      </trkpt>
      <trkpt lat="34.354673" lon="-100.910398">
        <ele>715.4</ele>
      </trkpt>
      <trkpt lat="34.353887" lon="-100.910407">
        <ele>715.5</ele>
      </trkpt>
      <trkpt lat="34.3531" lon="-100.910415">
        <ele>715.7</ele>
      </trkpt>
      <trkpt lat="34.352313" lon="-100.910423">
        <ele>715.8</ele>
      </trkpt>
      <trkpt lat="34.351527" lon="-100.910432">
        <ele>715.1</ele>
      </trkpt>
      <trkpt lat="34.35074" lon="-100.91044">
        <ele>715.0</ele>
      </trkpt>
      <trkpt lat="34.349982" lon="-100.910454">
        <ele>714.6</ele>
      </trkpt>
      <trkpt lat="34.349224" lon="-100.910468">
        <ele>714.4</ele>
      </trkpt>
      <trkpt lat="34.348466" lon="-100.910482">
        <ele>714.7</ele>
      </trkpt>
      <trkpt lat="34.347708" lon="-100.910496">
        <ele>714.2</ele>
      </trkpt>
      <trkpt lat="34.34695" lon="-100.91051">
        <ele>712.7</ele>
      </trkpt>
      <trkpt lat="34.346083" lon="-100.91051">
        <ele>709.9</ele>
      </trkpt>
      <trkpt lat="34.345215" lon="-100.91051">
        <ele>708.0</ele>
      </trkpt>
      <trkpt lat="34.344348" lon="-100.91051">
        <ele>706.5</ele>
      </trkpt>
      <trkpt lat="34.34348" lon="-100.91051">
        <ele>705.7</ele>
      </trkpt>
      <trkpt lat="34.342895" lon="-100.91052">
        <ele>705.1</ele>
      </trkpt>
      <trkpt lat="34.34231" lon="-100.91053">
        <ele>705.3</ele>
      </trkpt>
      <trkpt lat="34.3423" lon="-100.91053">
        <ele>705.3</ele>
      </trkpt>
      <trkpt lat="34.34213" lon="-100.91054">
        <ele>705.6</ele>
      </trkpt>
      <trkpt lat="34.34213" lon="-100.911487">
        <ele>704.3</ele>
      </trkpt>
      <trkpt lat="34.34213" lon="-100.912435">
        <ele>704.0</ele>
      </trkpt>
      <trkpt lat="34.34213" lon="-100.913382">
        <ele>704.0</ele>
      </trkpt>
      <trkpt lat="34.34213" lon="-100.91433">
        <ele>704.6</ele>
      </trkpt>
      <trkpt lat="34.34214" lon="-100.915155">
        <ele>704.2</ele>
      </trkpt>
      <trkpt lat="34.34215" lon="-100.91598">
        <ele>702.8</ele>
      </trkpt>
      <trkpt lat="34.34216" lon="-100.916805">
        <ele>702.5</ele>
      </trkpt>
      <trkpt lat="34.34217" lon="-100.91763">
        <ele>702.8</ele>
      </trkpt>
      <trkpt lat="34.34216" lon="-100.918665">
        <ele>702.9</ele>
      </trkpt>
      <trkpt lat="34.34215" lon="-100.9197">
        <ele>704.1</ele>
      </trkpt>
      <trkpt lat="34.343036" lon="-100.919694">
        <ele>705.5</ele>
      </trkpt>
      <trkpt lat="34.343921" lon="-100.919689">
        <ele>707.9</ele>
      </trkpt>
      <trkpt lat="34.344807" lon="-100.919683">
        <ele>709.2</ele>
      </trkpt>
      <trkpt lat="34.345693" lon="-100.919677">
        <ele>709.6</ele>
      </trkpt>
      <trkpt lat="34.346579" lon="-100.919671">
        <ele>710.1</ele>
      </trkpt>
      <trkpt lat="34.347464" lon="-100.919666">
        <ele>710.9</ele>
      </trkpt>
      <trkpt lat="34.34835" lon="-100.91966">
        <ele>712.8</ele>
      </trkpt>
      <trkpt lat="34.348348" lon="-100.920678">
        <ele>711.5</ele>
      </trkpt>
      <trkpt lat="34.348345" lon="-100.921695">
        <ele>711.2</ele>
      </trkpt>
      <trkpt lat="34.348343" lon="-100.922713">
        <ele>711.4</ele>
      </trkpt>
      <trkpt lat="34.34834" lon="-100.92373">
        <ele>711.7</ele>
      </trkpt>
      <trkpt lat="34.34834" lon="-100.92374">
        <ele>711.7</ele>
      </trkpt>
      <trkpt lat="34.34833" lon="-100.92469">
        <ele>712.0</ele>
      </trkpt>
      <trkpt lat="34.34832" lon="-100.92564">
        <ele>712.3</ele>
      </trkpt>
      <trkpt lat="34.34831" lon="-100.92659">
        <ele>712.9</ele>
      </trkpt>
      <trkpt lat="34.3483" lon="-100.92754">
        <ele>713.6</ele>
      </trkpt>
      <trkpt lat="34.34829" lon="-100.92849">
        <ele>714.8</ele>
      </trkpt>
      <trkpt lat="34.348279" lon="-100.929441">
        <ele>714.3</ele>
      </trkpt>
      <trkpt lat="34.348267" lon="-100.930393">
        <ele>713.6</ele>
      </trkpt>
      <trkpt lat="34.348256" lon="-100.931344">
        <ele>713.4</ele>
      </trkpt>
      <trkpt lat="34.348244" lon="-100.932296">
        <ele>713.3</ele>
      </trkpt>
      <trkpt lat="34.348233" lon="-100.933247">
        <ele>713.0</ele>
      </trkpt>
      <trkpt lat="34.348221" lon="-100.934199">
        <ele>712.9</ele>
      </trkpt>
      <trkpt lat="34.34821" lon="-100.93515">
        <ele>712.9</ele>
      </trkpt>
      <trkpt lat="34.34821" lon="-100.935905">
        <ele>713.0</ele>
      </trkpt>
      <trkpt lat="34.34821" lon="-100.93666">
        <ele>713.2</ele>
      </trkpt>
      <trkpt lat="34.34824" lon="-100.93706">
        <ele>713.5</ele>
      </trkpt>
      <trkpt lat="34.34832" lon="-100.9372">
        <ele>713.5</ele>
      </trkpt>
      <trkpt lat="34.34851" lon="-100.93724">
        <ele>713.7</ele>
      </trkpt>
      <trkpt lat="34.34916" lon="-100.937233">
        <ele>714.4</ele>
      </trkpt>
      <trkpt lat="34.34981" lon="-100.937227">
        <ele>715.2</ele>
      </trkpt>
      <trkpt lat="34.35046" lon="-100.93722">
        <ele>716.0</ele>
      </trkpt>
      <trkpt lat="34.350468" lon="-100.938052">
        <ele>715.9</ele>
      </trkpt>
      <trkpt lat="34.350475" lon="-100.938885">
        <ele>716.1</ele>
      </trkpt>
      <trkpt lat="34.350483" lon="-100.939717">
        <ele>715.6</ele>
      </trkpt>
      <trkpt lat="34.35049" lon="-100.94055">
        <ele>715.0</ele>
      </trkpt>
      <trkpt lat="34.350483" lon="-100.941387">
        <ele>714.1</ele>
      </trkpt>
      <trkpt lat="34.350477" lon="-100.942223">
        <ele>713.3</ele>
      </trkpt>
      <trkpt lat="34.35047" lon="-100.94306">
        <ele>712.9</ele>
      </trkpt>
      <trkpt lat="34.350483" lon="-100.943807">
        <ele>713.9</ele>
      </trkpt>
      <trkpt lat="34.350497" lon="-100.944553">
        <ele>714.5</ele>
      </trkpt>
      <trkpt lat="34.35051" lon="-100.9453">
        <ele>715.6</ele>
      </trkpt>
      <trkpt lat="34.350518" lon="-100.946172">
        <ele>717.1</ele>
      </trkpt>
      <trkpt lat="34.350525" lon="-100.947045">
        <ele>718.3</ele>
      </trkpt>
      <trkpt lat="34.350533" lon="-100.947917">
        <ele>719.4</ele>
      </trkpt>
      <trkpt lat="34.35054" lon="-100.94879">
        <ele>721.5</ele>
      </trkpt>
      <trkpt lat="34.350545" lon="-100.9498">
        <ele>723.9</ele>
      </trkpt>
      <trkpt lat="34.35055" lon="-100.95081">
        <ele>725.7</ele>
      </trkpt>
      <trkpt lat="34.35054" lon="-100.95189">
        <ele>726.5</ele>
      </trkpt>
      <trkpt lat="34.35053" lon="-100.95297">
        <ele>727.9</ele>
      </trkpt>
      <trkpt lat="34.35054" lon="-100.953775">
        <ele>728.7</ele>
      </trkpt>
      <trkpt lat="34.35055" lon="-100.95458">
        <ele>729.2</ele>
      </trkpt>
      <trkpt lat="34.35053" lon="-100.95475">
        <ele>729.2</ele>
      </trkpt>
      <trkpt lat="34.35043" lon="-100.95492">
        <ele>729.3</ele>
      </trkpt>
      <trkpt lat="34.35042" lon="-100.95493">
        <ele>729.3</ele>
      </trkpt>
      <trkpt lat="34.35037" lon="-100.95524">
        <ele>729.3</ele>
      </trkpt>
      <trkpt lat="34.350376" lon="-100.956216">
        <ele>730.1</ele>
      </trkpt>
      <trkpt lat="34.350382" lon="-100.957192">
        <ele>731.0</ele>
      </trkpt>
      <trkpt lat="34.350388" lon="-100.958168">
        <ele>732.2</ele>
      </trkpt>
      <trkpt lat="34.350394" lon="-100.959144">
        <ele>732.9</ele>
      </trkpt>
      <trkpt lat="34.3504" lon="-100.96012">
        <ele>734.1</ele>
      </trkpt>
      <trkpt lat="34.350413" lon="-100.961106">
        <ele>735.0</ele>
      </trkpt>
      <trkpt lat="34.350425" lon="-100.962092">
        <ele>735.7</ele>
      </trkpt>
      <trkpt lat="34.350438" lon="-100.963079">
        <ele>736.5</ele>
      </trkpt>
      <trkpt lat="34.35045" lon="-100.964065">
        <ele>738.1</ele>
      </trkpt>
      <trkpt lat="34.350463" lon="-100.965051">
        <ele>738.8</ele>
      </trkpt>
      <trkpt lat="34.350475" lon="-100.966037">
        <ele>739.7</ele>
      </trkpt>
      <trkpt lat="34.350488" lon="-100.967024">
        <ele>740.3</ele>
      </trkpt>
      <trkpt lat="34.3505" lon="-100.96801">
        <ele>741.0</ele>
      </trkpt>
      <trkpt lat="34.350505" lon="-100.969082">
        <ele>741.3</ele>
      </trkpt>
      <trkpt lat="34.35051" lon="-100.970155">
        <ele>741.8</ele>
      </trkpt>
      <trkpt lat="34.350515" lon="-100.971227">
        <ele>742.3</ele>
      </trkpt>
      <trkpt lat="34.35052" lon="-100.9723">
        <ele>742.5</ele>
      </trkpt>
      <trkpt lat="34.351328" lon="-100.972283">
        <ele>742.5</ele>
      </trkpt>
      <trkpt lat="34.352135" lon="-100.972265">
        <ele>747.1</ele>
      </trkpt>
      <trkpt lat="34.352943" lon="-100.972248">
        <ele>747.1</ele>
      </trkpt>
      <trkpt lat="34.35375" lon="-100.97223">
        <ele>747.1</ele>
      </trkpt>
      <trkpt lat="34.353756" lon="-100.973222">
        <ele>747.1</ele>
      </trkpt>
      <trkpt lat="34.353762" lon="-100.974214">
        <ele>747.1</ele>
      </trkpt>
      <trkpt lat="34.353768" lon="-100.975206">
        <ele>747.1</ele>
      </trkpt>
      <trkpt lat="34.353774" lon="-100.976198">
        <ele>747.1</ele>
      </trkpt>
      <trkpt lat="34.35378" lon="-100.97719">
        <ele>747.1</ele>
      </trkpt>
      <trkpt lat="34.353795" lon="-100.97824">
        <ele>751.3</ele>
      </trkpt>
      <trkpt lat="34.35381" lon="-100.97929">
        <ele>751.3</ele>
      </trkpt>
      <trkpt lat="34.353805" lon="-100.980205">
        <ele>751.3</ele>
      </trkpt>
      <trkpt lat="34.3538" lon="-100.98112">
        <ele>751.3</ele>
      </trkpt>
      <trkpt lat="34.35381" lon="-100.98202">
        <ele>751.3</ele>
      </trkpt>
      <trkpt lat="34.35382" lon="-100.98292">
        <ele>751.3</ele>
      </trkpt>
      <trkpt lat="34.35382" lon="-100.983834">
        <ele>751.3</ele>
      </trkpt>
      <trkpt lat="34.35382" lon="-100.984748">
        <ele>751.3</ele>
      </trkpt>
      <trkpt lat="34.35382" lon="-100.985662">
        <ele>751.3</ele>
      </trkpt>
      <trkpt lat="34.35382" lon="-100.986576">
        <ele>754.8</ele>
      </trkpt>
      <trkpt lat="34.35382" lon="-100.98749">
        <ele>754.8</ele>
      </trkpt>
      <trkpt lat="34.353825" lon="-100.988455">
        <ele>754.8</ele>
      </trkpt>
      <trkpt lat="34.35383" lon="-100.98942">
        <ele>754.8</ele>
      </trkpt>
      <trkpt lat="34.35383" lon="-100.98973">
        <ele>754.9</ele>
      </trkpt>
      <trkpt lat="34.354614" lon="-100.989727">
        <ele>752.7</ele>
      </trkpt>
      <trkpt lat="34.355399" lon="-100.989724">
        <ele>750.7</ele>
      </trkpt>
      <trkpt lat="34.356183" lon="-100.989721">
        <ele>749.0</ele>
      </trkpt>
      <trkpt lat="34.356967" lon="-100.989719">
        <ele>747.3</ele>
      </trkpt>
      <trkpt lat="34.357751" lon="-100.989716">
        <ele>745.9</ele>
      </trkpt>
      <trkpt lat="34.358536" lon="-100.989713">
        <ele>745.0</ele>
      </trkpt>
      <trkpt lat="34.35932" lon="-100.98971">
        <ele>745.5</ele>
      </trkpt>
      <trkpt lat="34.360152" lon="-100.989704">
        <ele>747.4</ele>
      </trkpt>
      <trkpt lat="34.360984" lon="-100.989697">
        <ele>748.2</ele>
      </trkpt>
      <trkpt lat="34.361815" lon="-100.989691">
        <ele>746.9</ele>
      </trkpt>
      <trkpt lat="34.362647" lon="-100.989685">
        <ele>745.2</ele>
      </trkpt>
      <trkpt lat="34.363479" lon="-100.989678">
        <ele>743.1</ele>
      </trkpt>
      <trkpt lat="34.364311" lon="-100.989672">
        <ele>740.2</ele>
      </trkpt>
      <trkpt lat="34.365143" lon="-100.989665">
        <ele>737.7</ele>
      </trkpt>
      <trkpt lat="34.365975" lon="-100.989659">
        <ele>737.7</ele>
      </trkpt>
      <trkpt lat="34.366806" lon="-100.989653">
        <ele>737.0</ele>
      </trkpt>
      <trkpt lat="34.367638" lon="-100.989646">
        <ele>737.1</ele>
      </trkpt>
      <trkpt lat="34.36847" lon="-100.98964">
        <ele>738.8</ele>
      </trkpt>
      <trkpt lat="34.368491" lon="-100.98964">
        <ele>738.9</ele>
      </trkpt>
      <trkpt lat="34.369308" lon="-100.989638">
        <ele>738.7</ele>
      </trkpt>
      <trkpt lat="34.370146" lon="-100.989636">
        <ele>741.6</ele>
      </trkpt>
      <trkpt lat="34.370984" lon="-100.989634">
        <ele>743.0</ele>
      </trkpt>
      <trkpt lat="34.371515" lon="-100.989633">
        <ele>742.3</ele>
      </trkpt>
      <trkpt lat="34.371822" lon="-100.989632">
        <ele>741.5</ele>
      </trkpt>
      <trkpt lat="34.37266" lon="-100.98963">
        <ele>740.5</ele>
      </trkpt>
      <trkpt lat="34.373398" lon="-100.98963">
        <ele>740.5</ele>
      </trkpt>
      <trkpt lat="34.374136" lon="-100.98963">
        <ele>742.2</ele>
      </trkpt>
      <trkpt lat="34.374874" lon="-100.98963">
        <ele>746.0</ele>
      </trkpt>
      <trkpt lat="34.375612" lon="-100.98963">
        <ele>750.2</ele>
      </trkpt>
      <trkpt lat="34.37635" lon="-100.98963">
        <ele>754.6</ele>
      </trkpt>
      <trkpt lat="34.377112" lon="-100.989622">
        <ele>755.2</ele>
      </trkpt>
      <trkpt lat="34.377874" lon="-100.989614">
        <ele>757.3</ele>
      </trkpt>
      <trkpt lat="34.378636" lon="-100.989606">
        <ele>757.7</ele>
      </trkpt>
      <trkpt lat="34.379398" lon="-100.989598">
        <ele>756.3</ele>
      </trkpt>
      <trkpt lat="34.38016" lon="-100.98959">
        <ele>755.4</ele>
      </trkpt>
      <trkpt lat="34.381036" lon="-100.98959">
        <ele>755.9</ele>
      </trkpt>
      <trkpt lat="34.381911" lon="-100.98959">
        <ele>758.0</ele>
      </trkpt>
      <trkpt lat="34.382787" lon="-100.98959">
        <ele>759.0</ele>
      </trkpt>
      <trkpt lat="34.383663" lon="-100.98959">
        <ele>761.0</ele>
      </trkpt>
      <trkpt lat="34.384539" lon="-100.98959">
        <ele>763.3</ele>
      </trkpt>
      <trkpt lat="34.385414" lon="-100.98959">
        <ele>764.1</ele>
      </trkpt>
      <trkpt lat="34.38629" lon="-100.98959">
        <ele>764.3</ele>
      </trkpt>
      <trkpt lat="34.387188" lon="-100.989585">
        <ele>762.3</ele>
      </trkpt>
      <trkpt lat="34.388086" lon="-100.989579">
        <ele>759.5</ele>
      </trkpt>
      <trkpt lat="34.388985" lon="-100.989574">
        <ele>758.1</ele>
      </trkpt>
      <trkpt lat="34.389883" lon="-100.989568">
        <ele>757.4</ele>
      </trkpt>
      <trkpt lat="34.390781" lon="-100.989563">
        <ele>758.0</ele>
      </trkpt>
      <trkpt lat="34.391679" lon="-100.989557">
        <ele>759.2</ele>
      </trkpt>
      <trkpt lat="34.392577" lon="-100.989552">
        <ele>759.6</ele>
      </trkpt>
      <trkpt lat="34.393475" lon="-100.989546">
        <ele>759.9</ele>
      </trkpt>
      <trkpt lat="34.394374" lon="-100.989541">
        <ele>761.3</ele>
      </trkpt>
      <trkpt lat="34.395272" lon="-100.989535">
        <ele>763.7</ele>
      </trkpt>
      <trkpt lat="34.39617" lon="-100.98953">
        <ele>767.4</ele>
      </trkpt>
      <trkpt lat="34.39676" lon="-100.98954">
        <ele>767.7</ele>
      </trkpt>
      <trkpt lat="34.39735" lon="-100.98955">
        <ele>768.0</ele>
      </trkpt>
      <trkpt lat="34.39734" lon="-100.988705">
        <ele>764.8</ele>
      </trkpt>
      <trkpt lat="34.39733" lon="-100.98786">
        <ele>762.6</ele>
      </trkpt>
      <trkpt lat="34.39732" lon="-100.98684">
        <ele>761.3</ele>
      </trkpt>
      <trkpt lat="34.39731" lon="-100.98582">
        <ele>761.4</ele>
      </trkpt>
      <trkpt lat="34.397317" lon="-100.985">
        <ele>761.8</ele>
      </trkpt>
      <trkpt lat="34.397323" lon="-100.98418">
        <ele>762.6</ele>
      </trkpt>
      <trkpt lat="34.39733" lon="-100.98336">
        <ele>764.7</ele>
      </trkpt>
      <trkpt lat="34.397328" lon="-100.982331">
        <ele>763.5</ele>
      </trkpt>
      <trkpt lat="34.397326" lon="-100.981302">
        <ele>758.7</ele>
      </trkpt>
      <trkpt lat="34.397325" lon="-100.980273">
        <ele>755.9</ele>
      </trkpt>
      <trkpt lat="34.397323" lon="-100.979244">
        <ele>757.4</ele>
      </trkpt>
      <trkpt lat="34.397321" lon="-100.978215">
        <ele>752.5</ele>
      </trkpt>
      <trkpt lat="34.397319" lon="-100.977185">
        <ele>749.2</ele>
      </trkpt>
      <trkpt lat="34.397317" lon="-100.976156">
        <ele>750.4</ele>
      </trkpt>
      <trkpt lat="34.397316" lon="-100.975127">
        <ele>753.7</ele>
      </trkpt>
      <trkpt lat="34.397314" lon="-100.974098">
        <ele>754.2</ele>
      </trkpt>
      <trkpt lat="34.397312" lon="-100.973069">
        <ele>752.0</ele>
      </trkpt>
      <trkpt lat="34.39731" lon="-100.97204">
        <ele>756.9</ele>
      </trkpt>
      <trkpt lat="34.398187" lon="-100.972037">
        <ele>755.2</ele>
      </trkpt>
      <trkpt lat="34.399063" lon="-100.972033">
        <ele>752.1</ele>
      </trkpt>
      <trkpt lat="34.39994" lon="-100.97203">
        <ele>749.5</ele>
      </trkpt>
      <trkpt lat="34.39998" lon="-100.972">
        <ele>749.5</ele>
      </trkpt>
      <trkpt lat="34.40005" lon="-100.97189">
        <ele>749.1</ele>
      </trkpt>
      <trkpt lat="34.40007" lon="-100.9718">
        <ele>748.6</ele>
      </trkpt>
      <trkpt lat="34.400045" lon="-100.970815">
        <ele>749.0</ele>
      </trkpt>
      <trkpt lat="34.40002" lon="-100.96983">
        <ele>748.9</ele>
      </trkpt>
      <trkpt lat="34.399995" lon="-100.968845">
        <ele>747.3</ele>
      </trkpt>
      <trkpt lat="34.39997" lon="-100.96786">
        <ele>747.0</ele>
      </trkpt>
      <trkpt lat="34.40005" lon="-100.96769">
        <ele>746.6</ele>
      </trkpt>
      <trkpt lat="34.40014" lon="-100.96764">
        <ele>746.5</ele>
      </trkpt>
      <trkpt lat="34.400974" lon="-100.967637">
        <ele>743.2</ele>
      </trkpt>
      <trkpt lat="34.401808" lon="-100.967634">
        <ele>741.0</ele>
      </trkpt>
      <trkpt lat="34.402642" lon="-100.967631">
        <ele>737.6</ele>
      </trkpt>
      <trkpt lat="34.403476" lon="-100.967628">
        <ele>735.5</ele>
      </trkpt>
      <trkpt lat="34.40431" lon="-100.967625">
        <ele>733.9</ele>
      </trkpt>
      <trkpt lat="34.405144" lon="-100.967622">
        <ele>733.1</ele>
      </trkpt>
      <trkpt lat="34.405978" lon="-100.967619">
        <ele>732.7</ele>
      </trkpt>
      <trkpt lat="34.406812" lon="-100.967616">
        <ele>732.1</ele>
      </trkpt>
      <trkpt lat="34.407646" lon="-100.967613">
        <ele>731.8</ele>
      </trkpt>
      <trkpt lat="34.40848" lon="-100.96761">
        <ele>731.4</ele>
      </trkpt>
      <trkpt lat="34.40853" lon="-100.96759">
        <ele>731.4</ele>
      </trkpt>
      <trkpt lat="34.40856" lon="-100.96755">
        <ele>731.4</ele>
      </trkpt>
      <trkpt lat="34.408561" lon="-100.966492">
        <ele>730.6</ele>
      </trkpt>
      <trkpt lat="34.408562" lon="-100.965435">
        <ele>730.6</ele>
      </trkpt>
      <trkpt lat="34.408562" lon="-100.964377">
        <ele>730.7</ele>
      </trkpt>
      <trkpt lat="34.408563" lon="-100.963319">
        <ele>730.6</ele>
      </trkpt>
      <trkpt lat="34.408564" lon="-100.962262">
        <ele>730.7</ele>
      </trkpt>
      <trkpt lat="34.408565" lon="-100.961204">
        <ele>730.6</ele>
      </trkpt>
      <trkpt lat="34.408566" lon="-100.960146">
        <ele>731.1</ele>
      </trkpt>
      <trkpt lat="34.408566" lon="-100.959088">
        <ele>731.4</ele>
      </trkpt>
      <trkpt lat="34.408567" lon="-100.958031">
        <ele>731.4</ele>
      </trkpt>
      <trkpt lat="34.408568" lon="-100.956973">
        <ele>731.6</ele>
      </trkpt>
      <trkpt lat="34.408569" lon="-100.955915">
        <ele>731.6</ele>
      </trkpt>
      <trkpt lat="34.408569" lon="-100.954858">
        <ele>731.3</ele>
      </trkpt>
      <trkpt lat="34.40857" lon="-100.9538">
        <ele>730.7</ele>
      </trkpt>
      <trkpt lat="34.408568" lon="-100.952762">
        <ele>729.6</ele>
      </trkpt>
      <trkpt lat="34.408566" lon="-100.951725">
        <ele>729.1</ele>
      </trkpt>
      <trkpt lat="34.408565" lon="-100.950687">
        <ele>729.2</ele>
      </trkpt>
      <trkpt lat="34.408563" lon="-100.94965">
        <ele>730.0</ele>
      </trkpt>
      <trkpt lat="34.408561" lon="-100.948612">
        <ele>731.7</ele>
      </trkpt>
      <trkpt lat="34.408559" lon="-100.947575">
        <ele>733.8</ele>
      </trkpt>
      <trkpt lat="34.408557" lon="-100.946537">
        <ele>737.4</ele>
      </trkpt>
      <trkpt lat="34.408555" lon="-100.9455">
        <ele>739.8</ele>
      </trkpt>
      <trkpt lat="34.408553" lon="-100.944462">
        <ele>738.7</ele>
      </trkpt>
      <trkpt lat="34.408552" lon="-100.943425">
        <ele>735.7</ele>
      </trkpt>
      <trkpt lat="34.40855" lon="-100.942387">
        <ele>733.4</ele>
      </trkpt>
      <trkpt lat="34.408548" lon="-100.94135">
        <ele>732.6</ele>
      </trkpt>
      <trkpt lat="34.408546" lon="-100.940312">
        <ele>732.3</ele>
      </trkpt>
      <trkpt lat="34.408544" lon="-100.939275">
        <ele>732.3</ele>
      </trkpt>
      <trkpt lat="34.408542" lon="-100.938237">
        <ele>732.9</ele>
      </trkpt>
      <trkpt lat="34.40854" lon="-100.9372">
        <ele>734.2</ele>
      </trkpt>
      <trkpt lat="34.40849" lon="-100.93711">
        <ele>734.0</ele>
      </trkpt>
      <trkpt lat="34.40835" lon="-100.93698">
        <ele>733.7</ele>
      </trkpt>
      <trkpt lat="34.40812" lon="-100.93696">
        <ele>733.0</ele>
      </trkpt>
      <trkpt lat="34.40737" lon="-100.936963">
        <ele>732.3</ele>
      </trkpt>
      <trkpt lat="34.40662" lon="-100.936967">
        <ele>730.7</ele>
      </trkpt>
      <trkpt lat="34.40587" lon="-100.93697">
        <ele>729.2</ele>
      </trkpt>
      <trkpt lat="34.40512" lon="-100.936973">
        <ele>727.9</ele>
      </trkpt>
      <trkpt lat="34.40437" lon="-100.936977">
        <ele>727.0</ele>
      </trkpt>
      <trkpt lat="34.40362" lon="-100.93698">
        <ele>726.1</ele>
      </trkpt>
      <trkpt lat="34.402848" lon="-100.936982">
        <ele>724.4</ele>
      </trkpt>
      <trkpt lat="34.402077" lon="-100.936983">
        <ele>723.2</ele>
      </trkpt>
      <trkpt lat="34.401305" lon="-100.936985">
        <ele>722.3</ele>
      </trkpt>
      <trkpt lat="34.400533" lon="-100.936987">
        <ele>722.2</ele>
      </trkpt>
      <trkpt lat="34.399762" lon="-100.936988">
        <ele>724.0</ele>
      </trkpt>
      <trkpt lat="34.39899" lon="-100.93699">
        <ele>725.0</ele>
      </trkpt>
      <trkpt lat="34.398994" lon="-100.936047">
        <ele>724.0</ele>
      </trkpt>
      <trkpt lat="34.398999" lon="-100.935104">
        <ele>722.1</ele>
      </trkpt>
      <trkpt lat="34.399003" lon="-100.934161">
        <ele>722.1</ele>
      </trkpt>
      <trkpt lat="34.399007" lon="-100.933219">
        <ele>724.6</ele>
      </trkpt>
      <trkpt lat="34.399011" lon="-100.932276">
        <ele>725.1</ele>
      </trkpt>
      <trkpt lat="34.399016" lon="-100.931333">
        <ele>726.6</ele>
      </trkpt>
      <trkpt lat="34.39902" lon="-100.93039">
        <ele>728.0</ele>
      </trkpt>
      <trkpt lat="34.399014" lon="-100.92938">
        <ele>726.2</ele>
      </trkpt>
      <trkpt lat="34.399008" lon="-100.92837">
        <ele>726.2</ele>
      </trkpt>
      <trkpt lat="34.399002" lon="-100.92736">
        <ele>727.8</ele>
      </trkpt>
      <trkpt lat="34.398996" lon="-100.92635">
        <ele>728.1</ele>
      </trkpt>
      <trkpt lat="34.39899" lon="-100.92534">
        <ele>727.4</ele>
      </trkpt>
      <trkpt lat="34.398984" lon="-100.92433">
        <ele>727.4</ele>
      </trkpt>
      <trkpt lat="34.398978" lon="-100.92332">
        <ele>728.4</ele>
      </trkpt>
      <trkpt lat="34.398972" lon="-100.92231">
        <ele>730.4</ele>
      </trkpt>
      <trkpt lat="34.398966" lon="-100.9213">
        <ele>733.5</ele>
      </trkpt>
      <trkpt lat="34.39896" lon="-100.92029">
        <ele>731.9</ele>
      </trkpt>
      <trkpt lat="34.39893" lon="-100.91996">
        <ele>730.4</ele>
      </trkpt>
      <trkpt lat="34.39874" lon="-100.91906">
        <ele>727.6</ele>
      </trkpt>
      <trkpt lat="34.398743" lon="-100.918233">
        <ele>723.6</ele>
      </trkpt>
      <trkpt lat="34.398747" lon="-100.917407">
        <ele>721.8</ele>
      </trkpt>
      <trkpt lat="34.39875" lon="-100.91658">
        <ele>721.0</ele>
      </trkpt>
      <trkpt lat="34.39875" lon="-100.91659">
        <ele>721.0</ele>
      </trkpt>
      <trkpt lat="34.398754" lon="-100.915514">
        <ele>720.2</ele>
      </trkpt>
      <trkpt lat="34.398758" lon="-100.914438">
        <ele>719.8</ele>
      </trkpt>
      <trkpt lat="34.398762" lon="-100.913362">
        <ele>719.8</ele>
      </trkpt>
      <trkpt lat="34.398766" lon="-100.912286">
        <ele>719.9</ele>
      </trkpt>
      <trkpt lat="34.39877" lon="-100.91121">
        <ele>720.4</ele>
      </trkpt>
      <trkpt lat="34.398774" lon="-100.910134">
        <ele>721.8</ele>
      </trkpt>
      <trkpt lat="34.398778" lon="-100.909058">
        <ele>723.6</ele>
      </trkpt>
      <trkpt lat="34.398782" lon="-100.907982">
        <ele>723.5</ele>
      </trkpt>
      <trkpt lat="34.398786" lon="-100.906906">
        <ele>721.4</ele>
      </trkpt>
      <trkpt lat="34.39879" lon="-100.90583">
        <ele>720.4</ele>
      </trkpt>
      <trkpt lat="34.398794" lon="-100.904754">
        <ele>719.2</ele>
      </trkpt>
      <trkpt lat="34.398798" lon="-100.903678">
        <ele>718.6</ele>
      </trkpt>
      <trkpt lat="34.398802" lon="-100.902602">
        <ele>718.3</ele>
      </trkpt>
      <trkpt lat="34.398806" lon="-100.901526">
        <ele>718.1</ele>
      </trkpt>
      <trkpt lat="34.39881" lon="-100.90045">
        <ele>718.6</ele>
      </trkpt>
      <trkpt lat="34.398825" lon="-100.899585">
        <ele>719.7</ele>
      </trkpt>
      <trkpt lat="34.39884" lon="-100.89872">
        <ele>720.6</ele>
      </trkpt>
      <trkpt lat="34.398135" lon="-100.89872">
        <ele>718.0</ele>
      </trkpt>
      <trkpt lat="34.39743" lon="-100.89872">
        <ele>717.8</ele>
      </trkpt>
      <trkpt lat="34.396547" lon="-100.898733">
        <ele>714.7</ele>
      </trkpt>
      <trkpt lat="34.395663" lon="-100.898747">
        <ele>714.0</ele>
      </trkpt>
      <trkpt lat="34.39478" lon="-100.89876">
        <ele>713.6</ele>
      </trkpt>
      <trkpt lat="34.394045" lon="-100.89876">
        <ele>712.5</ele>
      </trkpt>
      <trkpt lat="34.39331" lon="-100.89876">
        <ele>712.0</ele>
      </trkpt>
      <trkpt lat="34.393315" lon="-100.898165">
        <ele>710.9</ele>
      </trkpt>
      <trkpt lat="34.39332" lon="-100.89757">
        <ele>711.9</ele>
      </trkpt>
      <trkpt lat="34.39379" lon="-100.89758">
        <ele>712.5</ele>
      </trkpt>
    </trkseg>
  </trk>
</gpx>
