{"type": "FeatureCollection", "features": [{"type": "Feature", "geometry": {"type": "LineString", "coordinates": [[-97.16427, 33.47835], [-97.16446, 33.47862], [-97.16484, 33.479219], [-97.16501, 33.47959], [-97.16517, 33.48006], [-97.165229, 33.480469]]}, "properties": {"surface": "pavement", "label": "Pavement", "color": "#4A5568", "miles": 0.16, "start_mi": 0.0, "end_mi": 0.16, "road": "South Lee Street", "elev_ft": [689, 690, 693, 695, 697, 698]}}, {"type": "Feature", "geometry": {"type": "LineString", "coordinates": [[-97.16521, 33.48259], [-97.16521, 33.483629], [-97.16522, 33.48463], [-97.16522, 33.485329], [-97.16522, 33.48602], [-97.16522, 33.48669], [-97.16521, 33.4874], [-97.16518, 33.48823], [-97.16518, 33.48888]]}, "properties": {"surface": "unknown", "label": "Unverified", "color": "#9A9389", "miles": 0.43, "start_mi": 0.16, "end_mi": 0.59, "road": "Newton Street", "elev_ft": [703, 704, 705, 709, 713, 715, 719, 721, 721]}}, {"type": "Feature", "geometry": {"type": "LineString", "coordinates": [[-97.16518, 33.48905], [-97.16518, 33.48959], [-97.16518, 33.49026], [-97.16517, 33.49165], [-97.16519, 33.49304]]}, "properties": {"surface": "pavement", "label": "Pavement", "color": "#4A5568", "miles": 0.28, "start_mi": 0.59, "end_mi": 0.87, "road": "North Lee Street", "elev_ft": [721, 721, 720, 720, 722]}}, {"type": "Feature", "geometry": {"type": "LineString", "coordinates": [[-97.1652, 33.49351], [-97.165229, 33.494439], [-97.1652, 33.494999], [-97.16512, 33.49561], [-97.16503, 33.49618], [-97.164869, 33.4974], [-97.16489, 33.49783], [-97.165, 33.49873], [-97.16518, 33.49986], [-97.16535, 33.50113], [-97.16546, 33.50181], [-97.16547, 33.502049], [-97.16549, 33.502339], [-97.16551, 33.50296], [-97.16558, 33.50566], [-97.16565, 33.50777], [-97.16565, 33.50788], [-97.16564, 33.50793], [-97.16562, 33.50799], [-97.16559, 33.50804], [-97.16555, 33.50808], [-97.1655, 33.508119], [-97.16537, 33.5082], [-97.16537, 33.5082], [-97.16555, 33.509459], [-97.16579, 33.51108], [-97.16602, 33.51263], [-97.16615, 33.51353], [-97.16624, 33.51417], [-97.16629, 33.51446], [-97.16635, 33.51495], [-97.16642, 33.51565], [-97.16646, 33.516289], [-97.16649, 33.51691], [-97.1665, 33.517699], [-97.16652, 33.51831], [-97.16659, 33.51957], [-97.16663, 33.52057], [-97.16664, 33.520829], [-97.16669, 33.52347], [-97.16673, 33.525], [-97.16678, 33.52657]]}, "properties": {"surface": "pavement", "label": "Pavement", "color": "#4A5568", "miles": 2.3, "start_mi": 0.87, "end_mi": 3.17, "road": "North Lee Street", "elev_ft": [724, 725, 723, 721, 723, 731, 732, 730, 736, 738, 739, 739, 740, 742, 751, 754, 754, 754, 754, 754, 754, 754, 754, 754, 756, 758, 752, 752, 752, 751, 751, 751, 754, 758, 759, 755, 753, 753, 753, 761, 764, 763]}}, {"type": "Feature", "geometry": {"type": "LineString", "coordinates": [[-97.16683, 33.52814], [-97.16683, 33.52821], [-97.16683, 33.52821], [-97.16749, 33.528109], [-97.16795, 33.52803], [-97.16813, 33.52801], [-97.16832, 33.528], [-97.16885, 33.528019], [-97.1695, 33.528019], [-97.17245, 33.52803], [-97.17797, 33.52806], [-97.17856, 33.52807], [-97.18108, 33.52809], [-97.18151, 33.52809], [-97.18291, 33.52808], [-97.183539, 33.52807], [-97.18736, 33.52807], [-97.18854, 33.52806], [-97.18955, 33.52806], [-97.19069, 33.52806], [-97.197329, 33.52807], [-97.20108, 33.52808], [-97.20108, 33.52808], [-97.20107, 33.52716], [-97.20107, 33.52622], [-97.20106, 33.52509], [-97.20112, 33.52441], [-97.20117, 33.52347], [-97.201179, 33.522799], [-97.20116, 33.52162], [-97.201179, 33.52104], [-97.20119, 33.51717], [-97.20119, 33.51597], [-97.20119, 33.51453], [-97.201179, 33.51207], [-97.201179, 33.51017], [-97.201179, 33.510019]]}, "properties": {"surface": "unknown", "label": "Unverified", "color": "#9A9389", "miles": 3.23, "start_mi": 3.17, "end_mi": 6.39, "road": "County Road 202", "elev_ft": [762, 762, 762, 762, 762, 762, 762, 762, 762, 760, 745, 744, 742, 740, 731, 720, 739, 747, 751, 744, 720, 733, 733, 734, 735, 722, 721, 729, 733, 740, 738, 749, 761, 778, 799, 802, 803]}}, {"type": "Feature", "geometry": {"type": "LineString", "coordinates": [[-97.201179, 33.50939], [-97.201179, 33.50939], [-97.2024, 33.50939], [-97.206909, 33.50938], [-97.20702, 33.50936], [-97.20714, 33.50933], [-97.20714, 33.50933], [-97.20733, 33.50945], [-97.20753, 33.50954], [-97.20775, 33.50959], [-97.21772, 33.509569], [-97.21868, 33.509569], [-97.224279, 33.5096], [-97.22435, 33.50968], [-97.2244, 33.50972], [-97.22458, 33.50987], [-97.22478, 33.51001], [-97.22493, 33.51008], [-97.22511, 33.51012], [-97.22533, 33.51012], [-97.22985, 33.51014], [-97.23213, 33.510109], [-97.23625, 33.51012], [-97.24024, 33.51016], [-97.24885, 33.51028], [-97.24885, 33.51028], [-97.2488, 33.5138], [-97.2488, 33.5138]]}, "properties": {"surface": "pavement", "label": "Pavement", "color": "#4A5568", "miles": 3.01, "start_mi": 6.39, "end_mi": 9.4, "road": "County Road 322", "elev_ft": [808, 808, 813, 809, 808, 807, 807, 807, 806, 805, 810, 812, 823, 823, 823, 824, 825, 825, 826, 826, 839, 844, 874, 886, 840, 840, 823, 823]}}, {"type": "Feature", "geometry": {"type": "LineString", "coordinates": [[-97.24965, 33.51379], [-97.25054, 33.51379], [-97.25063, 33.5138], [-97.25203, 33.51381], [-97.25327, 33.51381], [-97.25445, 33.51384], [-97.25565, 33.51384], [-97.25677, 33.513849], [-97.25772, 33.51386], [-97.25905, 33.51388], [-97.26048, 33.51391], [-97.261799, 33.51392], [-97.26403, 33.51393], [-97.26566, 33.51395], [-97.2676, 33.51395], [-97.2676, 33.51395], [-97.26755, 33.516109], [-97.26754, 33.51652], [-97.26755, 33.51666], [-97.26758, 33.51673], [-97.26763, 33.51681], [-97.26763, 33.51681]]}, "properties": {"surface": "caliche", "label": "Caliche / gravel", "color": "#C98A24", "miles": 1.23, "start_mi": 9.4, "end_mi": 10.63, "road": "County Road 356", "elev_ft": [829, 839, 840, 860, 873, 877, 885, 891, 899, 905, 912, 919, 919, 907, 895, 895, 899, 900, 901, 902, 902, 902]}}, {"type": "Feature", "geometry": {"type": "LineString", "coordinates": [[-97.26784, 33.51661], [-97.26883, 33.51562], [-97.26887, 33.515569], [-97.269049, 33.515389], [-97.26933, 33.51509], [-97.26961, 33.51478], [-97.26992, 33.514409], [-97.27015, 33.51412], [-97.27034, 33.513869], [-97.27049, 33.51364], [-97.27128, 33.51256], [-97.27169, 33.51198], [-97.27206, 33.51146], [-97.2724, 33.511], [-97.27285, 33.51035], [-97.275499, 33.506659], [-97.27604, 33.505899], [-97.27961, 33.500909], [-97.28024, 33.500079], [-97.28131, 33.498579], [-97.28231, 33.49718], [-97.28334, 33.49573], [-97.28341, 33.49564], [-97.28359, 33.495379], [-97.28359, 33.495379], [-97.283779, 33.495379], [-97.28397, 33.49537], [-97.28402, 33.49537], [-97.28444, 33.495359], [-97.28551, 33.49534]]}, "properties": {"surface": "pavement", "label": "Pavement", "color": "#4A5568", "miles": 1.84, "start_mi": 10.63, "end_mi": 12.47, "road": "Farm-to-Market Road 51", "elev_ft": [901, 891, 891, 890, 889, 888, 886, 886, 885, 885, 883, 882, 882, 882, 883, 896, 894, 871, 880, 894, 898, 894, 894, 892, 892, 892, 892, 892, 892, 891]}}, {"type": "Feature", "geometry": {"type": "LineString", "coordinates": [[-97.28702, 33.49535], [-97.287719, 33.49535], [-97.28818, 33.49537], [-97.289869, 33.49542], [-97.29033, 33.49543], [-97.29092, 33.49544], [-97.29149, 33.49544], [-97.29227, 33.49546], [-97.2924, 33.49546], [-97.2925, 33.495469], [-97.29258, 33.495489], [-97.29266, 33.49551], [-97.2928, 33.49555], [-97.292869, 33.49557], [-97.29293, 33.4956], [-97.29299, 33.49564], [-97.29308, 33.49569], [-97.29321, 33.49578], [-97.29332, 33.49586], [-97.29343, 33.495939], [-97.29356, 33.49601], [-97.29366, 33.496049], [-97.29376, 33.49609], [-97.29386, 33.496119], [-97.29395, 33.496139], [-97.29405, 33.49615]]}, "properties": {"surface": "two_track", "label": "Ranch two-track", "color": "#6B5A45", "miles": 0.42, "start_mi": 12.47, "end_mi": 12.89, "road": "West Farm-to-Market Road 922", "elev_ft": [902, 906, 909, 925, 930, 933, 935, 938, 939, 940, 940, 940, 941, 941, 941, 941, 942, 942, 942, 943, 943, 943, 944, 944, 944, 944]}}, {"type": "Feature", "geometry": {"type": "LineString", "coordinates": [[-97.29423, 33.49617], [-97.29472, 33.49619], [-97.29727, 33.49627], [-97.29834, 33.49631], [-97.29834, 33.49631], [-97.29839, 33.49438], [-97.29841, 33.49365]]}, "properties": {"surface": "pavement", "label": "Pavement", "color": "#4A5568", "miles": 0.42, "start_mi": 12.89, "end_mi": 13.31, "road": "County Road 381", "elev_ft": [945, 946, 952, 952, 952, 942, 939]}}, {"type": "Feature", "geometry": {"type": "LineString", "coordinates": [[-97.29876, 33.48259], [-97.29876, 33.48259], [-97.29986, 33.48259], [-97.30124, 33.48258], [-97.30454, 33.48261], [-97.30482, 33.48261], [-97.306, 33.48265], [-97.30777, 33.4827], [-97.30906, 33.48274], [-97.31023, 33.48278], [-97.31143, 33.48281], [-97.31272, 33.48286], [-97.31328, 33.48288], [-97.31338, 33.48287], [-97.31343, 33.482819], [-97.31346, 33.482729], [-97.31353, 33.4806], [-97.31355, 33.47999], [-97.31363, 33.47817], [-97.313689, 33.4763], [-97.31376, 33.47495], [-97.31378, 33.47486], [-97.31381, 33.47479], [-97.31388, 33.47473], [-97.313999, 33.474719], [-97.31417, 33.47473], [-97.31442, 33.474739], [-97.31475, 33.47475], [-97.31525, 33.47477], [-97.31577, 33.47479], [-97.3162, 33.474809], [-97.31669, 33.474809], [-97.31712, 33.4748], [-97.31747, 33.47479], [-97.31779, 33.47477], [-97.31811, 33.47476], [-97.31851, 33.474739], [-97.31875, 33.474739], [-97.31899, 33.47476], [-97.319239, 33.47478], [-97.31948, 33.47482], [-97.31963, 33.474829], [-97.31973, 33.474829], [-97.31995, 33.47482], [-97.32265, 33.47491], [-97.3252, 33.47499], [-97.32711, 33.47506], [-97.32769, 33.47508], [-97.32819, 33.47509], [-97.32855, 33.47509], [-97.32886, 33.475099], [-97.32916, 33.475119], [-97.32934, 33.475119], [-97.32941, 33.475099], [-97.32947, 33.47507], [-97.32962, 33.47497], [-97.32983, 33.47482], [-97.32983, 33.47482], [-97.32995, 33.46927], [-97.32995, 33.46927], [-97.33144, 33.46847], [-97.33229, 33.46797], [-97.33264, 33.46776], [-97.33442, 33.46671], [-97.33664, 33.465429], [-97.33741, 33.46497], [-97.33754, 33.464869], [-97.33765, 33.46474], [-97.33789, 33.464419], [-97.33829, 33.46388], [-97.33841, 33.46371], [-97.3385, 33.463569], [-97.33856, 33.46336], [-97.33864, 33.463009], [-97.33871, 33.4626], [-97.3388, 33.462049], [-97.33884, 33.46174], [-97.33889, 33.461489], [-97.33892, 33.46138], [-97.33899, 33.461239], [-97.33909, 33.46114], [-97.3392, 33.46107], [-97.33927, 33.46106], [-97.33937, 33.46107], [-97.3395, 33.4611], [-97.33971, 33.46117], [-97.33993, 33.46121], [-97.34014, 33.46121], [-97.34262, 33.46126], [-97.34275, 33.46125], [-97.34284, 33.461199], [-97.34296, 33.461109], [-97.34314, 33.46094], [-97.34356, 33.46053], [-97.34388, 33.46022], [-97.34397, 33.46016], [-97.34409, 33.460099], [-97.34422, 33.46009], [-97.34442, 33.46009], [-97.34475, 33.46011], [-97.34518, 33.46013], [-97.3459, 33.46014], [-97.34656, 33.46015], [-97.34729, 33.46016], [-97.34783, 33.460169], [-97.348429, 33.460169], [-97.34895, 33.460169], [-97.34947, 33.460189], [-97.34994, 33.4602], [-97.35015, 33.4602], [-97.35059, 33.4602], [-97.35096, 33.460209], [-97.35118, 33.46022], [-97.35122, 33.460209], [-97.35127, 33.4602], [-97.35135, 33.46014], [-97.351429, 33.46005], [-97.35183, 33.45932], [-97.35209, 33.458979], [-97.35243, 33.458689], [-97.35281, 33.45843], [-97.35315, 33.45821], [-97.35396, 33.45792], [-97.35457, 33.457659], [-97.35478, 33.45756], [-97.35488, 33.45753], [-97.35509, 33.45751], [-97.35562, 33.45753], [-97.35685, 33.457549], [-97.358279, 33.45758], [-97.36008, 33.45761], [-97.36018, 33.45758], [-97.36024, 33.45752], [-97.360249, 33.45722], [-97.360249, 33.45671], [-97.360249, 33.45626], [-97.36027, 33.45595], [-97.36032, 33.455759], [-97.36039, 33.45562], [-97.36058, 33.45535], [-97.36065, 33.45523], [-97.36075, 33.455109], [-97.36087, 33.45499], [-97.361, 33.45488], [-97.36117, 33.454749], [-97.3613, 33.4547], [-97.36143, 33.45467], [-97.36165, 33.45463], [-97.36202, 33.45458], [-97.36227, 33.45456], [-97.36246, 33.45456], [-97.36274, 33.454639], [-97.36302, 33.454729], [-97.3632, 33.45481], [-97.36332, 33.45489], [-97.36362, 33.45505], [-97.36391, 33.45518], [-97.36417, 33.455289], [-97.364459, 33.45541], [-97.36507, 33.455669], [-97.36538, 33.45581], [-97.36621, 33.45619], [-97.36742, 33.45677], [-97.3692, 33.45761], [-97.37064, 33.4583], [-97.37096, 33.45844], [-97.37108, 33.45847], [-97.37116, 33.45846], [-97.37176, 33.45809], [-97.37231, 33.457749], [-97.37251, 33.45765], [-97.37278, 33.45752], [-97.37291, 33.45744], [-97.37295, 33.45732], [-97.37294, 33.457189], [-97.37291, 33.45694], [-97.37296, 33.45677], [-97.37308, 33.456519], [-97.3732, 33.45627], [-97.37325, 33.45594], [-97.37332, 33.45547], [-97.37331, 33.45523], [-97.37332, 33.45508], [-97.37336, 33.45496], [-97.37347, 33.45492], [-97.37362, 33.45489], [-97.37385, 33.4549], [-97.37421, 33.454929], [-97.37458, 33.45503], [-97.37504, 33.455199], [-97.37554, 33.45543], [-97.376099, 33.45568], [-97.37653, 33.45574], [-97.37681, 33.45575], [-97.37701, 33.455759], [-97.37736, 33.4557], [-97.37761, 33.45566], [-97.37776, 33.455669], [-97.37791, 33.45571], [-97.37815, 33.4558], [-97.37848, 33.45597], [-97.37873, 33.45608], [-97.37895, 33.456159], [-97.3796, 33.456359], [-97.38075, 33.45673], [-97.38148, 33.45696], [-97.381919, 33.45713], [-97.38213, 33.45724], [-97.38227, 33.45735], [-97.38239, 33.457479], [-97.382679, 33.45781], [-97.38283, 33.458], [-97.3829, 33.45814], [-97.38304, 33.4585], [-97.38318, 33.45891], [-97.3833, 33.45928], [-97.38336, 33.45956], [-97.38342, 33.46007], [-97.38345, 33.46058], [-97.383439, 33.46128], [-97.38347, 33.46146], [-97.38355, 33.46155], [-97.38363, 33.46159], [-97.38381, 33.46163], [-97.38432, 33.46164], [-97.38484, 33.46166], [-97.385409, 33.4617], [-97.38594, 33.46172], [-97.38646, 33.46177], [-97.3867, 33.46183], [-97.38687, 33.461889], [-97.38705, 33.462], [-97.3872, 33.46213], [-97.38734, 33.46229], [-97.38748, 33.46242], [-97.38763, 33.46256], [-97.3878, 33.462649], [-97.38804, 33.462739], [-97.38826, 33.462809], [-97.38845, 33.46284], [-97.38875, 33.46284], [-97.38905, 33.462829], [-97.391409, 33.46276], [-97.391409, 33.46276], [-97.39146, 33.46116], [-97.39146, 33.46087], [-97.39145, 33.46056], [-97.39143, 33.46031], [-97.39139, 33.46011], [-97.39135, 33.45996], [-97.39092, 33.45921], [-97.39096, 33.45888], [-97.39107, 33.458599], [-97.391229, 33.45832], [-97.391409, 33.45806], [-97.39189, 33.4574], [-97.39243, 33.456609], [-97.3926, 33.456359], [-97.39275, 33.456069], [-97.39292, 33.45579], [-97.39309, 33.45561], [-97.39321, 33.45552], [-97.39331, 33.45547], [-97.39371, 33.455329], [-97.39386, 33.45527], [-97.39398, 33.45518], [-97.394049, 33.45508], [-97.3942, 33.45471], [-97.39437, 33.45427], [-97.39449, 33.45394], [-97.39457, 33.45359], [-97.39462, 33.4532], [-97.39464, 33.45288], [-97.394679, 33.45275], [-97.39454, 33.45232], [-97.39426, 33.45179], [-97.39404, 33.45141], [-97.39389, 33.45093], [-97.39379, 33.45037], [-97.39367, 33.45], [-97.39352, 33.449309], [-97.3934, 33.44845], [-97.39332, 33.44783], [-97.3933, 33.44744], [-97.39327, 33.44635], [-97.39328, 33.44605], [-97.39332, 33.445839], [-97.3936, 33.44536], [-97.39382, 33.445], [-97.39399, 33.44486], [-97.39489, 33.44427], [-97.39566, 33.44354], [-97.39587, 33.44323], [-97.39592, 33.442999], [-97.39594, 33.44014], [-97.39595, 33.438769], [-97.39597, 33.4386], [-97.39601, 33.43695], [-97.39603, 33.43678], [-97.39596, 33.4367], [-97.39583, 33.43663], [-97.39312, 33.43657], [-97.38396, 33.436529], [-97.381829, 33.43651], [-97.38157, 33.43648], [-97.38157, 33.43631], [-97.38159, 33.43502], [-97.3816, 33.43291], [-97.38159, 33.43256], [-97.38164, 33.43246], [-97.381739, 33.43236], [-97.38214, 33.431959], [-97.38254, 33.43159], [-97.38274, 33.431359], [-97.3828, 33.43121], [-97.383, 33.43074], [-97.38301, 33.430639], [-97.38301, 33.43057], [-97.38298, 33.43052], [-97.38292, 33.43049], [-97.382859, 33.43047], [-97.3818, 33.430439], [-97.38172, 33.430419]]}, "properties": {"surface": "caliche", "label": "Caliche / gravel", "color": "#C98A24", "miles": 10.65, "start_mi": 13.31, "end_mi": 23.97, "road": "County Road 333", "elev_ft": [939, 939, 933, 926, 934, 933, 929, 917, 908, 898, 889, 884, 880, 879, 879, 878, 875, 873, 877, 870, 853, 854, 855, 856, 855, 853, 852, 851, 849, 847, 845, 844, 842, 841, 840, 840, 848, 856, 857, 856, 856, 857, 860, 863, 884, 893, 903, 904, 904, 904, 903, 901, 899, 898, 897, 896, 895, 895, 895, 895, 891, 880, 877, 854, 833, 826, 825, 823, 818, 810, 810, 814, 817, 818, 824, 827, 831, 832, 832, 833, 835, 836, 837, 838, 839, 841, 841, 843, 865, 867, 867, 868, 868, 864, 861, 861, 860, 859, 858, 857, 857, 858, 857, 855, 853, 850, 844, 841, 839, 837, 832, 822, 820, 820, 821, 822, 823, 816, 813, 809, 808, 804, 790, 781, 780, 780, 779, 770, 766, 765, 764, 763, 762, 763, 763, 764, 763, 761, 761, 746, 751, 774, 783, 789, 792, 797, 801, 806, 815, 821, 826, 837, 841, 845, 848, 852, 858, 860, 864, 871, 873, 877, 881, 869, 879, 885, 888, 889, 890, 880, 879, 878, 876, 875, 874, 871, 865, 853, 843, 833, 819, 811, 809, 808, 807, 807, 808, 807, 803, 798, 794, 785, 779, 775, 773, 769, 769, 772, 774, 777, 780, 780, 780, 779, 771, 769, 767, 766, 765, 766, 765, 767, 768, 776, 779, 785, 787, 794, 796, 807, 807, 806, 805, 801, 781, 788, 791, 789, 787, 787, 787, 787, 787, 789, 790, 793, 791, 789, 789, 787, 785, 781, 782, 782, 774, 772, 771, 770, 771, 770, 770, 771, 770, 769, 770, 771, 771, 771, 771, 771, 772, 773, 774, 776, 776, 776, 777, 777, 776, 777, 779, 782, 786, 787, 792, 799, 803, 811, 828, 835, 835, 841, 841, 842, 849, 857, 863, 876, 883, 885, 896, 903, 904, 904, 924, 940, 940, 930, 929, 927, 925, 928, 900, 895, 895, 895, 893, 876, 872, 872, 871, 866, 864, 862, 862, 861, 861, 861, 861, 861, 862, 864, 865]}}, {"type": "Feature", "geometry": {"type": "LineString", "coordinates": [[-97.38166, 33.43036], [-97.38166, 33.43036], [-97.38162, 33.43032], [-97.3816, 33.43025], [-97.38158, 33.430169], [-97.3816, 33.42875], [-97.38161, 33.42779], [-97.38164, 33.4269], [-97.38164, 33.42684], [-97.38164, 33.42563], [-97.38166, 33.42414], [-97.38169, 33.42304], [-97.38169, 33.422469], [-97.38173, 33.42139], [-97.381739, 33.4213], [-97.381739, 33.421169], [-97.38173, 33.42108], [-97.38168, 33.420949], [-97.38104, 33.4194], [-97.3796, 33.416089], [-97.37845, 33.41389], [-97.37809, 33.41324], [-97.37809, 33.41314], [-97.37809, 33.41304], [-97.37823, 33.41294], [-97.37849, 33.41284], [-97.37906, 33.41264], [-97.37955, 33.412439], [-97.37993, 33.41229], [-97.38003, 33.4122], [-97.3801, 33.4121], [-97.38021, 33.41181], [-97.38028, 33.41151], [-97.38031, 33.41142], [-97.38036, 33.41127], [-97.38038, 33.41116], [-97.38039, 33.41109], [-97.3804, 33.411], [-97.38036, 33.4106], [-97.38025, 33.409439], [-97.38022, 33.40916], [-97.38024, 33.40908], [-97.38046, 33.40882], [-97.38097, 33.40826], [-97.38223, 33.40688], [-97.38279, 33.40628], [-97.38308, 33.40594], [-97.38393, 33.404829], [-97.38419, 33.4045], [-97.38424, 33.4044], [-97.38428, 33.40431], [-97.3843, 33.40424], [-97.38431, 33.404159], [-97.38435, 33.40289], [-97.38442, 33.400869], [-97.38452, 33.398269], [-97.38454, 33.39784], [-97.38461, 33.396279], [-97.38463, 33.39567]]}, "properties": {"surface": "pavement", "label": "Pavement", "color": "#4A5568", "miles": 2.59, "start_mi": 23.97, "end_mi": 26.55, "road": "Fortenberry Road", "elev_ft": [869, 869, 870, 872, 875, 886, 881, 872, 871, 864, 855, 875, 874, 865, 865, 865, 865, 865, 855, 811, 818, 817, 816, 814, 815, 817, 820, 819, 819, 818, 817, 810, 802, 800, 800, 801, 802, 803, 812, 822, 834, 837, 847, 862, 890, 894, 898, 898, 899, 900, 900, 900, 900, 902, 910, 898, 907, 931, 936]}}, {"type": "Feature", "geometry": {"type": "LineString", "coordinates": [[-97.384829, 33.39056], [-97.38553, 33.37195], [-97.38553, 33.37195], [-97.38407, 33.37192], [-97.3814, 33.371879], [-97.37205, 33.37174], [-97.36997, 33.371699], [-97.35526, 33.37147], [-97.35196, 33.371409], [-97.35045, 33.371389], [-97.35019, 33.371389], [-97.34941, 33.37137], [-97.34865, 33.37136], [-97.34792, 33.37135], [-97.34748, 33.37135], [-97.34727, 33.37136], [-97.34712, 33.37142], [-97.34703, 33.37154], [-97.347, 33.37165], [-97.34686, 33.37565], [-97.34683, 33.37645], [-97.3463, 33.38947], [-97.34622, 33.3913], [-97.346, 33.396389], [-97.34591, 33.39979], [-97.34576, 33.40263], [-97.34574, 33.40269], [-97.34569, 33.40273], [-97.34564, 33.40273], [-97.34554, 33.40273], [-97.3419, 33.40139], [-97.34181, 33.40135], [-97.34173, 33.40128], [-97.34171, 33.40123], [-97.34172, 33.40113], [-97.34177, 33.40103], [-97.34181, 33.40091], [-97.34182, 33.40086], [-97.3418, 33.40081], [-97.34179, 33.400779], [-97.34173, 33.40073], [-97.33655, 33.399299], [-97.33617, 33.39918], [-97.33523, 33.398919], [-97.33487, 33.39882], [-97.33433, 33.39866], [-97.33248, 33.39812], [-97.33179, 33.39793], [-97.33028, 33.397489], [-97.32768, 33.39674], [-97.32562, 33.39613], [-97.32509, 33.39598], [-97.32505, 33.39594], [-97.32503, 33.39588], [-97.32501, 33.39557], [-97.32501, 33.39405], [-97.32499, 33.39398], [-97.32496, 33.39394], [-97.3249, 33.39391], [-97.32484, 33.3939], [-97.32468, 33.3939], [-97.32452, 33.3939], [-97.31943, 33.39398], [-97.31939, 33.39397], [-97.31929, 33.39388], [-97.319149, 33.39374], [-97.31873, 33.393369], [-97.31855, 33.39321], [-97.3184, 33.39311], [-97.31824, 33.39304], [-97.31693, 33.39269], [-97.31647, 33.39256], [-97.31632, 33.39249], [-97.31122, 33.389249], [-97.31078, 33.38899], [-97.30994, 33.388489], [-97.30901, 33.3879], [-97.30579, 33.38588], [-97.3042, 33.38488], [-97.30344, 33.38439], [-97.30331, 33.38433], [-97.30314, 33.384259], [-97.30299, 33.38424], [-97.30283, 33.38421], [-97.30162, 33.38421], [-97.30033, 33.384189], [-97.296989, 33.38414], [-97.29566, 33.38413], [-97.295, 33.38411], [-97.29446, 33.384079], [-97.29412, 33.384059], [-97.293539, 33.38405], [-97.29195, 33.38402]]}, "properties": {"surface": "caliche", "label": "Caliche / gravel", "color": "#C98A24", "miles": 9.25, "start_mi": 26.55, "end_mi": 35.8, "road": "Waide Road", "elev_ft": [954, 981, 981, 974, 967, 943, 933, 911, 933, 941, 942, 940, 935, 931, 929, 928, 928, 928, 928, 911, 906, 815, 824, 875, 854, 883, 882, 880, 879, 878, 838, 836, 835, 835, 835, 836, 836, 836, 836, 835, 834, 818, 816, 810, 814, 817, 809, 807, 803, 795, 791, 787, 787, 787, 785, 772, 771, 771, 771, 771, 771, 769, 726, 723, 717, 722, 737, 740, 744, 750, 792, 794, 794, 773, 760, 764, 769, 793, 775, 767, 767, 766, 766, 766, 760, 756, 737, 709, 704, 700, 708, 715, 709]}}, {"type": "Feature", "geometry": {"type": "LineString", "coordinates": [[-97.29052, 33.383989], [-97.29038, 33.38395], [-97.29031, 33.38386], [-97.2903, 33.38376], [-97.29031, 33.383159], [-97.2903, 33.38308], [-97.29026, 33.38304], [-97.29021, 33.38298], [-97.29015, 33.38295], [-97.290049, 33.38293], [-97.28754, 33.3829], [-97.286109, 33.3829], [-97.285929, 33.38291], [-97.28581, 33.38295], [-97.2857, 33.38301], [-97.28525, 33.38345], [-97.28497, 33.38367], [-97.28473, 33.383809], [-97.28446, 33.38395], [-97.284319, 33.383989], [-97.28408, 33.38396], [-97.28381, 33.38365], [-97.283779, 33.38324], [-97.28365, 33.38304], [-97.28326, 33.38293], [-97.27992, 33.38293], [-97.27733, 33.3829], [-97.27621, 33.38289], [-97.2757, 33.38288], [-97.2753, 33.38295], [-97.27439, 33.383159], [-97.27418, 33.383249], [-97.27378, 33.38384], [-97.27349, 33.38429], [-97.27324, 33.38452], [-97.27288, 33.384729], [-97.27273, 33.38483], [-97.27265, 33.38543], [-97.27262, 33.3858], [-97.27251, 33.3859], [-97.27238, 33.38597], [-97.27182, 33.38589], [-97.27153, 33.385849], [-97.27101, 33.38581], [-97.26976, 33.38574], [-97.26927, 33.3857], [-97.26869, 33.385669], [-97.26827, 33.38564], [-97.26622, 33.38552], [-97.26523, 33.385469], [-97.26523, 33.385469], [-97.26522, 33.38684], [-97.26521, 33.3877], [-97.26517, 33.38929], [-97.26513, 33.3921], [-97.2651, 33.39327], [-97.265, 33.395519], [-97.26499, 33.39584], [-97.26499, 33.396299]]}, "properties": {"surface": "pavement", "label": "Pavement", "color": "#4A5568", "miles": 2.47, "start_mi": 35.8, "end_mi": 38.27, "road": "Waide Road", "elev_ft": [709, 709, 709, 710, 724, 724, 725, 727, 728, 729, 733, 727, 725, 724, 723, 723, 719, 713, 707, 704, 699, 692, 690, 689, 689, 686, 685, 684, 682, 682, 681, 682, 684, 686, 687, 687, 687, 688, 690, 690, 688, 663, 686, 684, 702, 714, 724, 728, 746, 737, 737, 749, 758, 768, 781, 802, 798, 800, 801]}}, {"type": "Feature", "geometry": {"type": "LineString", "coordinates": [[-97.26496, 33.39642], [-97.26493, 33.39654], [-97.26493, 33.39654], [-97.26429, 33.39654], [-97.26314, 33.39652], [-97.26213, 33.39652], [-97.26151, 33.39651], [-97.260949, 33.39652], [-97.260949, 33.39652], [-97.26097, 33.396929], [-97.26096, 33.3988], [-97.26096, 33.39885], [-97.260949, 33.398899], [-97.260949, 33.39893], [-97.26093, 33.39897], [-97.26089, 33.39903], [-97.2609, 33.399099], [-97.26092, 33.39931], [-97.26092, 33.39959], [-97.26092, 33.39983], [-97.26092, 33.400239], [-97.26091, 33.400489], [-97.26089, 33.40135], [-97.26088, 33.40226], [-97.26088, 33.402299], [-97.26087, 33.40316], [-97.260859, 33.40354]]}, "properties": {"surface": "pavement", "label": "Pavement", "color": "#4A5568", "miles": 0.72, "start_mi": 38.27, "end_mi": 39.0, "road": "Farm-to-Market Road 2450", "elev_ft": [801, 801, 801, 799, 801, 802, 802, 802, 802, 802, 811, 811, 811, 811, 811, 811, 811, 812, 812, 812, 811, 809, 805, 809, 809, 812, 812]}}, {"type": "Feature", "geometry": {"type": "LineString", "coordinates": [[-97.26083, 33.40523], [-97.2608, 33.40661], [-97.26071, 33.410649], [-97.26069, 33.411879], [-97.2606, 33.41585], [-97.26056, 33.4179], [-97.26056, 33.418709], [-97.26057, 33.419739], [-97.26057, 33.42054], [-97.26055, 33.42105], [-97.26055, 33.421529], [-97.26052, 33.42252], [-97.26051, 33.42298], [-97.26049, 33.423769], [-97.26049, 33.42402], [-97.26049, 33.42416], [-97.260499, 33.42429], [-97.260499, 33.42429], [-97.25816, 33.42425], [-97.25737, 33.424239], [-97.25566, 33.42421], [-97.25548, 33.42421], [-97.25548, 33.42421], [-97.25548, 33.42445], [-97.25546, 33.42629], [-97.25541, 33.42931], [-97.25541, 33.43058], [-97.25537, 33.43072], [-97.25529, 33.43088], [-97.255039, 33.431179], [-97.25482, 33.431469], [-97.25472, 33.43171], [-97.25469, 33.43187], [-97.254679, 33.43219], [-97.2546, 33.43696], [-97.25454, 33.44001], [-97.25454, 33.441679], [-97.25452, 33.44366], [-97.25451, 33.44495], [-97.25448, 33.446469], [-97.25447, 33.44701], [-97.254409, 33.452489], [-97.25436, 33.45622], [-97.25433, 33.458759], [-97.25432, 33.46009], [-97.2543, 33.46145], [-97.25426, 33.46268], [-97.2542, 33.46589], [-97.2542, 33.46589], [-97.25114, 33.46584], [-97.25029, 33.465829], [-97.24926, 33.465809], [-97.24909, 33.465829], [-97.24899, 33.46586], [-97.2489, 33.46591], [-97.24884, 33.46598], [-97.24881, 33.46607], [-97.2488, 33.46616], [-97.24881, 33.469009], [-97.24881, 33.469009]]}, "properties": {"surface": "pavement", "label": "Pavement", "color": "#4A5568", "miles": 5.02, "start_mi": 39.0, "end_mi": 44.02, "road": "County Road 321", "elev_ft": [813, 823, 820, 826, 831, 848, 858, 867, 871, 867, 863, 851, 848, 844, 844, 843, 843, 843, 833, 826, 823, 822, 822, 823, 808, 806, 816, 816, 817, 817, 817, 817, 817, 817, 790, 802, 811, 807, 797, 785, 785, 815, 838, 842, 843, 837, 825, 817, 817, 800, 802, 804, 804, 804, 804, 804, 804, 804, 810, 810]}}, {"type": "Feature", "geometry": {"type": "LineString", "coordinates": [[-97.245009, 33.468989], [-97.24342, 33.46898], [-97.24015, 33.46895], [-97.23884, 33.46893], [-97.23826, 33.468919], [-97.23614, 33.46889], [-97.23574, 33.46887], [-97.23555, 33.46886], [-97.23538, 33.46885], [-97.2352, 33.468829], [-97.23501, 33.46882], [-97.23455, 33.46882], [-97.23204, 33.468809], [-97.23157, 33.4688], [-97.23062, 33.4688], [-97.23016, 33.46879], [-97.22693, 33.46879], [-97.22376, 33.46875], [-97.223429, 33.468739], [-97.22328, 33.468739], [-97.22321, 33.46877], [-97.22315, 33.46882], [-97.22313, 33.46888], [-97.22312, 33.46902], [-97.22312, 33.46902], [-97.22017, 33.46902], [-97.21585, 33.46904], [-97.21528, 33.469029], [-97.21513, 33.469029], [-97.21504, 33.46905], [-97.21494, 33.46909], [-97.21485, 33.46914], [-97.21478, 33.4692], [-97.21471, 33.46926], [-97.21464, 33.469369], [-97.2146, 33.469479], [-97.21458, 33.46961], [-97.21458, 33.46987], [-97.21459, 33.47095], [-97.21459, 33.47408], [-97.21458, 33.47415], [-97.214519, 33.47421], [-97.21441, 33.474249], [-97.21424, 33.474249], [-97.21004, 33.47422], [-97.20845, 33.47421], [-97.20233, 33.4742], [-97.20216, 33.474359], [-97.20197, 33.4745], [-97.20182, 33.474559], [-97.20165, 33.47458], [-97.19946, 33.474559]]}, "properties": {"surface": "caliche", "label": "Caliche / gravel", "color": "#C98A24", "miles": 2.99, "start_mi": 44.02, "end_mi": 47.01, "road": "County Road 332", "elev_ft": [811, 803, 815, 819, 819, 838, 841, 842, 842, 842, 842, 842, 844, 844, 840, 838, 827, 813, 812, 812, 811, 810, 809, 807, 807, 804, 778, 773, 772, 772, 772, 773, 773, 774, 775, 776, 777, 779, 793, 803, 803, 802, 802, 801, 800, 791, 751, 753, 754, 753, 753, 737]}}, {"type": "Feature", "geometry": {"type": "LineString", "coordinates": [[-97.19924, 33.47453], [-97.19924, 33.47453], [-97.198939, 33.47455], [-97.19812, 33.47457], [-97.19371, 33.47467], [-97.19325, 33.4747], [-97.1931, 33.474719], [-97.19298, 33.474739], [-97.19276, 33.474809], [-97.19248, 33.474919], [-97.19219, 33.475029], [-97.19194, 33.47516], [-97.19168, 33.47532], [-97.19137, 33.47554], [-97.19111, 33.47578], [-97.19091, 33.47598], [-97.19069, 33.47626], [-97.19054, 33.476509], [-97.1904, 33.476799], [-97.19032, 33.47703], [-97.19024, 33.477339], [-97.190209, 33.47768], [-97.19019, 33.47795], [-97.1902, 33.47823], [-97.1902, 33.478409], [-97.19018, 33.47928], [-97.19015, 33.48031], [-97.19013, 33.48147], [-97.19014, 33.482819], [-97.19013, 33.48371], [-97.19013, 33.48677], [-97.19013, 33.487099], [-97.19008, 33.48753], [-97.19008, 33.48753], [-97.18995, 33.487499], [-97.18982, 33.48747], [-97.189629, 33.48743], [-97.18953, 33.487409], [-97.18947, 33.4874], [-97.18928, 33.48738], [-97.189089, 33.48736], [-97.18896, 33.48736], [-97.18884, 33.48735], [-97.18855, 33.48735], [-97.18828, 33.48736], [-97.188, 33.48736], [-97.18774, 33.48736], [-97.187, 33.48737], [-97.18698, 33.48737], [-97.18684, 33.487389], [-97.18585, 33.4874], [-97.18376, 33.4874], [-97.18314, 33.4874], [-97.18214, 33.4874], [-97.18004, 33.4874], [-97.17872, 33.4874], [-97.17372, 33.48746], [-97.17317, 33.48746], [-97.172929, 33.48746], [-97.17243, 33.48747], [-97.17213, 33.487479], [-97.17174, 33.487479], [-97.17144, 33.48749], [-97.1713, 33.487499], [-97.17119, 33.487499], [-97.17093, 33.48752], [-97.17076, 33.48753], [-97.17057, 33.48755], [-97.17055, 33.48755], [-97.17041, 33.487569], [-97.17025, 33.4876], [-97.17008, 33.48762], [-97.16994, 33.48765], [-97.16982, 33.48767], [-97.16962, 33.48771], [-97.16944, 33.48775], [-97.16922, 33.4878], [-97.16898, 33.487859], [-97.16867, 33.48794], [-97.16831, 33.48803], [-97.16806, 33.48809], [-97.16785, 33.48813], [-97.167689, 33.488149], [-97.16757, 33.488169], [-97.16746, 33.48818], [-97.1673, 33.48819], [-97.16713, 33.4882], [-97.16703, 33.48821], [-97.16685, 33.48821], [-97.16685, 33.48821], [-97.16686, 33.48754], [-97.16686, 33.48754], [-97.16685, 33.487499], [-97.16682, 33.487479], [-97.16679, 33.48747], [-97.16603, 33.48743], [-97.16521, 33.4874], [-97.16521, 33.4874]]}, "properties": {"surface": "pavement", "label": "Pavement", "color": "#4A5568", "miles": 2.81, "start_mi": 47.01, "end_mi": 49.81, "road": "West Farm-to-Market Road 922", "elev_ft": [735, 735, 732, 723, 749, 745, 744, 743, 742, 740, 738, 736, 735, 732, 729, 725, 721, 716, 710, 708, 706, 702, 702, 699, 700, 711, 716, 727, 736, 740, 765, 766, 769, 769, 769, 770, 771, 771, 772, 772, 772, 772, 771, 769, 768, 761, 759, 756, 756, 755, 747, 726, 720, 714, 698, 688, 675, 672, 656, 682, 685, 681, 680, 680, 680, 680, 680, 680, 680, 680, 680, 680, 680, 680, 680, 680, 681, 681, 682, 684, 685, 687, 688, 688, 689, 691, 693, 694, 697, 697, 699, 699, 699, 699, 700, 713, 719, 719]}}, {"type": "Feature", "geometry": {"type": "LineString", "coordinates": [[-97.16522, 33.48669], [-97.16522, 33.48602], [-97.16522, 33.485329], [-97.16522, 33.48463], [-97.16521, 33.483629], [-97.16521, 33.48259]]}, "properties": {"surface": "unknown", "label": "Unverified", "color": "#9A9389", "miles": 0.28, "start_mi": 49.81, "end_mi": 50.1, "road": "Williams Street", "elev_ft": [715, 713, 709, 705, 704, 703]}}, {"type": "Feature", "geometry": {"type": "LineString", "coordinates": [[-97.165229, 33.480469], [-97.16517, 33.48006], [-97.16501, 33.47959], [-97.16484, 33.479219], [-97.16446, 33.47862], [-97.16428, 33.47835]]}, "properties": {"surface": "pavement", "label": "Pavement", "color": "#4A5568", "miles": 0.16, "start_mi": 50.1, "end_mi": 50.25, "road": "South Lee Street", "elev_ft": [698, 697, 695, 693, 690, 689]}}]}