{"type": "FeatureCollection", "features": [{"type": "Feature", "geometry": {"type": "LineString", "coordinates": [[-97.735429, 29.4057], [-97.73544, 29.40615], [-97.73547, 29.40637], [-97.73557, 29.40655], [-97.73566, 29.40665], [-97.73579, 29.40673], [-97.736009, 29.40681], [-97.73611, 29.40686], [-97.736189, 29.40692], [-97.73624, 29.40701], [-97.73626, 29.40727], [-97.73625, 29.40754], [-97.73561, 29.40759], [-97.73511, 29.40768], [-97.73474, 29.40782], [-97.73427, 29.40806], [-97.73396, 29.40831], [-97.73362, 29.40864], [-97.73338, 29.409], [-97.73169, 29.41245], [-97.73132, 29.41307], [-97.73112, 29.41335], [-97.73081, 29.41376], [-97.7294, 29.41527], [-97.72888, 29.41567], [-97.72853, 29.41584], [-97.72807, 29.41603], [-97.72769, 29.41614], [-97.72732, 29.41621], [-97.72663, 29.41623], [-97.72389, 29.41622]]}, "properties": {"surface": "pavement", "label": "Pavement", "color": "#4A5568", "miles": 1.21, "start_mi": 0.0, "end_mi": 1.21, "road": "FM 1682", "elev_ft": [350, 355, 356, 357, 357, 356, 354, 353, 353, 352, 350, 349, 357, 362, 367, 371, 373, 374, 373, 382, 387, 388, 390, 392, 391, 393, 397, 400, 401, 400, 376]}}, {"type": "Feature", "geometry": {"type": "LineString", "coordinates": [[-97.72311, 29.41622], [-97.72311, 29.41632], [-97.72309, 29.41649], [-97.72309, 29.41648], [-97.72307, 29.41665], [-97.72306, 29.41739], [-97.7231, 29.42033], [-97.723159, 29.42305], [-97.72318, 29.4235], [-97.71929, 29.42356], [-97.71883, 29.42355], [-97.71867, 29.42356], [-97.718549, 29.42361], [-97.718459, 29.4237], [-97.71842, 29.42382], [-97.71836, 29.42512], [-97.7183, 29.42542], [-97.71822, 29.4256], [-97.71764, 29.4265], [-97.71748, 29.42666], [-97.71735, 29.42672], [-97.71699, 29.42681], [-97.71642, 29.427], [-97.71515, 29.42734], [-97.71481, 29.42742], [-97.71446, 29.42747], [-97.71108, 29.42754], [-97.71004, 29.42755], [-97.709729, 29.42759], [-97.70953, 29.42767], [-97.70761, 29.42873], [-97.70737, 29.42888], [-97.70715, 29.42905], [-97.70684, 29.42933], [-97.70537, 29.43073], [-97.70309, 29.43287], [-97.7029, 29.43307], [-97.70265, 29.43343], [-97.7005, 29.43708], [-97.70038, 29.4373], [-97.70028, 29.43763], [-97.70019, 29.43825], [-97.70003, 29.43899], [-97.69996, 29.4396], [-97.69987, 29.44066], [-97.69987, 29.44101], [-97.69992, 29.44138], [-97.70062, 29.44419], [-97.70066, 29.44442], [-97.70069, 29.44487], [-97.70064, 29.44573], [-97.70011, 29.45141], [-97.70007, 29.45155], [-97.70004, 29.45159], [-97.69999, 29.45163], [-97.69993, 29.45165], [-97.69976, 29.45166], [-97.69857, 29.45157], [-97.69467, 29.45132], [-97.68977, 29.45096], [-97.68837, 29.45088], [-97.68666, 29.45074], [-97.68605, 29.45071], [-97.68392, 29.45056], [-97.68351, 29.45054], [-97.68355, 29.45039], [-97.68356, 29.45025], [-97.68356, 29.45024], [-97.684209, 29.4437], [-97.68436, 29.44246], [-97.68436, 29.44233], [-97.684299, 29.44224], [-97.68419, 29.44219], [-97.68393, 29.44217], [-97.67971, 29.44191], [-97.67599, 29.44173], [-97.6748, 29.44168], [-97.67195, 29.44154], [-97.66949, 29.44144], [-97.66933, 29.44141], [-97.66927, 29.44138], [-97.66918, 29.44129], [-97.66916, 29.44125], [-97.66914, 29.44119], [-97.66912, 29.44104], [-97.66964, 29.43427], [-97.66961, 29.43417], [-97.66955, 29.4341], [-97.66947, 29.43408], [-97.66942, 29.43409], [-97.66816, 29.43442], [-97.66601, 29.43497], [-97.66575, 29.43501], [-97.66561, 29.43499], [-97.66548, 29.43493], [-97.66538, 29.43483], [-97.66524, 29.43461], [-97.66401, 29.43227], [-97.66309, 29.43043], [-97.66288, 29.43004], [-97.66278, 29.42988], [-97.66265, 29.42974], [-97.66249, 29.42963], [-97.66018, 29.42828], [-97.65986, 29.42807], [-97.65968, 29.42789], [-97.65954, 29.42769], [-97.65842, 29.42576], [-97.65752, 29.42426], [-97.65686, 29.42307], [-97.65664, 29.4227], [-97.65648, 29.42254], [-97.6562, 29.42235], [-97.65601, 29.42218], [-97.65505, 29.42117], [-97.6549, 29.42107], [-97.65463, 29.42092], [-97.65451, 29.4208], [-97.65268, 29.41749], [-97.65257, 29.41724], [-97.65255, 29.41705]]}, "properties": {"surface": "unknown", "label": "Unverified", "color": "#9A9389", "miles": 8.11, "start_mi": 1.21, "end_mi": 9.32, "road": "County Road 104", "elev_ft": [366, 365, 363, 363, 364, 368, 388, 389, 387, 380, 376, 375, 375, 375, 376, 381, 382, 383, 389, 392, 394, 394, 392, 383, 380, 380, 380, 379, 380, 380, 389, 389, 390, 392, 394, 393, 393, 393, 416, 417, 419, 425, 426, 421, 416, 415, 414, 412, 412, 412, 412, 443, 443, 443, 443, 443, 443, 435, 429, 420, 414, 401, 401, 400, 399, 399, 398, 398, 427, 428, 428, 427, 427, 426, 437, 418, 423, 422, 420, 420, 420, 420, 421, 421, 422, 455, 455, 455, 456, 456, 464, 448, 444, 442, 441, 442, 442, 432, 421, 418, 416, 415, 414, 411, 412, 411, 410, 399, 390, 386, 383, 382, 381, 382, 379, 379, 378, 378, 371, 371, 371]}}, {"type": "Feature", "geometry": {"type": "LineString", "coordinates": [[-97.65206, 29.41699], [-97.6515, 29.41692], [-97.65038, 29.41687], [-97.6424, 29.41658], [-97.6383, 29.41638], [-97.63791, 29.41636]]}, "properties": {"surface": "pavement", "label": "Pavement", "color": "#4A5568", "miles": 0.85, "start_mi": 9.32, "end_mi": 10.18, "road": "FM 1682", "elev_ft": [370, 370, 370, 393, 382, 385]}}, {"type": "Feature", "geometry": {"type": "LineString", "coordinates": [[-97.63796, 29.41642], [-97.63811, 29.41668], [-97.63811, 29.41668], [-97.64334, 29.42618], [-97.6434, 29.4263], [-97.64342, 29.42641], [-97.6434, 29.4265], [-97.64331, 29.42662], [-97.6431, 29.42677], [-97.64291, 29.42687], [-97.64156, 29.42748], [-97.64072, 29.42781], [-97.63984, 29.42818], [-97.63849, 29.42882], [-97.63819, 29.42901], [-97.63798, 29.42919], [-97.63793, 29.42926], [-97.6379, 29.42932], [-97.63786, 29.42947], [-97.63784, 29.43077], [-97.63773, 29.43133], [-97.63769, 29.43167], [-97.6377, 29.4319], [-97.63777, 29.43234], [-97.63778, 29.43267], [-97.63746, 29.43739], [-97.63744, 29.4375], [-97.63741, 29.4376], [-97.63732, 29.43769], [-97.63718, 29.43773], [-97.63699, 29.43774], [-97.63198, 29.43738], [-97.6318, 29.43739], [-97.63172, 29.43741], [-97.6316, 29.43747], [-97.631559, 29.43751], [-97.63149, 29.43764], [-97.63145, 29.43787], [-97.63127, 29.44069], [-97.63106, 29.44326], [-97.630619, 29.44954], [-97.63058, 29.44963], [-97.630529, 29.44968], [-97.63046, 29.44971], [-97.63035, 29.44972], [-97.628739, 29.44957], [-97.62811, 29.44956], [-97.62766, 29.44959], [-97.627529, 29.44964], [-97.62749, 29.4497], [-97.62749, 29.44978], [-97.62752, 29.44991], [-97.62848, 29.45242], [-97.62858, 29.45278], [-97.6286, 29.45301], [-97.62859, 29.45355], [-97.62852, 29.45505], [-97.62848, 29.45531], [-97.62841, 29.45541], [-97.62834, 29.45544], [-97.62825, 29.45545], [-97.62418, 29.45522], [-97.61671, 29.45483], [-97.61571, 29.45476], [-97.61555, 29.45476], [-97.61547, 29.45479], [-97.615399, 29.45483], [-97.615309, 29.45493], [-97.61526, 29.45502], [-97.61524, 29.45511], [-97.61525, 29.4562], [-97.61524, 29.45646], [-97.61521, 29.45663], [-97.61508, 29.45695], [-97.61448, 29.45816], [-97.614, 29.45937], [-97.61389, 29.4596], [-97.61369, 29.45989], [-97.61272, 29.46113], [-97.61246, 29.46139], [-97.61179, 29.46195], [-97.61144, 29.46226], [-97.611189, 29.46254], [-97.61056, 29.46332], [-97.610159, 29.46378], [-97.61005, 29.46374], [-97.610069, 29.46301], [-97.61014, 29.4621], [-97.61014, 29.46209], [-97.61023, 29.46096], [-97.6102, 29.46085], [-97.61013, 29.46076], [-97.61001, 29.4607], [-97.60985, 29.46064], [-97.60857, 29.46029], [-97.60598, 29.45954], [-97.60429, 29.45903], [-97.60411, 29.45895], [-97.60404, 29.45891], [-97.604, 29.45885], [-97.60398, 29.45878], [-97.60428, 29.45362], [-97.60477, 29.44451], [-97.60523, 29.43508], [-97.60532, 29.43357], [-97.60531, 29.43336], [-97.60529, 29.43326], [-97.60522, 29.43305], [-97.60505, 29.43272], [-97.60078, 29.42551], [-97.59865, 29.42183], [-97.59797, 29.42063], [-97.59654, 29.41824], [-97.59648, 29.4181], [-97.59647, 29.41803], [-97.59649, 29.41797], [-97.59653, 29.41792], [-97.59658, 29.41788], [-97.596729, 29.41783], [-97.59797, 29.41768], [-97.59927, 29.41744], [-97.59936, 29.41741], [-97.59942, 29.41736], [-97.59947, 29.41729], [-97.59949, 29.41715], [-97.599369, 29.4165], [-97.59858, 29.41299], [-97.5981, 29.41087], [-97.5978, 29.40976], [-97.59762, 29.40871], [-97.59756, 29.40845], [-97.59755, 29.40834], [-97.59756, 29.40822], [-97.5976, 29.4081], [-97.597669, 29.40802], [-97.59779, 29.40792], [-97.5982, 29.40768], [-97.59954, 29.4067], [-97.59914, 29.40593], [-97.59913, 29.40586], [-97.59915, 29.4057], [-97.59923, 29.40555], [-97.5993, 29.40547], [-97.59974, 29.40514], [-97.59985, 29.40505], [-97.59992, 29.40494], [-97.59994, 29.40489], [-97.59992, 29.40478], [-97.59985, 29.40467], [-97.59959, 29.40442], [-97.59821, 29.40291], [-97.59814, 29.40278], [-97.59813, 29.40272], [-97.59814, 29.40258], [-97.59817, 29.40252], [-97.598249, 29.40239], [-97.59832, 29.40233], [-97.60327, 29.39853]]}, "properties": {"surface": "unknown", "label": "Unverified", "color": "#9A9389", "miles": 10.35, "start_mi": 10.18, "end_mi": 20.52, "road": "County Road 145", "elev_ft": [385, 383, 383, 378, 379, 379, 379, 379, 380, 381, 383, 376, 368, 361, 360, 360, 360, 360, 361, 363, 364, 365, 365, 367, 368, 372, 372, 372, 372, 373, 373, 378, 379, 379, 379, 379, 379, 379, 377, 378, 386, 386, 385, 385, 384, 385, 384, 380, 380, 380, 381, 382, 389, 389, 389, 389, 395, 397, 397, 397, 397, 402, 380, 382, 382, 382, 383, 383, 384, 384, 390, 390, 391, 391, 396, 401, 402, 403, 408, 408, 411, 411, 410, 410, 410, 410, 410, 411, 411, 415, 415, 416, 416, 416, 417, 415, 415, 415, 415, 415, 415, 408, 419, 392, 385, 384, 384, 383, 382, 339, 329, 338, 354, 353, 353, 352, 352, 351, 350, 339, 329, 328, 328, 327, 327, 332, 319, 312, 311, 310, 309, 309, 309, 309, 309, 308, 308, 319, 313, 313, 314, 315, 316, 320, 321, 323, 323, 325, 326, 327, 317, 317, 317, 317, 317, 317, 318, 331]}}, {"type": "Feature", "geometry": {"type": "LineString", "coordinates": [[-97.6042, 29.39783], [-97.605549, 29.39676], [-97.6057, 29.39667], [-97.60576, 29.39665], [-97.60589, 29.39668], [-97.60595, 29.39672], [-97.60782, 29.39858], [-97.60781, 29.39858], [-97.60935, 29.40011], [-97.6098, 29.40061], [-97.60991, 29.40069], [-97.60997, 29.4007], [-97.61003, 29.40069], [-97.610159, 29.40063], [-97.61098, 29.39996], [-97.61112, 29.39986], [-97.61124, 29.39983], [-97.6113, 29.39983], [-97.61141, 29.39989], [-97.61556, 29.40403], [-97.615979, 29.40448], [-97.6161, 29.40455], [-97.616159, 29.40455], [-97.61629, 29.4045], [-97.61823, 29.40299], [-97.61837, 29.40292], [-97.61851, 29.40292], [-97.61857, 29.40295], [-97.61876, 29.40311], [-97.619, 29.40334], [-97.62344, 29.40788], [-97.624129, 29.4086], [-97.62419, 29.40867]]}, "properties": {"surface": "two_track", "label": "Ranch two-track", "color": "#6B5A45", "miles": 1.76, "start_mi": 20.52, "end_mi": 22.28, "road": "", "elev_ft": [333, 332, 332, 332, 332, 333, 342, 342, 340, 346, 347, 347, 348, 348, 348, 347, 347, 347, 348, 358, 360, 360, 360, 359, 348, 347, 347, 347, 348, 348, 362, 364, 365]}}, {"type": "Feature", "geometry": {"type": "LineString", "coordinates": [[-97.6245, 29.40852], [-97.62466, 29.40841], [-97.62639, 29.40705], [-97.62776, 29.40602], [-97.62984, 29.4044], [-97.63049, 29.40389], [-97.63095, 29.40355], [-97.63106, 29.4035], [-97.63128, 29.40342], [-97.63205, 29.40318], [-97.63206, 29.40318], [-97.63253, 29.40304], [-97.63339, 29.40281], [-97.63403, 29.40257], [-97.63782, 29.40087], [-97.63927, 29.4001], [-97.6397, 29.39982], [-97.63997, 29.39961], [-97.64095, 29.39879], [-97.64122, 29.39848], [-97.64273, 29.39619], [-97.64293, 29.39581], [-97.64357, 29.39412], [-97.64375, 29.39371], [-97.64406, 29.39303], [-97.64431, 29.39256], [-97.64452, 29.3921], [-97.64483, 29.39157], [-97.64557, 29.39059], [-97.64683, 29.38914], [-97.64721, 29.38865], [-97.64745, 29.38832], [-97.64774, 29.38784], [-97.64881, 29.38571], [-97.64915, 29.38507], [-97.64968, 29.38415], [-97.65007, 29.38353], [-97.650409, 29.3831], [-97.65102, 29.38242], [-97.65141, 29.38194], [-97.65159, 29.38168], [-97.65204, 29.38091], [-97.652199, 29.38066], [-97.65292, 29.3799], [-97.654439, 29.37793], [-97.6548, 29.3775], [-97.65576, 29.37644], [-97.65612, 29.376], [-97.65628, 29.37576], [-97.65656, 29.37517], [-97.65729, 29.37346], [-97.65757, 29.37263], [-97.65807, 29.37154], [-97.65839, 29.37056], [-97.65848, 29.37035], [-97.65853, 29.37026], [-97.65867, 29.37009], [-97.65883, 29.36997], [-97.659319, 29.36967], [-97.65945, 29.36953], [-97.65951, 29.36941], [-97.65956, 29.36926], [-97.65968, 29.36875], [-97.65976, 29.36857], [-97.65982, 29.36848], [-97.65989, 29.3684], [-97.66007, 29.36824], [-97.66104, 29.3676], [-97.66388, 29.36543], [-97.66474, 29.3648], [-97.66662, 29.36335], [-97.66764, 29.36249], [-97.66828, 29.36199], [-97.66892, 29.36149], [-97.66893, 29.36149], [-97.67126, 29.35972], [-97.67153, 29.35952], [-97.67173, 29.35937], [-97.67189, 29.35923], [-97.67197, 29.35908], [-97.67198, 29.35888], [-97.67193, 29.35849], [-97.67191, 29.35838], [-97.67196, 29.35843], [-97.67289, 29.35917], [-97.67461, 29.36056], [-97.68234, 29.36687], [-97.68255, 29.36701], [-97.68349, 29.36755], [-97.6844, 29.36804], [-97.68495, 29.36837], [-97.68513, 29.36845], [-97.68531, 29.3685], [-97.6855, 29.3685], [-97.68607, 29.36846], [-97.68623, 29.36847], [-97.68635, 29.36851], [-97.68643, 29.36859], [-97.68646, 29.36868], [-97.68639, 29.36921], [-97.68641, 29.36937], [-97.68648, 29.36952], [-97.68666, 29.36977], [-97.68699, 29.37014], [-97.68749, 29.3706], [-97.68811, 29.37114], [-97.68829, 29.37134], [-97.68836, 29.37154], [-97.68838, 29.37223], [-97.6885, 29.37251], [-97.68912, 29.37377], [-97.689179, 29.37386], [-97.68926, 29.37395], [-97.68948, 29.37403], [-97.68966, 29.37406]]}, "properties": {"surface": "unknown", "label": "Unverified", "color": "#9A9389", "miles": 6.24, "start_mi": 22.28, "end_mi": 28.52, "road": "County Road 132", "elev_ft": [363, 362, 350, 356, 349, 347, 345, 345, 344, 342, 342, 341, 340, 343, 375, 384, 386, 385, 379, 377, 376, 373, 378, 379, 379, 379, 379, 376, 368, 363, 363, 362, 358, 362, 362, 362, 361, 359, 357, 351, 348, 342, 338, 344, 353, 361, 365, 365, 365, 363, 354, 350, 344, 340, 339, 338, 336, 335, 335, 336, 336, 336, 333, 332, 332, 331, 331, 337, 365, 368, 381, 384, 383, 382, 382, 365, 365, 365, 365, 365, 366, 367, 367, 367, 362, 349, 340, 339, 328, 320, 327, 328, 329, 329, 328, 327, 326, 324, 323, 328, 329, 329, 329, 329, 329, 329, 330, 331, 332, 324, 339, 340, 341, 343, 344]}}, {"type": "Feature", "geometry": {"type": "LineString", "coordinates": [[-97.69958, 29.37675], [-97.69972, 29.37681], [-97.69981, 29.3769], [-97.69984, 29.37695], [-97.69987, 29.37709], [-97.69986, 29.37729], [-97.69938, 29.38128], [-97.69922, 29.38302], [-97.6992, 29.38436], [-97.70311, 29.3843], [-97.7035, 29.3843], [-97.70359, 29.38431], [-97.70371, 29.3844], [-97.70372, 29.38449], [-97.70372, 29.38518], [-97.7038, 29.38529], [-97.70389, 29.38532], [-97.70401, 29.38533], [-97.70818, 29.38522], [-97.71035, 29.38526], [-97.712999, 29.38527], [-97.7132, 29.38529], [-97.71341, 29.38534], [-97.71421, 29.3856], [-97.71436, 29.38562], [-97.71559, 29.38558], [-97.71946, 29.3855], [-97.72071, 29.38549], [-97.72115, 29.38547], [-97.72134, 29.38548], [-97.721459, 29.38551], [-97.72149, 29.38557], [-97.7215, 29.38562], [-97.72122, 29.38842], [-97.72107, 29.3895], [-97.72107, 29.38968], [-97.7211, 29.38987], [-97.72117, 29.39012], [-97.72121, 29.39045], [-97.72126, 29.39253], [-97.72129, 29.39322], [-97.72131, 29.39683], [-97.72132, 29.39704], [-97.72135, 29.39713], [-97.7214, 29.39721], [-97.72148, 29.39728], [-97.72157, 29.39732], [-97.72168, 29.39735], [-97.72192, 29.39737], [-97.72636, 29.39734], [-97.72645, 29.39734], [-97.72659, 29.39738], [-97.72669, 29.39747], [-97.72676, 29.39762], [-97.72742, 29.39995], [-97.728309, 29.40295], [-97.728399, 29.40306], [-97.72847, 29.4031], [-97.72861, 29.40314], [-97.72947, 29.40311]]}, "properties": {"surface": "two_track", "label": "Ranch two-track", "color": "#6B5A45", "miles": 3.54, "start_mi": 28.52, "end_mi": 32.06, "road": "County Road 120", "elev_ft": [345, 344, 344, 344, 344, 345, 352, 359, 363, 371, 371, 371, 372, 372, 374, 374, 375, 375, 366, 351, 349, 351, 353, 360, 361, 362, 366, 381, 382, 380, 379, 378, 378, 345, 352, 349, 345, 342, 342, 356, 358, 389, 389, 389, 389, 389, 389, 389, 387, 374, 372, 370, 369, 368, 372, 381, 382, 382, 384, 395]}}, {"type": "Feature", "geometry": {"type": "LineString", "coordinates": [[-97.7313, 29.40309], [-97.73344, 29.40302], [-97.7341, 29.40302], [-97.734309, 29.40303], [-97.73451, 29.40306], [-97.73475, 29.40314], [-97.73494, 29.40326], [-97.73518, 29.40345], [-97.735249, 29.40353], [-97.73533, 29.40366], [-97.73539, 29.40389], [-97.7354, 29.40447], [-97.73544, 29.40615], [-97.73547, 29.40637], [-97.73557, 29.40655], [-97.73566, 29.40665], [-97.73579, 29.40673], [-97.736009, 29.40681], [-97.73611, 29.40686], [-97.736189, 29.40692], [-97.73624, 29.40701], [-97.73626, 29.40727], [-97.73625, 29.40754]]}, "properties": {"surface": "unknown", "label": "Unverified", "color": "#9A9389", "miles": 0.55, "start_mi": 32.06, "end_mi": 32.61, "road": "County Road 155", "elev_ft": [368, 354, 350, 347, 345, 343, 342, 340, 341, 341, 343, 347, 355, 356, 357, 357, 356, 354, 353, 353, 352, 350, 349]}}, {"type": "Feature", "geometry": {"type": "LineString", "coordinates": [[-97.73561, 29.40759], [-97.73511, 29.40768], [-97.73474, 29.40782], [-97.73427, 29.40806], [-97.73396, 29.40831], [-97.73362, 29.40864], [-97.73338, 29.409], [-97.73169, 29.41245], [-97.73132, 29.41307], [-97.73112, 29.41335], [-97.7311, 29.41338], [-97.7311, 29.41337], [-97.73081, 29.41376], [-97.7294, 29.41527], [-97.72888, 29.41567], [-97.72853, 29.41584], [-97.72807, 29.41603], [-97.72769, 29.41614], [-97.72732, 29.41621], [-97.72663, 29.41623], [-97.72389, 29.41622]]}, "properties": {"surface": "pavement", "label": "Pavement", "color": "#4A5568", "miles": 1.02, "start_mi": 32.61, "end_mi": 33.63, "road": "FM 1682", "elev_ft": [357, 362, 367, 371, 373, 374, 373, 382, 387, 388, 388, 388, 390, 392, 391, 393, 397, 400, 401, 400, 376]}}, {"type": "Feature", "geometry": {"type": "LineString", "coordinates": [[-97.72311, 29.41622], [-97.72307, 29.41665], [-97.72306, 29.41739], [-97.7231, 29.42033], [-97.723159, 29.42305], [-97.72318, 29.4235], [-97.71929, 29.42356], [-97.71883, 29.42355], [-97.71867, 29.42356], [-97.718549, 29.42361], [-97.718459, 29.4237], [-97.71842, 29.42382], [-97.71836, 29.42512], [-97.7183, 29.42542], [-97.71822, 29.4256], [-97.71764, 29.4265], [-97.71748, 29.42666], [-97.71735, 29.42672], [-97.71699, 29.42681], [-97.71642, 29.427], [-97.71515, 29.42734], [-97.71481, 29.42742], [-97.71446, 29.42747], [-97.71108, 29.42754], [-97.71004, 29.42755], [-97.709729, 29.42759], [-97.70953, 29.42767], [-97.70761, 29.42873], [-97.70737, 29.42888], [-97.70715, 29.42905], [-97.70684, 29.42933], [-97.70537, 29.43073], [-97.70309, 29.43287], [-97.7029, 29.43307], [-97.70265, 29.43343], [-97.7005, 29.43708], [-97.70038, 29.4373], [-97.70028, 29.43763], [-97.70019, 29.43825], [-97.70003, 29.43899], [-97.69996, 29.4396], [-97.69987, 29.44066], [-97.69987, 29.44101], [-97.69992, 29.44138], [-97.70062, 29.44419], [-97.70066, 29.44442], [-97.70069, 29.44487], [-97.70064, 29.44573], [-97.70011, 29.45141], [-97.70007, 29.45155], [-97.70004, 29.45159], [-97.69993, 29.45165], [-97.69976, 29.45166], [-97.69857, 29.45157], [-97.69467, 29.45132], [-97.69274, 29.45118], [-97.68977, 29.45096], [-97.68837, 29.45088], [-97.68666, 29.45074], [-97.68605, 29.45071], [-97.68392, 29.45056], [-97.68351, 29.45054], [-97.68355, 29.45039], [-97.684209, 29.4437], [-97.68436, 29.44246], [-97.68436, 29.44233], [-97.684299, 29.44224], [-97.68419, 29.44219], [-97.68393, 29.44217], [-97.67971, 29.44191], [-97.67599, 29.44173], [-97.6748, 29.44168], [-97.67195, 29.44154], [-97.66949, 29.44144], [-97.66933, 29.44141], [-97.66927, 29.44138], [-97.66918, 29.44129], [-97.66916, 29.44125], [-97.66914, 29.44119], [-97.66912, 29.44104], [-97.66964, 29.43427], [-97.66961, 29.43417], [-97.66955, 29.4341], [-97.66947, 29.43408], [-97.66942, 29.43409], [-97.66816, 29.43442], [-97.66601, 29.43497], [-97.66575, 29.43501], [-97.66561, 29.43499], [-97.66548, 29.43493], [-97.66538, 29.43483], [-97.66524, 29.43461], [-97.66401, 29.43227], [-97.66309, 29.43043], [-97.66288, 29.43004], [-97.66278, 29.42988], [-97.66265, 29.42974], [-97.66249, 29.42963], [-97.66018, 29.42828], [-97.65986, 29.42807], [-97.65968, 29.42789], [-97.65954, 29.42769], [-97.65842, 29.42576], [-97.65752, 29.42426], [-97.65686, 29.42307], [-97.65664, 29.4227], [-97.65648, 29.42254], [-97.6562, 29.42235], [-97.65601, 29.42218], [-97.65505, 29.42117], [-97.6549, 29.42107], [-97.65463, 29.42092], [-97.65451, 29.4208], [-97.65268, 29.41749], [-97.65257, 29.41724], [-97.65255, 29.41705]]}, "properties": {"surface": "unknown", "label": "Unverified", "color": "#9A9389", "miles": 8.11, "start_mi": 33.63, "end_mi": 41.74, "road": "County Road 104", "elev_ft": [366, 364, 368, 388, 389, 387, 380, 376, 375, 375, 375, 376, 381, 382, 383, 389, 392, 394, 394, 392, 383, 380, 380, 380, 379, 380, 380, 389, 389, 390, 392, 394, 393, 393, 393, 416, 417, 419, 425, 426, 421, 416, 415, 414, 412, 412, 412, 412, 443, 443, 443, 443, 443, 435, 429, 421, 420, 414, 401, 401, 400, 399, 399, 427, 428, 428, 427, 427, 426, 437, 418, 423, 422, 420, 420, 420, 420, 421, 421, 422, 455, 455, 455, 456, 456, 464, 448, 444, 442, 441, 442, 442, 432, 421, 418, 416, 415, 414, 411, 412, 411, 410, 399, 390, 386, 383, 382, 381, 382, 379, 379, 378, 378, 371, 371, 371]}}, {"type": "Feature", "geometry": {"type": "LineString", "coordinates": [[-97.6515, 29.41692], [-97.65038, 29.41687], [-97.6424, 29.41658], [-97.6383, 29.41638], [-97.63791, 29.41636]]}, "properties": {"surface": "pavement", "label": "Pavement", "color": "#4A5568", "miles": 0.82, "start_mi": 41.74, "end_mi": 42.56, "road": "FM 1682", "elev_ft": [370, 370, 393, 382, 385]}}, {"type": "Feature", "geometry": {"type": "LineString", "coordinates": [[-97.63796, 29.41642], [-97.63838, 29.41715], [-97.63995, 29.42003], [-97.64024, 29.42055], [-97.64142, 29.42266], [-97.64334, 29.42618], [-97.6434, 29.4263], [-97.64342, 29.42641], [-97.6434, 29.4265], [-97.64331, 29.42662], [-97.6431, 29.42677], [-97.64291, 29.42687], [-97.64156, 29.42748], [-97.64072, 29.42781], [-97.63984, 29.42818], [-97.63849, 29.42882], [-97.63819, 29.42901], [-97.63798, 29.42919], [-97.63793, 29.42926], [-97.6379, 29.42932], [-97.63786, 29.42947], [-97.63784, 29.43077], [-97.63773, 29.43133], [-97.63769, 29.43167], [-97.6377, 29.4319], [-97.63777, 29.43234], [-97.63778, 29.43267], [-97.63746, 29.43739], [-97.63744, 29.4375], [-97.63741, 29.4376], [-97.63732, 29.43769], [-97.63718, 29.43773], [-97.63699, 29.43774], [-97.63198, 29.43738], [-97.6318, 29.43739], [-97.63172, 29.43741], [-97.6316, 29.43747], [-97.631559, 29.43751], [-97.63149, 29.43764], [-97.63145, 29.43787], [-97.63127, 29.44069], [-97.63106, 29.44326], [-97.630619, 29.44954], [-97.63058, 29.44963], [-97.630529, 29.44968], [-97.63046, 29.44971], [-97.63035, 29.44972], [-97.628739, 29.44957], [-97.62811, 29.44956], [-97.62766, 29.44959], [-97.627529, 29.44964], [-97.62749, 29.4497], [-97.62749, 29.44978], [-97.62752, 29.44991], [-97.62848, 29.45242], [-97.62858, 29.45278], [-97.6286, 29.45301], [-97.62859, 29.45355], [-97.62852, 29.45505], [-97.62848, 29.45531], [-97.62841, 29.45541], [-97.62834, 29.45544], [-97.62825, 29.45545], [-97.62418, 29.45522], [-97.61671, 29.45483], [-97.61571, 29.45476], [-97.61555, 29.45476], [-97.61547, 29.45479], [-97.615399, 29.45483], [-97.615309, 29.45493], [-97.61526, 29.45502], [-97.61524, 29.45511], [-97.61525, 29.4562], [-97.61524, 29.45646], [-97.61521, 29.45663], [-97.61508, 29.45695], [-97.61448, 29.45816], [-97.614, 29.45937], [-97.61389, 29.4596], [-97.61369, 29.45989], [-97.61272, 29.46113], [-97.61246, 29.46139], [-97.61179, 29.46195], [-97.61144, 29.46226], [-97.611189, 29.46254], [-97.61056, 29.46332], [-97.610159, 29.46378], [-97.61005, 29.46374], [-97.610069, 29.46301], [-97.61023, 29.46096], [-97.6102, 29.46085], [-97.61013, 29.46076], [-97.61001, 29.4607], [-97.60985, 29.46064], [-97.60871, 29.46033], [-97.60598, 29.45954], [-97.60429, 29.45903], [-97.60411, 29.45895], [-97.60404, 29.45891], [-97.604, 29.45885], [-97.60398, 29.45878], [-97.60428, 29.45362], [-97.60477, 29.44451], [-97.60523, 29.43508], [-97.60532, 29.43357], [-97.60531, 29.43336], [-97.60529, 29.43326], [-97.60522, 29.43305], [-97.60505, 29.43272], [-97.60078, 29.42551], [-97.59865, 29.42183], [-97.59797, 29.42063], [-97.59654, 29.41824], [-97.59648, 29.4181], [-97.59647, 29.41803], [-97.59649, 29.41797], [-97.59653, 29.41792], [-97.59658, 29.41788], [-97.596729, 29.41783], [-97.59797, 29.41768], [-97.59927, 29.41744], [-97.59936, 29.41741], [-97.59942, 29.41736], [-97.59947, 29.41729], [-97.59949, 29.41715], [-97.599369, 29.4165], [-97.5981, 29.41087], [-97.5978, 29.40976], [-97.59755, 29.40834], [-97.59756, 29.40822], [-97.5976, 29.4081], [-97.597669, 29.40802], [-97.59779, 29.40792], [-97.5982, 29.40768], [-97.59954, 29.4067], [-97.59914, 29.40593], [-97.59913, 29.40586], [-97.59915, 29.4057], [-97.59923, 29.40555], [-97.5993, 29.40547], [-97.59974, 29.40514], [-97.59985, 29.40505], [-97.59992, 29.40494], [-97.59994, 29.40489], [-97.59992, 29.40478], [-97.59985, 29.40467], [-97.59959, 29.40442], [-97.59821, 29.40291], [-97.59814, 29.40278], [-97.59813, 29.40272], [-97.59814, 29.40258], [-97.59817, 29.40252], [-97.598249, 29.40239], [-97.59832, 29.40233], [-97.59962, 29.40133], [-97.59963, 29.40133], [-97.60327, 29.39853]]}, "properties": {"surface": "unknown", "label": "Unverified", "color": "#9A9389", "miles": 10.35, "start_mi": 42.56, "end_mi": 52.91, "road": "County Road 145", "elev_ft": [385, 380, 399, 406, 404, 378, 379, 379, 379, 379, 380, 381, 383, 376, 368, 361, 360, 360, 360, 360, 361, 363, 364, 365, 365, 367, 368, 372, 372, 372, 372, 373, 373, 378, 379, 379, 379, 379, 379, 379, 377, 378, 386, 386, 385, 385, 384, 385, 384, 380, 380, 380, 381, 382, 389, 389, 389, 389, 395, 397, 397, 397, 397, 402, 380, 382, 382, 382, 383, 383, 384, 384, 390, 390, 391, 391, 396, 401, 402, 403, 408, 408, 411, 411, 410, 410, 410, 410, 410, 415, 415, 416, 416, 416, 417, 415, 415, 415, 415, 415, 415, 408, 419, 392, 385, 384, 384, 383, 382, 339, 329, 338, 354, 353, 353, 352, 352, 351, 350, 339, 329, 328, 328, 327, 327, 332, 312, 311, 309, 309, 309, 309, 308, 308, 319, 313, 313, 314, 315, 316, 320, 321, 323, 323, 325, 326, 327, 317, 317, 317, 317, 317, 317, 318, 320, 320, 331]}}, {"type": "Feature", "geometry": {"type": "LineString", "coordinates": [[-97.6042, 29.39783], [-97.605549, 29.39676], [-97.6057, 29.39667], [-97.60576, 29.39665], [-97.60589, 29.39668], [-97.60595, 29.39672], [-97.60935, 29.40011], [-97.6098, 29.40061], [-97.60991, 29.40069], [-97.60997, 29.4007], [-97.61003, 29.40069], [-97.610159, 29.40063], [-97.61098, 29.39996], [-97.61112, 29.39986], [-97.61124, 29.39983], [-97.6113, 29.39983], [-97.61141, 29.39989], [-97.61556, 29.40403], [-97.615979, 29.40448], [-97.6161, 29.40455], [-97.616159, 29.40455], [-97.61629, 29.4045], [-97.61823, 29.40299], [-97.61837, 29.40292], [-97.61851, 29.40292], [-97.61857, 29.40295], [-97.61876, 29.40311], [-97.619, 29.40334], [-97.62344, 29.40788], [-97.624129, 29.4086], [-97.62419, 29.40867]]}, "properties": {"surface": "two_track", "label": "Ranch two-track", "color": "#6B5A45", "miles": 1.75, "start_mi": 52.91, "end_mi": 54.66, "road": "", "elev_ft": [333, 332, 332, 332, 332, 333, 340, 346, 347, 347, 348, 348, 348, 347, 347, 347, 348, 358, 360, 360, 360, 359, 348, 347, 347, 347, 348, 348, 362, 364, 365]}}, {"type": "Feature", "geometry": {"type": "LineString", "coordinates": [[-97.6245, 29.40852], [-97.62466, 29.40841], [-97.62639, 29.40705], [-97.62776, 29.40602], [-97.62984, 29.4044], [-97.63049, 29.40389], [-97.630799, 29.40366], [-97.63095, 29.40355], [-97.63106, 29.4035], [-97.63253, 29.40304], [-97.63339, 29.40281], [-97.63403, 29.40257], [-97.63722, 29.40113], [-97.63723, 29.40113], [-97.63782, 29.40087], [-97.63927, 29.4001], [-97.6397, 29.39982], [-97.63997, 29.39961], [-97.64095, 29.39879], [-97.64122, 29.39848], [-97.64273, 29.39619], [-97.64293, 29.39581], [-97.64357, 29.39412], [-97.64375, 29.39371], [-97.64406, 29.39303], [-97.64431, 29.39256], [-97.64452, 29.3921], [-97.64483, 29.39157], [-97.64557, 29.39059], [-97.64683, 29.38914], [-97.64721, 29.38865], [-97.64745, 29.38832], [-97.64774, 29.38784], [-97.64881, 29.38571], [-97.64915, 29.38507], [-97.64968, 29.38415], [-97.65007, 29.38353], [-97.650409, 29.3831], [-97.65102, 29.38242], [-97.65141, 29.38194], [-97.65159, 29.38168], [-97.65204, 29.38091], [-97.652199, 29.38066], [-97.65292, 29.3799], [-97.654439, 29.37793], [-97.6548, 29.3775], [-97.65576, 29.37644], [-97.65612, 29.376], [-97.65628, 29.37576], [-97.65656, 29.37517], [-97.65729, 29.37346], [-97.65757, 29.37263], [-97.65807, 29.37154], [-97.65839, 29.37056], [-97.65848, 29.37035], [-97.65853, 29.37026], [-97.65867, 29.37009], [-97.65883, 29.36997], [-97.659319, 29.36967], [-97.65945, 29.36953], [-97.65951, 29.36941], [-97.65956, 29.36926], [-97.65968, 29.36875], [-97.65976, 29.36857], [-97.65982, 29.36848], [-97.65989, 29.3684], [-97.66007, 29.36824], [-97.66104, 29.3676], [-97.66388, 29.36543], [-97.66474, 29.3648], [-97.66662, 29.36335], [-97.66764, 29.36249], [-97.66828, 29.36199], [-97.66952, 29.36102], [-97.67126, 29.35972], [-97.67153, 29.35952], [-97.67173, 29.35937], [-97.67189, 29.35923], [-97.67197, 29.35908], [-97.67198, 29.35888], [-97.67197, 29.35876], [-97.67193, 29.35849], [-97.67191, 29.35838], [-97.67202, 29.35848], [-97.67289, 29.35917], [-97.67407, 29.36013], [-97.68234, 29.36687], [-97.68255, 29.36701], [-97.68349, 29.36755], [-97.6844, 29.36804], [-97.68495, 29.36837], [-97.68513, 29.36845], [-97.68531, 29.3685], [-97.6855, 29.3685], [-97.68607, 29.36846], [-97.68623, 29.36847], [-97.68635, 29.36851], [-97.68643, 29.36859], [-97.68646, 29.36868], [-97.68639, 29.36921], [-97.68641, 29.36937], [-97.68648, 29.36952], [-97.68666, 29.36977], [-97.68699, 29.37014], [-97.68749, 29.3706], [-97.68811, 29.37114], [-97.68829, 29.37134], [-97.68836, 29.37154], [-97.68838, 29.37223], [-97.6885, 29.37251], [-97.68912, 29.37377], [-97.689179, 29.37386], [-97.68926, 29.37395], [-97.68948, 29.37403], [-97.68966, 29.37406]]}, "properties": {"surface": "unknown", "label": "Unverified", "color": "#9A9389", "miles": 6.24, "start_mi": 54.66, "end_mi": 60.9, "road": "County Road 132", "elev_ft": [363, 362, 350, 356, 349, 347, 345, 345, 345, 341, 340, 343, 370, 370, 375, 384, 386, 385, 379, 377, 376, 373, 378, 379, 379, 379, 379, 376, 368, 363, 363, 362, 358, 362, 362, 362, 361, 359, 357, 351, 348, 342, 338, 344, 353, 361, 365, 365, 365, 363, 354, 350, 344, 340, 339, 338, 336, 335, 335, 336, 336, 336, 333, 332, 332, 331, 331, 337, 365, 368, 381, 384, 383, 376, 365, 365, 365, 365, 365, 366, 366, 367, 367, 366, 362, 352, 340, 339, 328, 320, 327, 328, 329, 329, 328, 327, 326, 324, 323, 328, 329, 329, 329, 329, 329, 329, 330, 331, 332, 324, 339, 340, 341, 343, 344]}}, {"type": "Feature", "geometry": {"type": "LineString", "coordinates": [[-97.69958, 29.37675], [-97.69972, 29.37681], [-97.69981, 29.3769], [-97.69984, 29.37695], [-97.69987, 29.37709], [-97.69986, 29.37729], [-97.69938, 29.38128], [-97.69922, 29.38302], [-97.6992, 29.38436], [-97.70311, 29.3843], [-97.7035, 29.3843], [-97.70359, 29.38431], [-97.70371, 29.3844], [-97.70372, 29.38449], [-97.70372, 29.38518], [-97.7038, 29.38529], [-97.70389, 29.38532], [-97.70401, 29.38533], [-97.70818, 29.38522], [-97.71035, 29.38526], [-97.712999, 29.38527], [-97.7132, 29.38529], [-97.71341, 29.38534], [-97.71421, 29.3856], [-97.71436, 29.38562], [-97.71559, 29.38558], [-97.71946, 29.3855], [-97.72071, 29.38549], [-97.72115, 29.38547], [-97.72134, 29.38548], [-97.721459, 29.38551], [-97.72149, 29.38557], [-97.7215, 29.38562], [-97.72122, 29.38842], [-97.72107, 29.3895], [-97.72107, 29.38968], [-97.7211, 29.38987], [-97.72117, 29.39012], [-97.72121, 29.39045], [-97.72126, 29.39253], [-97.72129, 29.39322], [-97.7213, 29.39523], [-97.72132, 29.39704], [-97.72135, 29.39713], [-97.7214, 29.39721], [-97.72148, 29.39728], [-97.72157, 29.39732], [-97.72168, 29.39735], [-97.72192, 29.39737], [-97.72636, 29.39734], [-97.72645, 29.39734], [-97.72659, 29.39738], [-97.72669, 29.39747], [-97.72676, 29.39762], [-97.72742, 29.39995], [-97.728309, 29.40295], [-97.728399, 29.40306], [-97.72847, 29.4031], [-97.72861, 29.40314], [-97.72947, 29.40311]]}, "properties": {"surface": "two_track", "label": "Ranch two-track", "color": "#6B5A45", "miles": 3.54, "start_mi": 60.9, "end_mi": 64.44, "road": "County Road 120", "elev_ft": [345, 344, 344, 344, 344, 345, 352, 359, 363, 371, 371, 371, 372, 372, 374, 374, 375, 375, 366, 351, 349, 351, 353, 360, 361, 362, 366, 381, 382, 380, 379, 378, 378, 345, 352, 349, 345, 342, 342, 356, 358, 376, 389, 389, 389, 389, 389, 389, 387, 374, 372, 370, 369, 368, 372, 381, 382, 382, 384, 395]}}, {"type": "Feature", "geometry": {"type": "LineString", "coordinates": [[-97.7313, 29.40309], [-97.73344, 29.40302], [-97.7341, 29.40302], [-97.734309, 29.40303], [-97.73451, 29.40306], [-97.73475, 29.40314], [-97.73494, 29.40326], [-97.73518, 29.40345], [-97.735249, 29.40353], [-97.73533, 29.40366], [-97.73539, 29.40389], [-97.735429, 29.40559]]}, "properties": {"surface": "unknown", "label": "Unverified", "color": "#9A9389", "miles": 0.39, "start_mi": 64.44, "end_mi": 64.84, "road": "County Road 155", "elev_ft": [368, 354, 350, 347, 345, 343, 342, 340, 341, 341, 343, 350]}}]}