{"type": "FeatureCollection", "features": [{"type": "Feature", "geometry": {"type": "LineString", "coordinates": [[-99.13057, 30.4446], [-99.13057, 30.44463], [-99.13055, 30.4447], [-99.13051, 30.44519], [-99.13051, 30.44525], [-99.13051, 30.44543], [-99.13051, 30.44595], [-99.13051, 30.44617], [-99.13051, 30.44628], [-99.1305, 30.44651], [-99.1305, 30.44723], [-99.1305, 30.44741], [-99.1305, 30.44766], [-99.13049, 30.44922], [-99.13049, 30.44926], [-99.13049, 30.44931], [-99.13048, 30.45057], [-99.13048, 30.45083], [-99.13047, 30.45118], [-99.13047, 30.4519], [-99.13046, 30.45243], [-99.13046, 30.45335], [-99.13046, 30.45531], [-99.13046, 30.45549], [-99.13046, 30.45567], [-99.13046, 30.45585], [-99.13046, 30.45647], [-99.13046, 30.45719], [-99.13046, 30.45737], [-99.13046, 30.45755], [-99.13046, 30.45815], [-99.13047, 30.45861], [-99.13047, 30.45899], [-99.13047, 30.45958], [-99.13047, 30.46007], [-99.13047, 30.46025], [-99.13047, 30.46079], [-99.13047, 30.46109], [-99.13046, 30.46187], [-99.13046, 30.46205], [-99.13046, 30.46223], [-99.13046, 30.46231], [-99.13046, 30.46241], [-99.13046, 30.46261], [-99.13046, 30.46295], [-99.13046, 30.46313], [-99.13045, 30.46388], [-99.13044, 30.46505], [-99.13044, 30.46523], [-99.13044, 30.46541], [-99.13044, 30.46667], [-99.13044, 30.46683], [-99.13043, 30.46721], [-99.13043, 30.46811], [-99.13043, 30.46829], [-99.13043, 30.46847], [-99.13043, 30.46901], [-99.13042, 30.46937], [-99.13042, 30.47009], [-99.13042, 30.47045], [-99.13042, 30.4706], [-99.13042, 30.47063], [-99.13042, 30.47081], [-99.13042, 30.47099], [-99.13042, 30.47117], [-99.13041, 30.47189], [-99.13041, 30.47207], [-99.13041, 30.47213], [-99.13041, 30.47225], [-99.13041, 30.47243], [-99.1304, 30.47261], [-99.1304, 30.47279], [-99.1304, 30.47297], [-99.1304, 30.47315], [-99.1304, 30.47333], [-99.1304, 30.47351], [-99.13039, 30.47387], [-99.13039, 30.47423], [-99.13039, 30.47441], [-99.13039, 30.47459], [-99.13039, 30.47477], [-99.13039, 30.47513], [-99.13038, 30.47531], [-99.13038, 30.47601], [-99.13037, 30.47638], [-99.13037, 30.47656], [-99.13037, 30.47674], [-99.13036, 30.47692], [-99.13036, 30.4771], [-99.13035, 30.47764], [-99.13035, 30.47782], [-99.13035, 30.47792], [-99.13035, 30.478], [-99.13035, 30.47818], [-99.13035, 30.47872], [-99.13034, 30.4789], [-99.13034, 30.47908], [-99.13034, 30.47926], [-99.13034, 30.47936], [-99.13034, 30.47944], [-99.13033, 30.47962], [-99.13032, 30.47998], [-99.13032, 30.48016], [-99.13032, 30.48034], [-99.13031, 30.48106], [-99.1303, 30.48149], [-99.1303, 30.48231], [-99.13029, 30.48321], [-99.13029, 30.48339], [-99.13029, 30.48361], [-99.13028, 30.48411], [-99.13028, 30.48437], [-99.13029, 30.48473], [-99.1303, 30.4859], [-99.1303, 30.48608], [-99.1303, 30.4862], [-99.13031, 30.48662], [-99.13031, 30.4868], [-99.13031, 30.48701], [-99.13031, 30.48742], [-99.13031, 30.48752], [-99.13032, 30.4877], [-99.13032, 30.48783], [-99.13032, 30.48788], [-99.13033, 30.48806], [-99.13033, 30.48808], [-99.13033, 30.48811], [-99.13035, 30.48837], [-99.13036, 30.48842], [-99.13038, 30.48857], [-99.13041, 30.48876], [-99.13045, 30.48901], [-99.13047, 30.48913], [-99.1305, 30.48931], [-99.13053, 30.48949], [-99.13054, 30.48954], [-99.13057, 30.48966], [-99.13058, 30.48975], [-99.13062, 30.48993], [-99.13063, 30.49002], [-99.13066, 30.49018], [-99.1307, 30.49037], [-99.13073, 30.49055], [-99.13077, 30.49083], [-99.13078, 30.49094], [-99.13082, 30.49132], [-99.13083, 30.49164], [-99.13083, 30.49166], [-99.13083, 30.49181], [-99.13082, 30.49212], [-99.13081, 30.49225], [-99.13079, 30.49246], [-99.13077, 30.49261], [-99.13076, 30.49267], [-99.13075, 30.49279], [-99.13073, 30.49295], [-99.13073, 30.49297], [-99.13072, 30.49303], [-99.1307, 30.49315], [-99.13069, 30.49321], [-99.13068, 30.49332], [-99.13066, 30.4935], [-99.13064, 30.49362], [-99.13062, 30.49384], [-99.13059, 30.49404], [-99.13057, 30.49419], [-99.13057, 30.49422], [-99.13052, 30.49459], [-99.1305, 30.49476], [-99.1305, 30.49482], [-99.13048, 30.49493], [-99.13048, 30.49509], [-99.13047, 30.49529], [-99.13049, 30.49558], [-99.1305, 30.49565], [-99.13051, 30.49568], [-99.13053, 30.49582], [-99.13053, 30.49583], [-99.13056, 30.49597], [-99.13057, 30.496], [-99.13057, 30.49601], [-99.13062, 30.49618], [-99.13063, 30.49621], [-99.13065, 30.49628], [-99.13067, 30.49635], [-99.1308, 30.49667], [-99.13096, 30.49704], [-99.13112, 30.4974], [-99.13118, 30.49755], [-99.13119, 30.49757], [-99.13125, 30.49772], [-99.13133, 30.49788], [-99.13134, 30.49791], [-99.1314, 30.49805], [-99.13141, 30.49808], [-99.13147, 30.49822], [-99.13163, 30.49858], [-99.1317, 30.49875], [-99.13172, 30.49879], [-99.13187, 30.49912], [-99.1321, 30.49965], [-99.13211, 30.49969], [-99.13214, 30.49976], [-99.13222, 30.49993], [-99.13239, 30.50033], [-99.13241, 30.50037], [-99.13245, 30.50046], [-99.13251, 30.5006], [-99.13261, 30.50083], [-99.13263, 30.50087], [-99.13266, 30.50094], [-99.13273, 30.50111], [-99.13278, 30.50124], [-99.1328, 30.50128], [-99.1331, 30.50195], [-99.13317, 30.50212], [-99.1332, 30.50218], [-99.13339, 30.50263], [-99.13346, 30.50279], [-99.13361, 30.50313], [-99.13383, 30.50364], [-99.13427, 30.50465], [-99.13441, 30.50498], [-99.13473, 30.50573], [-99.13478, 30.50584], [-99.13493, 30.50619], [-99.13501, 30.50636], [-99.13528, 30.50698], [-99.13545, 30.50737], [-99.13552, 30.50753], [-99.13581, 30.50821], [-99.13609, 30.50886], [-99.13617, 30.50902], [-99.13624, 30.50919], [-99.13631, 30.50936], [-99.13668, 30.5102], [-99.13675, 30.51037], [-99.1369, 30.51071], [-99.13715, 30.51128], [-99.13719, 30.51138], [-99.13724, 30.5115], [-99.13726, 30.51155]]}, "properties": {"surface": "pavement", "label": "Pavement", "color": "#4A5568", "miles": 4.7, "start_mi": 0.0, "end_mi": 4.7, "road": "Ranch Road 783", "elev_ft": [1730, 1730, 1730, 1728, 1728, 1728, 1727, 1727, 1726, 1726, 1725, 1725, 1724, 1721, 1720, 1720, 1715, 1714, 1712, 1709, 1707, 1705, 1701, 1700, 1698, 1698, 1692, 1684, 1683, 1682, 1681, 1679, 1678, 1677, 1676, 1676, 1671, 1665, 1656, 1655, 1652, 1651, 1650, 1648, 1646, 1647, 1652, 1662, 1664, 1664, 1664, 1664, 1666, 1671, 1672, 1673, 1677, 1680, 1681, 1681, 1681, 1681, 1681, 1681, 1681, 1680, 1679, 1679, 1679, 1680, 1680, 1682, 1683, 1684, 1684, 1684, 1683, 1681, 1680, 1680, 1680, 1681, 1682, 1686, 1686, 1686, 1685, 1685, 1685, 1683, 1683, 1683, 1683, 1683, 1682, 1681, 1681, 1681, 1681, 1681, 1682, 1686, 1688, 1691, 1699, 1701, 1699, 1690, 1688, 1687, 1684, 1683, 1682, 1670, 1668, 1667, 1665, 1665, 1665, 1664, 1663, 1662, 1661, 1661, 1658, 1658, 1657, 1652, 1650, 1648, 1645, 1641, 1639, 1637, 1635, 1635, 1633, 1632, 1629, 1628, 1626, 1624, 1622, 1616, 1617, 1622, 1623, 1623, 1622, 1621, 1621, 1622, 1623, 1623, 1624, 1626, 1627, 1629, 1636, 1638, 1641, 1644, 1646, 1649, 1652, 1654, 1654, 1656, 1658, 1659, 1660, 1661, 1664, 1669, 1671, 1671, 1674, 1675, 1678, 1678, 1679, 1683, 1683, 1684, 1684, 1683, 1682, 1683, 1685, 1685, 1686, 1686, 1686, 1686, 1686, 1686, 1684, 1683, 1683, 1682, 1680, 1680, 1680, 1680, 1680, 1680, 1680, 1680, 1681, 1681, 1681, 1683, 1685, 1686, 1697, 1698, 1698, 1700, 1701, 1702, 1704, 1710, 1712, 1718, 1718, 1720, 1720, 1722, 1723, 1723, 1725, 1727, 1728, 1729, 1729, 1734, 1735, 1737, 1740, 1740, 1741, 1741]}}, {"type": "Feature", "geometry": {"type": "LineString", "coordinates": [[-99.137603, 30.51233], [-99.13763, 30.51239], [-99.13763, 30.51239], [-99.13785, 30.5124], [-99.13797, 30.5124], [-99.13807, 30.5124], [-99.13834, 30.51241], [-99.13874, 30.51241], [-99.13901, 30.51241], [-99.1391, 30.51241], [-99.1391, 30.51241], [-99.14011, 30.5124], [-99.14015, 30.51239], [-99.14041, 30.51236], [-99.14056, 30.51233], [-99.14071, 30.51229], [-99.14086, 30.51223], [-99.14095, 30.51219], [-99.14105, 30.51215], [-99.14118, 30.5121], [-99.14138, 30.51202], [-99.14149, 30.51198], [-99.14164, 30.51194], [-99.14172, 30.51193], [-99.14189, 30.51192], [-99.14204, 30.51192], [-99.14246, 30.51192], [-99.14263, 30.51192], [-99.14267, 30.51192], [-99.14308, 30.51192], [-99.14318, 30.51192], [-99.14346, 30.51192], [-99.14385, 30.51191], [-99.14434, 30.51191], [-99.14444, 30.51191], [-99.14517, 30.5119], [-99.14524, 30.5119], [-99.14611, 30.51191], [-99.14622, 30.51191], [-99.14624, 30.51191], [-99.14631, 30.51192], [-99.14633, 30.51192], [-99.14642, 30.51194], [-99.14648, 30.51195], [-99.14677, 30.51202], [-99.14703, 30.51208], [-99.14723, 30.51212], [-99.14752, 30.51218], [-99.14766, 30.51225], [-99.14776, 30.51238], [-99.14789, 30.5126], [-99.14792, 30.51265], [-99.14794, 30.51269], [-99.14802, 30.51286], [-99.14809, 30.51301], [-99.14821, 30.51333], [-99.14826, 30.51354], [-99.14827, 30.51359], [-99.14828, 30.51363], [-99.14829, 30.51369], [-99.14829, 30.51372], [-99.14834, 30.51419], [-99.14836, 30.51477], [-99.14836, 30.5148], [-99.14837, 30.5149], [-99.1484, 30.51497], [-99.14846, 30.51508], [-99.14864, 30.51519], [-99.14898, 30.51535], [-99.14928, 30.51548], [-99.14959, 30.51559], [-99.1499, 30.51566], [-99.15004, 30.51568], [-99.15022, 30.5157], [-99.15058, 30.5157], [-99.15108, 30.51571], [-99.15118, 30.51572], [-99.15171, 30.51573], [-99.15261, 30.51574], [-99.15275, 30.51575], [-99.15296, 30.51575], [-99.15351, 30.51577], [-99.15381, 30.5158], [-99.154, 30.51581], [-99.15414, 30.51583], [-99.15421, 30.51584], [-99.1543, 30.51585], [-99.15442, 30.51586], [-99.15488, 30.5159], [-99.15545, 30.51596], [-99.15555, 30.51597], [-99.15586, 30.51597], [-99.15598, 30.51597], [-99.15619, 30.51597], [-99.15627, 30.51597], [-99.15636, 30.51597], [-99.1564, 30.51598], [-99.15698, 30.51601], [-99.1575, 30.51603], [-99.15786, 30.51606], [-99.1581, 30.51609], [-99.15849, 30.51616], [-99.15881, 30.51624], [-99.15907, 30.51632], [-99.15927, 30.51637], [-99.15967, 30.51648], [-99.15976, 30.51651], [-99.16002, 30.51656], [-99.16007, 30.51657], [-99.16032, 30.5166], [-99.16049, 30.5166], [-99.16051, 30.5166], [-99.16069, 30.51659], [-99.16079, 30.51658], [-99.1609, 30.51657], [-99.16099, 30.51656], [-99.16152, 30.51651], [-99.16173, 30.51649], [-99.16199, 30.51647], [-99.16219, 30.51642], [-99.16239, 30.5163], [-99.16254, 30.51617], [-99.16262, 30.5161], [-99.16276, 30.51596], [-99.16285, 30.51586], [-99.16289, 30.51582], [-99.16332, 30.51543], [-99.16335, 30.5154], [-99.16346, 30.51529], [-99.16367, 30.51508], [-99.16387, 30.51488], [-99.16412, 30.51464], [-99.16428, 30.51448], [-99.16436, 30.51439], [-99.1647, 30.51415], [-99.16481, 30.51413], [-99.16503, 30.5141], [-99.165052, 30.5141], [-99.165157, 30.5141], [-99.16517, 30.5141], [-99.16517, 30.5141], [-99.1654, 30.51464], [-99.16547, 30.51482], [-99.16551, 30.5149], [-99.16551, 30.5149], [-99.16575, 30.5155], [-99.16577, 30.51555], [-99.16581, 30.51567], [-99.16595, 30.51601], [-99.16654, 30.51754], [-99.16661, 30.51772], [-99.16668, 30.51789], [-99.16728, 30.51942], [-99.1673, 30.51947], [-99.16735, 30.51959], [-99.16743, 30.51979], [-99.16751, 30.51992], [-99.16759, 30.52005], [-99.16761, 30.52008], [-99.1678, 30.52028], [-99.16804, 30.52051], [-99.16831, 30.52074], [-99.16861, 30.52098], [-99.16895, 30.52122], [-99.1691, 30.52133], [-99.16926, 30.52144], [-99.1693, 30.52146], [-99.16942, 30.52156], [-99.16962, 30.5217], [-99.16974, 30.52179], [-99.17064, 30.52244], [-99.1707, 30.52248], [-99.17146, 30.52304], [-99.17169, 30.52321], [-99.17193, 30.52339], [-99.17209, 30.52351], [-99.17234, 30.52369], [-99.17293, 30.5241], [-99.17306, 30.5242], [-99.17313, 30.5243], [-99.17315, 30.52435], [-99.17319, 30.52443], [-99.17324, 30.52452], [-99.17325, 30.52455], [-99.17327, 30.52469], [-99.17328, 30.52487], [-99.1733, 30.52505], [-99.17334, 30.52559], [-99.17341, 30.52613], [-99.17346, 30.52649], [-99.17346, 30.52655], [-99.17348, 30.52666], [-99.1735, 30.52684], [-99.17364, 30.52792], [-99.17365, 30.52795], [-99.17366, 30.52809], [-99.17369, 30.52827], [-99.17373, 30.52863], [-99.17376, 30.52881], [-99.17378, 30.52899], [-99.17379, 30.52903], [-99.17383, 30.52935], [-99.17383, 30.52941], [-99.17388, 30.5297], [-99.1739, 30.52988], [-99.17393, 30.53006], [-99.17395, 30.5302], [-99.17399, 30.53057], [-99.17404, 30.53101], [-99.17406, 30.53111], [-99.17408, 30.53123], [-99.17409, 30.53129], [-99.1741, 30.53145], [-99.1741, 30.53147], [-99.1741, 30.53163], [-99.1741, 30.53165], [-99.1741, 30.53176], [-99.17413, 30.53206], [-99.17419, 30.53236], [-99.17426, 30.5326], [-99.1744, 30.53306], [-99.17445, 30.53323], [-99.17445, 30.53325], [-99.17449, 30.53336], [-99.1745, 30.53341], [-99.17479, 30.53434], [-99.17502, 30.53508], [-99.17506, 30.5352], [-99.17556, 30.53677], [-99.1757, 30.53722], [-99.17586, 30.5377], [-99.17589, 30.5378], [-99.1761, 30.53847], [-99.17618, 30.53872], [-99.17622, 30.53885], [-99.17637, 30.53935], [-99.17654, 30.53989], [-99.1766, 30.54006], [-99.17666, 30.54024], [-99.17671, 30.54041], [-99.17694, 30.5411], [-99.17705, 30.54145], [-99.17711, 30.54162], [-99.17744, 30.54273], [-99.17753, 30.54301], [-99.17757, 30.54313], [-99.17765, 30.54336], [-99.17781, 30.54391], [-99.17788, 30.54414], [-99.17793, 30.54425], [-99.17793, 30.54425], [-99.17793, 30.54425], [-99.177928, 30.54427], [-99.17779, 30.54541], [-99.17774, 30.54595], [-99.17772, 30.54613], [-99.17766, 30.5468], [-99.17766, 30.54684], [-99.17764, 30.54702], [-99.1776, 30.54756], [-99.17759, 30.54774], [-99.17756, 30.54816], [-99.17747, 30.549], [-99.17745, 30.54918], [-99.17744, 30.54932], [-99.1774, 30.54989], [-99.17737, 30.55025], [-99.17736, 30.55041], [-99.17734, 30.55061], [-99.17731, 30.55079], [-99.17728, 30.55108], [-99.17722, 30.55187], [-99.1772, 30.55212], [-99.17714, 30.55278], [-99.17712, 30.55294], [-99.17708, 30.55324], [-99.17703, 30.55344], [-99.17695, 30.55362], [-99.17686, 30.55376], [-99.17672, 30.55392], [-99.17657, 30.55406], [-99.17641, 30.55421], [-99.176, 30.55459], [-99.17591, 30.55467], [-99.17556, 30.55501], [-99.17529, 30.55525], [-99.17523, 30.55529], [-99.17514, 30.55538], [-99.17493, 30.55558], [-99.17465, 30.55585], [-99.17438, 30.55612], [-99.1739, 30.55665], [-99.17381, 30.55676], [-99.17368, 30.5569], [-99.17325, 30.55739], [-99.1728, 30.55791], [-99.17267, 30.55805], [-99.17265, 30.55807], [-99.17218, 30.5586], [-99.1719, 30.5589], [-99.17134, 30.55954], [-99.17098, 30.55994], [-99.17037, 30.56062], [-99.17018, 30.56082], [-99.17008, 30.56093], [-99.17005, 30.56096], [-99.16969, 30.5613], [-99.16935, 30.56157], [-99.16932, 30.5616], [-99.16916, 30.56171], [-99.1689, 30.56191], [-99.16884, 30.56195], [-99.16854, 30.56215], [-99.16852, 30.56217], [-99.16823, 30.56239], [-99.1682, 30.56241], [-99.16774, 30.56278], [-99.1675, 30.56297], [-99.16743, 30.56302], [-99.16697, 30.56338], [-99.16689, 30.56344], [-99.16653, 30.56372], [-99.16617, 30.56396], [-99.16606, 30.56404], [-99.16571, 30.56426], [-99.16531, 30.56447], [-99.16521, 30.56452], [-99.16505, 30.5646], [-99.16487, 30.56468], [-99.16453, 30.56478], [-99.16437, 30.56481], [-99.16428, 30.56483], [-99.16408, 30.56487], [-99.16401, 30.56489], [-99.16383, 30.56496], [-99.16372, 30.56502], [-99.16358, 30.56511], [-99.16348, 30.56521], [-99.16342, 30.56529], [-99.16334, 30.56545], [-99.16326, 30.56564], [-99.16317, 30.56582], [-99.16307, 30.56595], [-99.16294, 30.56606], [-99.16287, 30.56613], [-99.16267, 30.5663], [-99.16233, 30.56656], [-99.16195, 30.56686], [-99.16182, 30.56696], [-99.16136, 30.56735], [-99.1612, 30.56749], [-99.16092, 30.56771], [-99.16069, 30.5679], [-99.16058, 30.56797], [-99.16045, 30.56806], [-99.16019, 30.56816], [-99.16017, 30.56817], [-99.16, 30.56822], [-99.15959, 30.56831], [-99.15958, 30.56831], [-99.15956, 30.56832], [-99.15936, 30.56835], [-99.15923, 30.56838], [-99.15915, 30.56839], [-99.15895, 30.56843], [-99.15876, 30.56846], [-99.15854, 30.5685], [-99.15772, 30.56864], [-99.15744, 30.56869], [-99.15731, 30.56871], [-99.1569, 30.56879], [-99.15609, 30.56894], [-99.15605, 30.56895], [-99.15547, 30.56905], [-99.15465, 30.5692], [-99.15455, 30.56921], [-99.15445, 30.56923], [-99.15424, 30.56927], [-99.15396, 30.56932], [-99.15383, 30.56934], [-99.15361, 30.56937], [-99.15343, 30.56941], [-99.15335, 30.56943], [-99.15322, 30.56945], [-99.15312, 30.56947], [-99.15297, 30.56953], [-99.1528, 30.56961], [-99.15261, 30.56973], [-99.15249, 30.56982], [-99.15237, 30.56994], [-99.15228, 30.57002], [-99.15213, 30.57022], [-99.15203, 30.57039], [-99.15163, 30.57099], [-99.15161, 30.57102], [-99.15153, 30.57115], [-99.15141, 30.57134], [-99.15132, 30.57147], [-99.15124, 30.5716], [-99.15119, 30.57166], [-99.15105, 30.57191], [-99.15094, 30.57216], [-99.15091, 30.57233], [-99.1509, 30.57249], [-99.15088, 30.57269], [-99.15088, 30.57296], [-99.15082, 30.57312], [-99.1507, 30.5733], [-99.1505, 30.57352], [-99.15038, 30.57364], [-99.15031, 30.57371], [-99.15027, 30.57374], [-99.15014, 30.57385], [-99.15012, 30.57387], [-99.14943, 30.57448], [-99.14924, 30.57464], [-99.14878, 30.57508], [-99.14852, 30.57531], [-99.14823, 30.57557], [-99.14819, 30.57561], [-99.14808, 30.5757], [-99.14804, 30.57574], [-99.14794, 30.57583], [-99.14778, 30.57596], [-99.14702, 30.57663], [-99.14688, 30.57676], [-99.14672, 30.57691], [-99.14629, 30.57728], [-99.14579, 30.57772], [-99.1452, 30.57826], [-99.14496, 30.57847], [-99.14482, 30.5786], [-99.1447, 30.57871], [-99.14419, 30.57916], [-99.14395, 30.57938], [-99.14377, 30.57955], [-99.14358, 30.57971], [-99.14336, 30.57984], [-99.14314, 30.57993], [-99.14298, 30.57996], [-99.14277, 30.57998], [-99.14264, 30.57998], [-99.14259, 30.57998], [-99.14229, 30.57999], [-99.1421, 30.57999], [-99.14117, 30.57998], [-99.14022, 30.57998], [-99.14009, 30.57998], [-99.13946, 30.57998], [-99.13883, 30.57998], [-99.13821, 30.57998], [-99.13758, 30.57998], [-99.13743, 30.57998], [-99.13737, 30.57998], [-99.13601, 30.57998], [-99.13546, 30.57999], [-99.13449, 30.57998], [-99.13429, 30.57998], [-99.13408, 30.57998], [-99.13324, 30.57998], [-99.13303, 30.57998], [-99.1324, 30.57999], [-99.13164, 30.57999], [-99.13046, 30.57999], [-99.13039, 30.57999], [-99.13032, 30.57999], [-99.12935, 30.57999], [-99.12927, 30.57999], [-99.12912, 30.58], [-99.12881, 30.58], [-99.12862, 30.58], [-99.12853, 30.58], [-99.12851, 30.58], [-99.12826, 30.58001], [-99.12815, 30.58001], [-99.12811, 30.58001], [-99.12809, 30.58001], [-99.12796, 30.58001], [-99.12788, 30.58001], [-99.1277, 30.58001], [-99.12739, 30.58002], [-99.12729, 30.58003], [-99.12727, 30.58003], [-99.12726, 30.58003], [-99.1271, 30.58007], [-99.12708, 30.58007], [-99.12689, 30.58012], [-99.12627, 30.58026], [-99.12605, 30.58031], [-99.12587, 30.58035], [-99.12546, 30.58044], [-99.12462, 30.58063], [-99.1245, 30.58066], [-99.12445, 30.58068], [-99.12443, 30.58068], [-99.12426, 30.58074], [-99.12425, 30.58075], [-99.12412, 30.5808], [-99.12407, 30.58082], [-99.124, 30.58085], [-99.1239, 30.58092], [-99.12378, 30.58103], [-99.12376, 30.58106], [-99.1237, 30.58114], [-99.12357, 30.5814], [-99.1235, 30.58154], [-99.1234, 30.58171], [-99.12331, 30.58183], [-99.12323, 30.58189], [-99.12306, 30.58199], [-99.12269, 30.58217], [-99.12267, 30.58218], [-99.12248, 30.58227], [-99.12233, 30.58234], [-99.12232, 30.58234], [-99.1223, 30.58235], [-99.12202, 30.58248], [-99.12175, 30.58262], [-99.12123, 30.58287], [-99.12121, 30.58288], [-99.12102, 30.58298], [-99.1203, 30.58333], [-99.12015, 30.58341], [-99.12012, 30.58342], [-99.11997, 30.5835], [-99.11924, 30.58385], [-99.11887, 30.58403], [-99.11874, 30.58409], [-99.11814, 30.58438], [-99.11798, 30.58446], [-99.11708, 30.58489], [-99.11699, 30.58493], [-99.11699, 30.58493], [-99.11669, 30.58509], [-99.11651, 30.58518], [-99.11651, 30.58519], [-99.11645, 30.58522], [-99.11633, 30.58528], [-99.11627, 30.58531], [-99.11622, 30.58533], [-99.11579, 30.58555], [-99.11559, 30.58565], [-99.11549, 30.58569], [-99.115446, 30.585703], [-99.11542, 30.58571], [-99.11535, 30.58572], [-99.11535, 30.58572], [-99.11458, 30.58666], [-99.11458, 30.58666], [-99.114472, 30.586616], [-99.11431, 30.58655], [-99.11418, 30.58652], [-99.11399, 30.58649], [-99.11397, 30.58649], [-99.11391, 30.58647], [-99.11379, 30.58644], [-99.11374, 30.58643], [-99.11365, 30.58642], [-99.11356, 30.58641], [-99.11349, 30.5864], [-99.11336, 30.58643], [-99.11318, 30.58652], [-99.11299, 30.5866], [-99.11293, 30.58663], [-99.1128, 30.58667], [-99.1126, 30.58674], [-99.11222, 30.58687], [-99.11219, 30.58688], [-99.11202, 30.58692], [-99.11197, 30.58693], [-99.11173, 30.587], [-99.11158, 30.58698], [-99.11152, 30.58698], [-99.11114, 30.58694], [-99.11111, 30.58694], [-99.11104, 30.58694], [-99.1109, 30.58693], [-99.11069, 30.58692], [-99.11057, 30.58692], [-99.11048, 30.5869], [-99.11041, 30.58689], [-99.11028, 30.58687], [-99.11015, 30.58684], [-99.11008, 30.58681], [-99.11002, 30.58679], [-99.1099, 30.58673], [-99.10989, 30.58673], [-99.10987, 30.58672], [-99.10972, 30.58665], [-99.10971, 30.58665], [-99.10971, 30.58664], [-99.10969, 30.58664], [-99.10954, 30.58655], [-99.10944, 30.5865], [-99.10936, 30.58647], [-99.10928, 30.58644], [-99.10916, 30.58639], [-99.10914, 30.58639], [-99.10896, 30.58634], [-99.1085, 30.5862], [-99.10797, 30.58604], [-99.10784, 30.58601], [-99.10748, 30.58589], [-99.10719, 30.58579], [-99.10699, 30.58573], [-99.10684, 30.58567], [-99.10641, 30.58553], [-99.10601, 30.58539], [-99.1057, 30.58528], [-99.10569, 30.58527], [-99.10537, 30.58516], [-99.1046, 30.58488], [-99.10441, 30.58481], [-99.10422, 30.58474], [-99.10294, 30.58427], [-99.10247, 30.58411], [-99.10197, 30.58392], [-99.10178, 30.58385], [-99.10176, 30.58384], [-99.10159, 30.58379], [-99.10146, 30.58374], [-99.10139, 30.58372], [-99.10115, 30.58365], [-99.10099, 30.58362], [-99.10081, 30.58358], [-99.10046, 30.58355], [-99.10037, 30.58356], [-99.10016, 30.58359], [-99.10008, 30.5836], [-99.09976, 30.58366], [-99.0997, 30.58367], [-99.09955, 30.5837], [-99.09914, 30.58376], [-99.09873, 30.58383], [-99.09863, 30.58384], [-99.09852, 30.58385], [-99.09824, 30.58385], [-99.09791, 30.58378], [-99.09754, 30.5837], [-99.0973, 30.58364], [-99.09722, 30.58362], [-99.0971, 30.58359], [-99.0969, 30.58353], [-99.09689, 30.58353], [-99.09673, 30.58343], [-99.09656, 30.58328], [-99.09646, 30.58316], [-99.09633, 30.58302], [-99.09629, 30.58297], [-99.09621, 30.58287], [-99.0961, 30.58272], [-99.09609, 30.58271], [-99.09583, 30.58244], [-99.09582, 30.58243], [-99.09568, 30.58233], [-99.09567, 30.58233], [-99.09549, 30.58224], [-99.09535, 30.58216], [-99.09504, 30.58199], [-99.09485, 30.58188], [-99.09467, 30.58169], [-99.09454, 30.58155], [-99.09444, 30.58143], [-99.09442, 30.58141], [-99.09421, 30.58119], [-99.09414, 30.58113], [-99.09401, 30.58102], [-99.09387, 30.58092], [-99.09377, 30.58087], [-99.09365, 30.58082], [-99.09364, 30.58082], [-99.09353, 30.58081], [-99.09345, 30.58082], [-99.09344, 30.58082], [-99.09336, 30.58085], [-99.09325, 30.5809], [-99.09323, 30.58091], [-99.09306, 30.58097], [-99.093, 30.58098], [-99.0929, 30.581], [-99.09285, 30.58101], [-99.09283, 30.58101], [-99.09276, 30.58103], [-99.09273, 30.58104], [-99.09265, 30.58104], [-99.09249, 30.58106], [-99.09244, 30.58105], [-99.09234, 30.58104], [-99.09224, 30.58102], [-99.09216, 30.581], [-99.09203, 30.58101], [-99.09197, 30.58102], [-99.09187, 30.58105], [-99.09183, 30.58106], [-99.09178, 30.58107], [-99.09166, 30.58116], [-99.09157, 30.58125], [-99.09139, 30.58143], [-99.09123, 30.58158], [-99.09111, 30.5817], [-99.09098, 30.58184], [-99.09094, 30.58189], [-99.09078, 30.58205], [-99.09068, 30.58216], [-99.09056, 30.5824], [-99.09049, 30.58271], [-99.09047, 30.58278], [-99.09045, 30.58289], [-99.0904, 30.58309], [-99.09036, 30.58336], [-99.09031, 30.5836], [-99.09024, 30.5839], [-99.09038, 30.5841], [-99.09037, 30.58424], [-99.0903, 30.58431], [-99.09019, 30.58444], [-99.09011, 30.58454], [-99.09002, 30.58457], [-99.08991, 30.58465], [-99.08987, 30.58468], [-99.0898, 30.58476], [-99.08973, 30.58486], [-99.08971, 30.58496], [-99.08969, 30.58502], [-99.08965, 30.58514], [-99.08964, 30.58525], [-99.08965, 30.58531], [-99.08965, 30.58534], [-99.08967, 30.58544], [-99.08973, 30.58557], [-99.08984, 30.58573], [-99.08996, 30.58597], [-99.08998, 30.586], [-99.09014, 30.58629], [-99.09035, 30.58662], [-99.09045, 30.58676], [-99.09052, 30.58686], [-99.09089, 30.58738], [-99.0909, 30.58739], [-99.09093, 30.58743], [-99.091, 30.58753], [-99.09111, 30.58768], [-99.09155, 30.58829], [-99.09161, 30.58838], [-99.09166, 30.58845], [-99.09177, 30.5886], [-99.09183, 30.58868], [-99.09189, 30.58874], [-99.09202, 30.58889], [-99.09203, 30.5889], [-99.09205, 30.58893], [-99.09215, 30.58903], [-99.09226, 30.58913], [-99.09229, 30.58916], [-99.09234, 30.5892], [-99.09244, 30.58929], [-99.09248, 30.58932], [-99.09256, 30.58938], [-99.09275, 30.58952], [-99.09286, 30.58959], [-99.09309, 30.58974], [-99.09313, 30.58976], [-99.09319, 30.5898], [-99.09337, 30.5899], [-99.09343, 30.58994], [-99.09364, 30.59008], [-99.09377, 30.59015], [-99.09394, 30.59025], [-99.09429, 30.59046], [-99.09431, 30.59047], [-99.09432, 30.59048], [-99.09462, 30.59064], [-99.09487, 30.59076], [-99.09498, 30.59085], [-99.095, 30.59087], [-99.09503, 30.59089], [-99.09512, 30.59099], [-99.09518, 30.59125], [-99.0952, 30.59139], [-99.09523, 30.59152], [-99.09523, 30.59154], [-99.09523, 30.59156], [-99.09526, 30.5917], [-99.09527, 30.59177], [-99.09528, 30.59188], [-99.09529, 30.5919], [-99.0953, 30.59195], [-99.09526, 30.59205], [-99.09521, 30.59221], [-99.09521, 30.59223], [-99.09514, 30.5924], [-99.09513, 30.59243], [-99.09511, 30.59248], [-99.09508, 30.59257], [-99.09502, 30.59274], [-99.09501, 30.59279], [-99.09499, 30.59319], [-99.09503, 30.59349], [-99.09507, 30.59377], [-99.09509, 30.59403], [-99.09509, 30.59429], [-99.09506, 30.5944], [-99.09503, 30.59449], [-99.09499, 30.59455], [-99.09493, 30.59459], [-99.09484, 30.59461], [-99.09481, 30.59462], [-99.09479, 30.59462], [-99.09463, 30.59465], [-99.09424, 30.59474], [-99.09423, 30.59474], [-99.09385, 30.5948], [-99.09351, 30.59485], [-99.09341, 30.59486], [-99.09331, 30.59487], [-99.09313, 30.59489], [-99.09297, 30.59492], [-99.09288, 30.59495], [-99.09278, 30.59502], [-99.09272, 30.59508], [-99.0927, 30.59511], [-99.09254, 30.59552], [-99.09207, 30.59671], [-99.092, 30.59688], [-99.09193, 30.59705], [-99.09159, 30.5979], [-99.09153, 30.59807], [-99.09146, 30.59823], [-99.09146, 30.59824], [-99.09132, 30.59866], [-99.09109, 30.59935], [-99.09098, 30.5997], [-99.09098, 30.5997]]}, "properties": {"surface": "unknown", "label": "Unverified", "color": "#9A9389", "miles": 12.61, "start_mi": 4.7, "end_mi": 17.31, "road": "Loeffler Lane", "elev_ft": [1741, 1741, 1741, 1743, 1744, 1744, 1746, 1748, 1748, 1749, 1749, 1751, 1751, 1751, 1751, 1751, 1751, 1751, 1751, 1751, 1750, 1750, 1750, 1750, 1751, 1751, 1751, 1751, 1752, 1751, 1751, 1752, 1752, 1753, 1753, 1755, 1755, 1758, 1758, 1758, 1758, 1758, 1759, 1759, 1760, 1760, 1760, 1760, 1761, 1762, 1763, 1764, 1764, 1765, 1766, 1768, 1769, 1769, 1770, 1770, 1770, 1772, 1775, 1775, 1775, 1776, 1776, 1777, 1778, 1779, 1780, 1781, 1781, 1781, 1781, 1781, 1781, 1781, 1781, 1781, 1780, 1778, 1777, 1776, 1775, 1774, 1774, 1773, 1770, 1765, 1765, 1762, 1762, 1760, 1760, 1760, 1760, 1763, 1767, 1769, 1771, 1773, 1775, 1776, 1778, 1780, 1781, 1782, 1782, 1784, 1784, 1784, 1784, 1784, 1785, 1785, 1781, 1779, 1775, 1772, 1766, 1761, 1760, 1758, 1757, 1757, 1754, 1754, 1754, 1754, 1755, 1756, 1757, 1757, 1760, 1761, 1764, 1764, 1766, 1766, 1766, 1767, 1766, 1766, 1766, 1766, 1766, 1766, 1767, 1767, 1766, 1766, 1757, 1756, 1756, 1758, 1760, 1762, 1763, 1765, 1765, 1768, 1773, 1784, 1785, 1785, 1785, 1785, 1785, 1785, 1783, 1783, 1777, 1777, 1777, 1778, 1781, 1789, 1792, 1793, 1793, 1793, 1794, 1794, 1793, 1792, 1791, 1788, 1786, 1784, 1783, 1782, 1780, 1769, 1769, 1769, 1768, 1768, 1767, 1768, 1768, 1771, 1772, 1779, 1781, 1783, 1784, 1786, 1787, 1788, 1788, 1788, 1788, 1788, 1788, 1788, 1788, 1787, 1785, 1783, 1775, 1772, 1772, 1771, 1771, 1773, 1777, 1778, 1793, 1795, 1798, 1798, 1802, 1804, 1805, 1807, 1808, 1809, 1809, 1809, 1809, 1809, 1809, 1810, 1810, 1809, 1809, 1810, 1811, 1811, 1811, 1811, 1811, 1811, 1808, 1807, 1805, 1805, 1804, 1801, 1800, 1798, 1790, 1787, 1786, 1784, 1782, 1781, 1776, 1769, 1759, 1739, 1732, 1708, 1701, 1697, 1695, 1694, 1694, 1694, 1693, 1692, 1693, 1693, 1694, 1693, 1692, 1691, 1685, 1678, 1675, 1665, 1662, 1659, 1657, 1656, 1656, 1656, 1654, 1653, 1651, 1650, 1648, 1647, 1647, 1647, 1646, 1645, 1645, 1644, 1643, 1643, 1641, 1641, 1639, 1639, 1629, 1624, 1624, 1622, 1622, 1621, 1618, 1617, 1616, 1616, 1617, 1617, 1617, 1617, 1617, 1617, 1618, 1618, 1617, 1617, 1616, 1615, 1615, 1613, 1611, 1609, 1608, 1607, 1606, 1604, 1602, 1602, 1601, 1598, 1597, 1596, 1596, 1596, 1596, 1597, 1597, 1599, 1603, 1604, 1604, 1607, 1608, 1609, 1610, 1611, 1610, 1600, 1598, 1599, 1607, 1624, 1624, 1627, 1636, 1636, 1636, 1636, 1635, 1634, 1632, 1629, 1628, 1627, 1626, 1625, 1624, 1624, 1624, 1624, 1624, 1623, 1624, 1617, 1616, 1615, 1612, 1610, 1609, 1609, 1607, 1606, 1605, 1604, 1603, 1602, 1600, 1598, 1594, 1592, 1591, 1590, 1588, 1588, 1584, 1583, 1583, 1583, 1582, 1582, 1582, 1582, 1582, 1582, 1578, 1577, 1576, 1575, 1573, 1571, 1569, 1568, 1567, 1563, 1560, 1559, 1559, 1558, 1558, 1558, 1558, 1558, 1558, 1557, 1557, 1556, 1554, 1554, 1553, 1553, 1553, 1553, 1553, 1553, 1554, 1555, 1555, 1555, 1555, 1555, 1555, 1554, 1554, 1552, 1552, 1552, 1551, 1550, 1550, 1548, 1547, 1546, 1546, 1544, 1542, 1542, 1541, 1540, 1539, 1538, 1538, 1537, 1537, 1537, 1537, 1537, 1536, 1537, 1538, 1538, 1537, 1531, 1530, 1530, 1529, 1526, 1526, 1523, 1522, 1520, 1519, 1517, 1517, 1516, 1513, 1512, 1510, 1510, 1509, 1507, 1509, 1509, 1510, 1510, 1510, 1510, 1509, 1507, 1505, 1505, 1504, 1502, 1502, 1501, 1500, 1493, 1495, 1496, 1502, 1504, 1504, 1503, 1503, 1502, 1502, 1502, 1501, 1501, 1500, 1500, 1495, 1492, 1491, 1491, 1490, 1490, 1490, 1485, 1485, 1485, 1484, 1483, 1482, 1482, 1481, 1480, 1479, 1478, 1476, 1475, 1473, 1471, 1467, 1466, 1465, 1462, 1457, 1456, 1454, 1453, 1448, 1446, 1445, 1439, 1438, 1437, 1434, 1430, 1427, 1424, 1422, 1420, 1417, 1416, 1415, 1412, 1412, 1411, 1408, 1408, 1408, 1408, 1408, 1408, 1409, 1409, 1409, 1409, 1410, 1411, 1412, 1412, 1413, 1413, 1414, 1414, 1415, 1416, 1416, 1416, 1417, 1416, 1416, 1416, 1415, 1414, 1412, 1411, 1410, 1409, 1408, 1407, 1405, 1405, 1406, 1407, 1407, 1408, 1408, 1408, 1408, 1408, 1408, 1404, 1404, 1404, 1406, 1406, 1404, 1402, 1401, 1400, 1398, 1398, 1397, 1400, 1400, 1402, 1402, 1402, 1401, 1401, 1398, 1398, 1397, 1397, 1396, 1395, 1393, 1391, 1389, 1388, 1387, 1386, 1384, 1383, 1382, 1378, 1374, 1369, 1368, 1364, 1362, 1361, 1361, 1362, 1361, 1350, 1353, 1365, 1372, 1375, 1381, 1381, 1379, 1368, 1365, 1362, 1362, 1362, 1365, 1367, 1371, 1372, 1374, 1377, 1380, 1382, 1383, 1384, 1385, 1385, 1385, 1386, 1387, 1388, 1388, 1389, 1390, 1391, 1392, 1394, 1391, 1391, 1392, 1394, 1395, 1396, 1397, 1397, 1398, 1398, 1398, 1398, 1399, 1399, 1399, 1399, 1399, 1399, 1399, 1399, 1400, 1403, 1406, 1408, 1409, 1414, 1415, 1415, 1415, 1416, 1420, 1420, 1421, 1422, 1423, 1423, 1424, 1424, 1424, 1423, 1421, 1420, 1419, 1416, 1416, 1414, 1410, 1408, 1404, 1403, 1402, 1399, 1399, 1396, 1395, 1394, 1390, 1390, 1389, 1387, 1385, 1385, 1384, 1384, 1383, 1379, 1375, 1371, 1370, 1370, 1368, 1368, 1369, 1369, 1370, 1371, 1373, 1373, 1374, 1375, 1375, 1376, 1377, 1377, 1379, 1381, 1383, 1385, 1385, 1386, 1386, 1386, 1386, 1386, 1386, 1386, 1387, 1387, 1387, 1389, 1390, 1391, 1391, 1392, 1393, 1394, 1394, 1394, 1394, 1391, 1379, 1379, 1378, 1364, 1362, 1361, 1361, 1365, 1369, 1369, 1369]}}, {"type": "Feature", "geometry": {"type": "LineString", "coordinates": [[-99.09125, 30.59969], [-99.09153, 30.59966], [-99.09154, 30.59965], [-99.09175, 30.59964], [-99.09196, 30.59962], [-99.09217, 30.59961], [-99.09228, 30.5996], [-99.09258, 30.5996], [-99.09279, 30.59961], [-99.09299, 30.59962], [-99.093, 30.59962], [-99.09321, 30.59964], [-99.09331, 30.59966], [-99.0937, 30.59971], [-99.09382, 30.59974], [-99.09395, 30.59978], [-99.09402, 30.5998], [-99.0942, 30.59985], [-99.09422, 30.59986], [-99.09434, 30.5999], [-99.09464, 30.59999], [-99.09481, 30.60005], [-99.09482, 30.60005], [-99.09496, 30.6001], [-99.09518, 30.60017], [-99.09531, 30.60021], [-99.09567, 30.60032], [-99.09604, 30.60038], [-99.0962, 30.60039], [-99.09647, 30.60041], [-99.09674, 30.60041], [-99.09688, 30.60038], [-99.09713, 30.60033], [-99.09745, 30.60025], [-99.09763, 30.60021], [-99.09763, 30.60021], [-99.09784, 30.60016], [-99.09786, 30.60015], [-99.09804, 30.60012], [-99.09805, 30.60011], [-99.09819, 30.6001], [-99.09825, 30.6001], [-99.09837, 30.6001], [-99.09854, 30.60012], [-99.09866, 30.60014], [-99.09867, 30.60014], [-99.09869, 30.60014], [-99.09882, 30.60017], [-99.09886, 30.60019], [-99.09891, 30.60021], [-99.09899, 30.60027], [-99.09903, 30.60031], [-99.09914, 30.60044], [-99.09937, 30.60075], [-99.09938, 30.60076], [-99.09949, 30.6009], [-99.09949, 30.60091], [-99.09957, 30.601], [-99.09973, 30.60118], [-99.09974, 30.60119], [-99.09975, 30.6012], [-99.09986, 30.60133], [-99.09998, 30.60147], [-99.09999, 30.60148], [-99.10002, 30.60152], [-99.10011, 30.60162], [-99.10035, 30.60191], [-99.10061, 30.60221], [-99.10069, 30.6023], [-99.10073, 30.60234], [-99.10089, 30.60246], [-99.1009, 30.60247], [-99.10091, 30.60248], [-99.10106, 30.60256], [-99.10117, 30.60263], [-99.10124, 30.60265], [-99.10137, 30.6027], [-99.10143, 30.60271], [-99.10145, 30.60271], [-99.10148, 30.60272], [-99.10164, 30.60273], [-99.10206, 30.60277], [-99.1027, 30.60283], [-99.1033, 30.60288], [-99.10372, 30.60292], [-99.10434, 30.60298], [-99.10463, 30.603], [-99.10501, 30.60303], [-99.10517, 30.60305], [-99.10559, 30.60308], [-99.1058, 30.6031], [-99.10581, 30.6031], [-99.1061, 30.60313], [-99.10612, 30.60313], [-99.10644, 30.60316], [-99.10645, 30.60316], [-99.10698, 30.60321], [-99.10707, 30.60322], [-99.10727, 30.60324], [-99.10748, 30.60327], [-99.10768, 30.60329], [-99.10769, 30.60329], [-99.10782, 30.6033], [-99.1081, 30.60333], [-99.10818, 30.60334], [-99.10818, 30.60334], [-99.1083, 30.60335], [-99.10831, 30.60335], [-99.10833, 30.60335], [-99.10851, 30.60337], [-99.108603, 30.603383], [-99.108684, 30.603394], [-99.10873, 30.6034], [-99.10873, 30.6034]]}, "properties": {"surface": "caliche", "label": "Caliche / gravel", "color": "#C98A24", "miles": 1.14, "start_mi": 17.31, "end_mi": 18.45, "road": "Simonsville Road", "elev_ft": [1366, 1364, 1364, 1363, 1361, 1359, 1358, 1354, 1352, 1352, 1352, 1352, 1351, 1353, 1353, 1354, 1354, 1354, 1354, 1353, 1353, 1352, 1352, 1352, 1351, 1351, 1350, 1350, 1351, 1352, 1353, 1354, 1354, 1355, 1355, 1355, 1355, 1355, 1354, 1354, 1353, 1353, 1352, 1352, 1352, 1352, 1352, 1350, 1350, 1349, 1346, 1345, 1340, 1335, 1335, 1333, 1333, 1332, 1332, 1333, 1333, 1332, 1333, 1334, 1335, 1337, 1342, 1348, 1350, 1351, 1356, 1356, 1356, 1360, 1362, 1363, 1364, 1365, 1365, 1365, 1365, 1367, 1369, 1374, 1378, 1383, 1385, 1386, 1388, 1391, 1392, 1392, 1393, 1393, 1393, 1393, 1389, 1387, 1385, 1383, 1381, 1381, 1381, 1381, 1381, 1381, 1381, 1381, 1381, 1382, 1382, 1383, 1383, 1383]}}, {"type": "Feature", "geometry": {"type": "LineString", "coordinates": [[-99.10882, 30.60307], [-99.10883, 30.60305], [-99.10888, 30.60287], [-99.1089, 30.60282], [-99.10893, 30.6027], [-99.10899, 30.6025], [-99.1091, 30.60212], [-99.10915, 30.60195], [-99.10922, 30.60165], [-99.10923, 30.60158], [-99.10925, 30.60147], [-99.10928, 30.60129], [-99.10929, 30.60122], [-99.1093, 30.60111], [-99.10933, 30.60094], [-99.10933, 30.60093], [-99.10935, 30.60081], [-99.10938, 30.60058], [-99.1094, 30.60051], [-99.10942, 30.6004], [-99.10951, 30.60005], [-99.10966, 30.59953], [-99.10967, 30.59949], [-99.10976, 30.59918], [-99.10981, 30.599], [-99.10986, 30.59883], [-99.11012, 30.59796], [-99.11029, 30.5974], [-99.11045, 30.59687], [-99.11058, 30.59643], [-99.11076, 30.59582], [-99.11083, 30.59556], [-99.11088, 30.59539], [-99.11089, 30.59539], [-99.11094, 30.59522], [-99.11104, 30.59486], [-99.11109, 30.59469], [-99.1112, 30.59434], [-99.1112, 30.59431], [-99.11145, 30.59347], [-99.1115, 30.5933], [-99.1115, 30.59329], [-99.11153, 30.59318], [-99.11155, 30.59313], [-99.11155, 30.59312], [-99.11174, 30.5925], [-99.11176, 30.59242], [-99.11183, 30.59219], [-99.11186, 30.59208], [-99.11186, 30.59207], [-99.11207, 30.59138], [-99.11217, 30.59103], [-99.11248, 30.58999], [-99.11248, 30.58998], [-99.11254, 30.58981], [-99.11262, 30.58955], [-99.11264, 30.5895], [-99.11265, 30.58947], [-99.11265, 30.58946], [-99.1127, 30.58934], [-99.11271, 30.5893], [-99.11272, 30.58929], [-99.11276, 30.58918], [-99.11279, 30.58912], [-99.11283, 30.58902], [-99.11286, 30.58896], [-99.11292, 30.58884], [-99.11301, 30.58869], [-99.11304, 30.58863], [-99.11307, 30.58858], [-99.11326, 30.5883], [-99.11342, 30.58807], [-99.11347, 30.58802], [-99.11359, 30.58787], [-99.11362, 30.58783], [-99.11383, 30.58758], [-99.11403, 30.58733], [-99.11419, 30.58713], [-99.11419, 30.58713]]}, "properties": {"surface": "pavement", "label": "Pavement", "color": "#4A5568", "miles": 1.16, "start_mi": 18.45, "end_mi": 19.6, "road": "Ranch Road 783", "elev_ft": [1388, 1389, 1392, 1393, 1396, 1400, 1404, 1406, 1411, 1412, 1415, 1419, 1421, 1421, 1423, 1423, 1422, 1421, 1420, 1419, 1415, 1407, 1407, 1403, 1401, 1400, 1397, 1394, 1394, 1395, 1398, 1399, 1400, 1400, 1401, 1401, 1402, 1402, 1402, 1404, 1403, 1403, 1404, 1404, 1404, 1409, 1410, 1412, 1413, 1413, 1420, 1422, 1429, 1429, 1431, 1436, 1437, 1437, 1437, 1440, 1440, 1440, 1442, 1442, 1444, 1444, 1446, 1447, 1448, 1449, 1455, 1460, 1461, 1464, 1465, 1469, 1473, 1477, 1477]}}, {"type": "Feature", "geometry": {"type": "LineString", "coordinates": [[-99.11443, 30.58684], [-99.11458, 30.58666], [-99.11535, 30.58572], [-99.11535, 30.58572], [-99.11542, 30.58571], [-99.11549, 30.58569], [-99.11559, 30.58565], [-99.11579, 30.58555], [-99.11622, 30.58533], [-99.11627, 30.58531], [-99.11633, 30.58528], [-99.11645, 30.58522], [-99.11651, 30.58519], [-99.11651, 30.58518], [-99.11669, 30.58509], [-99.11708, 30.58489], [-99.11798, 30.58446], [-99.11814, 30.58438], [-99.11874, 30.58409], [-99.11887, 30.58403], [-99.11924, 30.58385], [-99.11997, 30.5835], [-99.12012, 30.58342], [-99.12015, 30.58341], [-99.1203, 30.58333], [-99.12102, 30.58298], [-99.12121, 30.58288], [-99.12123, 30.58287], [-99.12175, 30.58262], [-99.12202, 30.58248], [-99.1223, 30.58235], [-99.12232, 30.58234], [-99.12233, 30.58234], [-99.12248, 30.58227], [-99.12267, 30.58218], [-99.12269, 30.58217], [-99.12306, 30.58199], [-99.12323, 30.58189], [-99.12331, 30.58183], [-99.1234, 30.58171], [-99.1235, 30.58154], [-99.12357, 30.5814], [-99.1237, 30.58114], [-99.12376, 30.58106], [-99.12378, 30.58103], [-99.1239, 30.58092], [-99.124, 30.58085], [-99.12407, 30.58082], [-99.12412, 30.5808], [-99.12425, 30.58075], [-99.12426, 30.58074], [-99.12443, 30.58068], [-99.12445, 30.58068], [-99.1245, 30.58066], [-99.12462, 30.58063], [-99.12546, 30.58044], [-99.12587, 30.58035], [-99.12605, 30.58031], [-99.12627, 30.58026], [-99.12689, 30.58012], [-99.12708, 30.58007], [-99.1271, 30.58007], [-99.12726, 30.58003], [-99.12727, 30.58003], [-99.12729, 30.58003], [-99.12739, 30.58002], [-99.1277, 30.58001], [-99.12788, 30.58001], [-99.12796, 30.58001], [-99.12809, 30.58001], [-99.12811, 30.58001], [-99.12815, 30.58001], [-99.12826, 30.58001], [-99.12851, 30.58], [-99.12853, 30.58], [-99.12862, 30.58], [-99.12881, 30.58], [-99.12912, 30.58], [-99.12927, 30.57999], [-99.12935, 30.57999], [-99.13032, 30.57999], [-99.13039, 30.57999], [-99.13046, 30.57999], [-99.13164, 30.57999], [-99.1324, 30.57999], [-99.13303, 30.57998], [-99.13324, 30.57998], [-99.13408, 30.57998], [-99.13429, 30.57998], [-99.13449, 30.57998], [-99.13546, 30.57999], [-99.13601, 30.57998], [-99.13737, 30.57998], [-99.13743, 30.57998], [-99.13758, 30.57998], [-99.13821, 30.57998], [-99.13883, 30.57998], [-99.13946, 30.57998], [-99.14009, 30.57998], [-99.14022, 30.57998], [-99.14117, 30.57998], [-99.1421, 30.57999], [-99.14229, 30.57999], [-99.14259, 30.57998], [-99.14264, 30.57998], [-99.14277, 30.57998], [-99.14298, 30.57996], [-99.14314, 30.57993], [-99.14336, 30.57984], [-99.14358, 30.57971], [-99.14377, 30.57955], [-99.14395, 30.57938], [-99.14419, 30.57916], [-99.1447, 30.57871], [-99.14482, 30.5786], [-99.14496, 30.57847], [-99.1452, 30.57826], [-99.14579, 30.57772], [-99.14629, 30.57728], [-99.14672, 30.57691], [-99.14688, 30.57676], [-99.14702, 30.57663], [-99.14778, 30.57596], [-99.14794, 30.57583], [-99.14804, 30.57574], [-99.14808, 30.5757], [-99.14819, 30.57561], [-99.14823, 30.57557], [-99.14852, 30.57531], [-99.14878, 30.57508], [-99.14924, 30.57464], [-99.14943, 30.57448], [-99.15012, 30.57387], [-99.15014, 30.57385], [-99.15027, 30.57374], [-99.15031, 30.57371], [-99.15038, 30.57364], [-99.1505, 30.57352], [-99.1507, 30.5733], [-99.15082, 30.57312], [-99.15088, 30.57296], [-99.15088, 30.57269], [-99.1509, 30.57249], [-99.15091, 30.57233], [-99.15094, 30.57216], [-99.15105, 30.57191], [-99.15119, 30.57166], [-99.15124, 30.5716], [-99.15132, 30.57147], [-99.15141, 30.57134], [-99.15153, 30.57115], [-99.15161, 30.57102], [-99.15163, 30.57099], [-99.15203, 30.57039], [-99.15213, 30.57022], [-99.15228, 30.57002], [-99.15237, 30.56994], [-99.15249, 30.56982], [-99.15261, 30.56973], [-99.1528, 30.56961], [-99.15297, 30.56953], [-99.15312, 30.56947], [-99.15322, 30.56945], [-99.15335, 30.56943], [-99.15343, 30.56941], [-99.15361, 30.56937], [-99.15383, 30.56934], [-99.15396, 30.56932], [-99.15424, 30.56927], [-99.15445, 30.56923], [-99.15455, 30.56921], [-99.15465, 30.5692], [-99.15547, 30.56905], [-99.15605, 30.56895], [-99.15609, 30.56894], [-99.1569, 30.56879], [-99.15731, 30.56871], [-99.15744, 30.56869], [-99.15772, 30.56864], [-99.15854, 30.5685], [-99.15876, 30.56846], [-99.15895, 30.56843], [-99.15915, 30.56839], [-99.15923, 30.56838], [-99.15936, 30.56835], [-99.15956, 30.56832], [-99.15958, 30.56831], [-99.15959, 30.56831], [-99.16, 30.56822], [-99.16017, 30.56817], [-99.16019, 30.56816], [-99.16045, 30.56806], [-99.16058, 30.56797], [-99.16069, 30.5679], [-99.16092, 30.56771], [-99.1612, 30.56749], [-99.16136, 30.56735], [-99.16182, 30.56696], [-99.16195, 30.56686], [-99.16233, 30.56656], [-99.16267, 30.5663], [-99.16287, 30.56613], [-99.16294, 30.56606], [-99.16307, 30.56595], [-99.16317, 30.56582], [-99.16326, 30.56564], [-99.16334, 30.56545], [-99.16342, 30.56529], [-99.16348, 30.56521], [-99.16358, 30.56511], [-99.16372, 30.56502], [-99.16383, 30.56496], [-99.16401, 30.56489], [-99.16408, 30.56487], [-99.16428, 30.56483], [-99.16437, 30.56481], [-99.16453, 30.56478], [-99.16487, 30.56468], [-99.16505, 30.5646], [-99.16521, 30.56452], [-99.16531, 30.56447], [-99.16571, 30.56426], [-99.16606, 30.56404], [-99.16617, 30.56396], [-99.16653, 30.56372], [-99.16689, 30.56344], [-99.16697, 30.56338], [-99.16743, 30.56302], [-99.1675, 30.56297], [-99.16774, 30.56278], [-99.1682, 30.56241], [-99.16823, 30.56239], [-99.16852, 30.56217], [-99.16854, 30.56215], [-99.16884, 30.56195], [-99.1689, 30.56191], [-99.16916, 30.56171], [-99.16932, 30.5616], [-99.16935, 30.56157], [-99.16969, 30.5613], [-99.17005, 30.56096], [-99.17008, 30.56093], [-99.17018, 30.56082], [-99.17037, 30.56062], [-99.17098, 30.55994], [-99.17134, 30.55954], [-99.1719, 30.5589], [-99.17218, 30.5586], [-99.17265, 30.55807], [-99.17267, 30.55805], [-99.1728, 30.55791], [-99.17325, 30.55739], [-99.17368, 30.5569], [-99.17381, 30.55676], [-99.1739, 30.55665], [-99.17438, 30.55612], [-99.17465, 30.55585], [-99.17493, 30.55558], [-99.17514, 30.55538], [-99.17523, 30.55529], [-99.17529, 30.55525], [-99.17556, 30.55501], [-99.17591, 30.55467], [-99.176, 30.55459], [-99.17641, 30.55421], [-99.17657, 30.55406], [-99.17672, 30.55392], [-99.17686, 30.55376], [-99.17695, 30.55362], [-99.17703, 30.55344], [-99.17708, 30.55324], [-99.17712, 30.55294], [-99.17714, 30.55278], [-99.1772, 30.55212], [-99.17722, 30.55187], [-99.17728, 30.55108], [-99.17731, 30.55079], [-99.17734, 30.55061], [-99.17736, 30.55041], [-99.17737, 30.55025], [-99.1774, 30.54989], [-99.17744, 30.54932], [-99.17745, 30.54918], [-99.17747, 30.549], [-99.17756, 30.54816], [-99.17759, 30.54774], [-99.1776, 30.54756], [-99.17764, 30.54702], [-99.17766, 30.54684], [-99.17766, 30.5468], [-99.17772, 30.54613], [-99.17774, 30.54595], [-99.17779, 30.54541], [-99.17793, 30.54425], [-99.17793, 30.54425], [-99.1779, 30.54419], [-99.1779, 30.54419], [-99.17788, 30.54414], [-99.17781, 30.54391], [-99.17765, 30.54336], [-99.17757, 30.54313], [-99.17753, 30.54301], [-99.17744, 30.54273], [-99.17711, 30.54162], [-99.17705, 30.54145], [-99.17694, 30.5411], [-99.17671, 30.54041], [-99.17666, 30.54024], [-99.1766, 30.54006], [-99.17654, 30.53989], [-99.17637, 30.53935], [-99.17622, 30.53885], [-99.17618, 30.53872], [-99.1761, 30.53847], [-99.17589, 30.5378], [-99.17586, 30.5377], [-99.1757, 30.53722], [-99.17556, 30.53677], [-99.17506, 30.5352], [-99.17502, 30.53508], [-99.17479, 30.53434], [-99.1745, 30.53341], [-99.17449, 30.53336], [-99.17445, 30.53325], [-99.17445, 30.53323], [-99.1744, 30.53306], [-99.17426, 30.5326], [-99.17419, 30.53236], [-99.17413, 30.53206], [-99.1741, 30.53176], [-99.1741, 30.53165], [-99.1741, 30.53163], [-99.1741, 30.53147], [-99.1741, 30.53145], [-99.17409, 30.53129], [-99.17408, 30.53123], [-99.17406, 30.53111], [-99.17404, 30.53101], [-99.17399, 30.53057], [-99.17395, 30.5302], [-99.17393, 30.53006], [-99.1739, 30.52988], [-99.17388, 30.5297], [-99.17383, 30.52941], [-99.17383, 30.52935], [-99.17379, 30.52903], [-99.17378, 30.52899], [-99.17376, 30.52881], [-99.17373, 30.52863], [-99.17369, 30.52827], [-99.17366, 30.52809], [-99.17365, 30.52795], [-99.17364, 30.52792], [-99.1735, 30.52684], [-99.17348, 30.52666], [-99.17346, 30.52655], [-99.17346, 30.52649], [-99.17341, 30.52613], [-99.17334, 30.52559], [-99.1733, 30.52505], [-99.17328, 30.52487], [-99.17327, 30.52469], [-99.17325, 30.52455], [-99.17324, 30.52452], [-99.17319, 30.52443], [-99.17315, 30.52435], [-99.17313, 30.5243], [-99.17306, 30.5242], [-99.17293, 30.5241], [-99.17234, 30.52369], [-99.17209, 30.52351], [-99.17193, 30.52339], [-99.17169, 30.52321], [-99.17146, 30.52304], [-99.1707, 30.52248], [-99.17064, 30.52244], [-99.16974, 30.52179], [-99.16962, 30.5217], [-99.16942, 30.52156], [-99.1693, 30.52146], [-99.16926, 30.52144], [-99.1691, 30.52133], [-99.16895, 30.52122], [-99.16861, 30.52098], [-99.16831, 30.52074], [-99.16804, 30.52051], [-99.1678, 30.52028], [-99.16761, 30.52008], [-99.16759, 30.52005], [-99.16751, 30.51992], [-99.16743, 30.51979], [-99.16735, 30.51959], [-99.1673, 30.51947], [-99.16728, 30.51942], [-99.16668, 30.51789], [-99.16661, 30.51772], [-99.16654, 30.51754], [-99.16595, 30.51601], [-99.16581, 30.51567], [-99.16577, 30.51555], [-99.16575, 30.5155], [-99.16547, 30.51482], [-99.1654, 30.51464], [-99.16517, 30.5141], [-99.16517, 30.5141], [-99.16503, 30.5141], [-99.16481, 30.51413], [-99.1647, 30.51415], [-99.16436, 30.51439], [-99.16435, 30.5144], [-99.16435, 30.5144], [-99.16428, 30.51448], [-99.16412, 30.51464], [-99.16387, 30.51488], [-99.16367, 30.51508], [-99.16346, 30.51529], [-99.16335, 30.5154], [-99.16332, 30.51543], [-99.16289, 30.51582], [-99.16285, 30.51586], [-99.16276, 30.51596], [-99.16262, 30.5161], [-99.16254, 30.51617], [-99.16239, 30.5163], [-99.16219, 30.51642], [-99.16199, 30.51647], [-99.16173, 30.51649], [-99.16152, 30.51651], [-99.16099, 30.51656], [-99.1609, 30.51657], [-99.16079, 30.51658], [-99.16069, 30.51659], [-99.16051, 30.5166], [-99.16049, 30.5166], [-99.16032, 30.5166], [-99.16007, 30.51657], [-99.16002, 30.51656], [-99.15976, 30.51651], [-99.15967, 30.51648], [-99.15927, 30.51637], [-99.15907, 30.51632], [-99.15881, 30.51624], [-99.15849, 30.51616], [-99.1581, 30.51609], [-99.15786, 30.51606], [-99.1575, 30.51603], [-99.15698, 30.51601], [-99.1564, 30.51598], [-99.15636, 30.51597], [-99.15627, 30.51597], [-99.15619, 30.51597], [-99.15598, 30.51597], [-99.15586, 30.51597], [-99.15555, 30.51597], [-99.15545, 30.51596], [-99.15488, 30.5159], [-99.15442, 30.51586], [-99.1543, 30.51585], [-99.15421, 30.51584], [-99.15414, 30.51583], [-99.154, 30.51581], [-99.15381, 30.5158], [-99.15351, 30.51577], [-99.15296, 30.51575], [-99.15275, 30.51575], [-99.15261, 30.51574], [-99.15171, 30.51573], [-99.15118, 30.51572], [-99.15108, 30.51571], [-99.15058, 30.5157], [-99.15022, 30.5157], [-99.15004, 30.51568], [-99.1499, 30.51566], [-99.14959, 30.51559], [-99.14928, 30.51548], [-99.14898, 30.51535], [-99.14864, 30.51519], [-99.14846, 30.51508], [-99.1484, 30.51497], [-99.14837, 30.5149], [-99.14836, 30.5148], [-99.14836, 30.51477], [-99.14834, 30.51419], [-99.14829, 30.51372], [-99.14829, 30.51369], [-99.14828, 30.51363], [-99.14827, 30.51359], [-99.14826, 30.51354], [-99.14821, 30.51333], [-99.14809, 30.51301], [-99.14802, 30.51286], [-99.14794, 30.51269], [-99.14792, 30.51265], [-99.14789, 30.5126], [-99.14776, 30.51238], [-99.14766, 30.51225], [-99.14752, 30.51218], [-99.14723, 30.51212], [-99.14703, 30.51208], [-99.14677, 30.51202], [-99.14648, 30.51195], [-99.14642, 30.51194], [-99.14633, 30.51192], [-99.14631, 30.51192], [-99.14624, 30.51191], [-99.14622, 30.51191], [-99.14611, 30.51191], [-99.14524, 30.5119], [-99.14517, 30.5119], [-99.14444, 30.51191], [-99.14434, 30.51191], [-99.14385, 30.51191], [-99.14346, 30.51192], [-99.14318, 30.51192], [-99.14308, 30.51192], [-99.14267, 30.51192], [-99.14263, 30.51192], [-99.14246, 30.51192], [-99.14204, 30.51192], [-99.14189, 30.51192], [-99.14172, 30.51193], [-99.14164, 30.51194], [-99.14149, 30.51198], [-99.14138, 30.51202], [-99.14118, 30.5121], [-99.14105, 30.51215], [-99.14095, 30.51219], [-99.14086, 30.51223], [-99.14071, 30.51229], [-99.14056, 30.51233], [-99.14041, 30.51236], [-99.14015, 30.51239], [-99.14011, 30.5124], [-99.13901, 30.51241], [-99.13874, 30.51241], [-99.13834, 30.51241], [-99.13807, 30.5124], [-99.13797, 30.5124], [-99.13785, 30.5124], [-99.13763, 30.51239], [-99.13763, 30.51239], [-99.13759, 30.51231], [-99.13759, 30.51231]]}, "properties": {"surface": "unknown", "label": "Unverified", "color": "#9A9389", "miles": 9.53, "start_mi": 19.6, "end_mi": 29.13, "road": "Salt Branch Loop", "elev_ft": [1483, 1485, 1490, 1490, 1490, 1491, 1492, 1495, 1500, 1500, 1501, 1501, 1502, 1502, 1502, 1504, 1504, 1502, 1496, 1495, 1493, 1500, 1501, 1502, 1502, 1504, 1505, 1505, 1507, 1509, 1510, 1510, 1510, 1510, 1509, 1509, 1507, 1509, 1510, 1510, 1512, 1513, 1516, 1517, 1517, 1519, 1520, 1522, 1523, 1526, 1526, 1529, 1530, 1530, 1531, 1537, 1538, 1538, 1537, 1536, 1537, 1537, 1537, 1537, 1537, 1538, 1538, 1539, 1540, 1541, 1542, 1542, 1544, 1546, 1546, 1547, 1548, 1550, 1550, 1551, 1552, 1552, 1552, 1554, 1554, 1555, 1555, 1555, 1555, 1555, 1555, 1554, 1553, 1553, 1553, 1553, 1553, 1553, 1554, 1554, 1556, 1557, 1557, 1558, 1558, 1558, 1558, 1558, 1558, 1559, 1559, 1560, 1563, 1567, 1568, 1569, 1571, 1573, 1575, 1576, 1577, 1578, 1582, 1582, 1582, 1582, 1582, 1582, 1583, 1583, 1583, 1584, 1588, 1588, 1590, 1591, 1592, 1594, 1598, 1600, 1602, 1603, 1604, 1605, 1606, 1607, 1609, 1609, 1610, 1612, 1615, 1616, 1617, 1624, 1623, 1624, 1624, 1624, 1624, 1624, 1625, 1626, 1627, 1628, 1629, 1632, 1634, 1635, 1636, 1636, 1636, 1636, 1627, 1624, 1624, 1607, 1599, 1598, 1600, 1610, 1611, 1610, 1609, 1608, 1607, 1604, 1604, 1603, 1599, 1597, 1597, 1596, 1596, 1596, 1596, 1597, 1598, 1601, 1602, 1602, 1604, 1606, 1607, 1608, 1609, 1611, 1613, 1615, 1615, 1616, 1617, 1617, 1618, 1618, 1617, 1617, 1617, 1617, 1617, 1617, 1616, 1616, 1617, 1618, 1621, 1622, 1622, 1624, 1624, 1629, 1639, 1639, 1641, 1641, 1643, 1643, 1644, 1645, 1645, 1646, 1647, 1647, 1647, 1648, 1650, 1651, 1653, 1654, 1656, 1656, 1656, 1657, 1659, 1662, 1665, 1675, 1678, 1685, 1691, 1692, 1693, 1694, 1693, 1693, 1692, 1693, 1694, 1694, 1694, 1695, 1697, 1701, 1708, 1732, 1739, 1759, 1769, 1776, 1781, 1782, 1784, 1786, 1787, 1790, 1798, 1800, 1801, 1804, 1805, 1805, 1807, 1808, 1811, 1811, 1811, 1811, 1811, 1811, 1810, 1809, 1809, 1810, 1810, 1809, 1809, 1809, 1809, 1809, 1809, 1808, 1807, 1805, 1804, 1802, 1798, 1798, 1795, 1793, 1778, 1777, 1773, 1771, 1771, 1772, 1772, 1775, 1783, 1785, 1787, 1788, 1788, 1788, 1788, 1788, 1788, 1788, 1788, 1787, 1786, 1784, 1783, 1781, 1779, 1772, 1771, 1768, 1768, 1767, 1768, 1768, 1769, 1769, 1769, 1780, 1782, 1783, 1784, 1786, 1788, 1791, 1792, 1793, 1794, 1794, 1793, 1793, 1793, 1792, 1789, 1781, 1778, 1777, 1777, 1777, 1783, 1783, 1785, 1785, 1785, 1785, 1785, 1785, 1784, 1773, 1768, 1765, 1765, 1763, 1762, 1760, 1758, 1756, 1756, 1757, 1766, 1766, 1767, 1767, 1766, 1766, 1766, 1766, 1767, 1766, 1766, 1764, 1761, 1760, 1757, 1757, 1757, 1757, 1756, 1755, 1754, 1754, 1754, 1754, 1757, 1757, 1758, 1760, 1761, 1766, 1772, 1775, 1779, 1781, 1785, 1785, 1784, 1784, 1784, 1784, 1784, 1782, 1782, 1781, 1780, 1778, 1776, 1775, 1773, 1771, 1769, 1767, 1763, 1760, 1760, 1760, 1760, 1762, 1762, 1765, 1765, 1770, 1773, 1774, 1774, 1775, 1776, 1777, 1778, 1780, 1781, 1781, 1781, 1781, 1781, 1781, 1781, 1781, 1781, 1780, 1779, 1778, 1777, 1776, 1776, 1775, 1775, 1775, 1772, 1770, 1770, 1770, 1769, 1769, 1768, 1766, 1765, 1764, 1764, 1763, 1762, 1761, 1760, 1760, 1760, 1760, 1759, 1759, 1758, 1758, 1758, 1758, 1758, 1755, 1755, 1753, 1753, 1752, 1752, 1751, 1751, 1752, 1751, 1751, 1751, 1751, 1750, 1750, 1750, 1750, 1751, 1751, 1751, 1751, 1751, 1751, 1751, 1751, 1751, 1748, 1748, 1746, 1744, 1744, 1743, 1741, 1741, 1741, 1741]}}, {"type": "Feature", "geometry": {"type": "LineString", "coordinates": [[-99.13726, 30.51155], [-99.13724, 30.5115], [-99.13719, 30.51138], [-99.13715, 30.51128], [-99.1369, 30.51071], [-99.13675, 30.51037], [-99.13668, 30.5102], [-99.13631, 30.50936], [-99.13624, 30.50919], [-99.13617, 30.50902], [-99.13609, 30.50886], [-99.13581, 30.50821], [-99.13552, 30.50753], [-99.13545, 30.50737], [-99.13528, 30.50698], [-99.13501, 30.50636], [-99.13493, 30.50619], [-99.13478, 30.50584], [-99.13473, 30.50573], [-99.13441, 30.50498], [-99.13427, 30.50465], [-99.13383, 30.50364], [-99.13361, 30.50313], [-99.13346, 30.50279], [-99.13339, 30.50263], [-99.1332, 30.50218], [-99.13317, 30.50212], [-99.1331, 30.50195], [-99.1328, 30.50128], [-99.13278, 30.50124], [-99.13273, 30.50111], [-99.13266, 30.50094], [-99.13263, 30.50087], [-99.13261, 30.50083], [-99.13251, 30.5006], [-99.13245, 30.50046], [-99.13241, 30.50037], [-99.13239, 30.50033], [-99.13222, 30.49993], [-99.13214, 30.49976], [-99.13211, 30.49969], [-99.1321, 30.49965], [-99.13187, 30.49912], [-99.13172, 30.49879], [-99.1317, 30.49875], [-99.13163, 30.49858], [-99.13147, 30.49822], [-99.13141, 30.49808], [-99.1314, 30.49805], [-99.13134, 30.49791], [-99.13133, 30.49788], [-99.13125, 30.49772], [-99.13119, 30.49757], [-99.13118, 30.49755], [-99.13112, 30.4974], [-99.13096, 30.49704], [-99.1308, 30.49667], [-99.13067, 30.49635], [-99.13065, 30.49628], [-99.13063, 30.49621], [-99.13062, 30.49618], [-99.13057, 30.49601], [-99.13057, 30.496], [-99.13056, 30.49597], [-99.13053, 30.49583], [-99.13053, 30.49582], [-99.13051, 30.49568], [-99.1305, 30.49565], [-99.13049, 30.49558], [-99.13047, 30.49529], [-99.13048, 30.49509], [-99.13048, 30.49493], [-99.1305, 30.49482], [-99.1305, 30.49476], [-99.13052, 30.49459], [-99.13057, 30.49422], [-99.13057, 30.49419], [-99.13059, 30.49404], [-99.13062, 30.49384], [-99.13064, 30.49362], [-99.13066, 30.4935], [-99.13068, 30.49332], [-99.13069, 30.49321], [-99.1307, 30.49315], [-99.13072, 30.49303], [-99.13073, 30.49297], [-99.13073, 30.49295], [-99.13075, 30.49279], [-99.13076, 30.49267], [-99.13077, 30.49261], [-99.13079, 30.49246], [-99.13081, 30.49225], [-99.13082, 30.49212], [-99.13083, 30.49181], [-99.13083, 30.49166], [-99.13083, 30.49164], [-99.13082, 30.49132], [-99.13078, 30.49094], [-99.13077, 30.49083], [-99.13073, 30.49055], [-99.1307, 30.49037], [-99.13066, 30.49018], [-99.13063, 30.49002], [-99.13062, 30.48993], [-99.13058, 30.48975], [-99.13057, 30.48966], [-99.13054, 30.48954], [-99.13053, 30.48949], [-99.1305, 30.48931], [-99.13047, 30.48913], [-99.13045, 30.48901], [-99.13041, 30.48876], [-99.13038, 30.48857], [-99.13036, 30.48842], [-99.13035, 30.48837], [-99.13033, 30.48811], [-99.13033, 30.48808], [-99.13033, 30.48806], [-99.13032, 30.48788], [-99.13032, 30.48783], [-99.13032, 30.4877], [-99.13031, 30.48752], [-99.13031, 30.48742], [-99.13031, 30.48701], [-99.13031, 30.4868], [-99.13031, 30.48662], [-99.1303, 30.4862], [-99.1303, 30.48608], [-99.1303, 30.4859], [-99.13029, 30.48473], [-99.13028, 30.48437], [-99.13028, 30.48411], [-99.13029, 30.48361], [-99.13029, 30.48339], [-99.13029, 30.48321], [-99.1303, 30.48231], [-99.1303, 30.48149], [-99.13031, 30.48106], [-99.13032, 30.48034], [-99.13032, 30.48016], [-99.13032, 30.47998], [-99.13033, 30.47962], [-99.13034, 30.47944], [-99.13034, 30.47936], [-99.13034, 30.47926], [-99.13034, 30.47908], [-99.13034, 30.4789], [-99.13035, 30.47872], [-99.13035, 30.47818], [-99.13035, 30.478], [-99.13035, 30.47792], [-99.13035, 30.47782], [-99.13035, 30.47764], [-99.13036, 30.4771], [-99.13036, 30.47692], [-99.13037, 30.47674], [-99.13037, 30.47656], [-99.13037, 30.47638], [-99.13038, 30.47601], [-99.13038, 30.47531], [-99.13039, 30.47513], [-99.13039, 30.47477], [-99.13039, 30.47459], [-99.13039, 30.47441], [-99.13039, 30.47423], [-99.13039, 30.47387], [-99.1304, 30.47351], [-99.1304, 30.47333], [-99.1304, 30.47315], [-99.1304, 30.47297], [-99.1304, 30.47279], [-99.1304, 30.47261], [-99.13041, 30.47243], [-99.13041, 30.47225], [-99.13041, 30.47213], [-99.13041, 30.47207], [-99.13041, 30.47189], [-99.13042, 30.47117], [-99.13042, 30.47099], [-99.13042, 30.47081], [-99.13042, 30.47063], [-99.13042, 30.4706], [-99.13042, 30.47045], [-99.13042, 30.47009], [-99.13042, 30.46937], [-99.13043, 30.46901], [-99.13043, 30.46847], [-99.13043, 30.46829], [-99.13043, 30.46811], [-99.13043, 30.46721], [-99.13044, 30.46683], [-99.13044, 30.46667], [-99.13044, 30.46541], [-99.13044, 30.46523], [-99.13044, 30.46505], [-99.13045, 30.46388], [-99.13046, 30.46313], [-99.13046, 30.46295], [-99.13046, 30.46261], [-99.13046, 30.46241], [-99.13046, 30.46231], [-99.13046, 30.46223], [-99.13046, 30.46205], [-99.13046, 30.46187], [-99.13047, 30.46109], [-99.13047, 30.46079], [-99.13047, 30.46025], [-99.13047, 30.46007], [-99.13047, 30.45958], [-99.13047, 30.45899], [-99.13047, 30.45861], [-99.13046, 30.45815], [-99.13046, 30.45755], [-99.13046, 30.45737], [-99.13046, 30.45719], [-99.13046, 30.45647], [-99.13046, 30.45585], [-99.13046, 30.45567], [-99.13046, 30.45549], [-99.13046, 30.45531], [-99.13046, 30.45335], [-99.13046, 30.45243], [-99.13047, 30.4519], [-99.13047, 30.45118], [-99.13048, 30.45083], [-99.13048, 30.45057], [-99.13049, 30.44931], [-99.13049, 30.44926], [-99.13049, 30.44922], [-99.1305, 30.44766], [-99.1305, 30.44741], [-99.1305, 30.44723], [-99.1305, 30.44651], [-99.13051, 30.44628], [-99.13051, 30.44617], [-99.13051, 30.44595], [-99.13051, 30.44543], [-99.13051, 30.44525], [-99.13051, 30.44519], [-99.13055, 30.4447], [-99.13057, 30.44463], [-99.13057, 30.44456]]}, "properties": {"surface": "pavement", "label": "Pavement", "color": "#4A5568", "miles": 4.7, "start_mi": 29.13, "end_mi": 33.84, "road": "Ranch Road 783", "elev_ft": [1741, 1741, 1740, 1740, 1737, 1735, 1734, 1729, 1729, 1728, 1727, 1725, 1723, 1723, 1722, 1720, 1720, 1718, 1718, 1712, 1710, 1704, 1702, 1701, 1700, 1698, 1698, 1697, 1686, 1685, 1683, 1681, 1681, 1681, 1680, 1680, 1680, 1680, 1680, 1680, 1680, 1680, 1682, 1683, 1683, 1684, 1686, 1686, 1686, 1686, 1686, 1686, 1685, 1685, 1683, 1682, 1683, 1684, 1684, 1683, 1683, 1679, 1678, 1678, 1675, 1674, 1671, 1671, 1669, 1664, 1661, 1660, 1659, 1658, 1656, 1654, 1654, 1652, 1649, 1646, 1644, 1641, 1638, 1636, 1629, 1627, 1626, 1624, 1623, 1623, 1622, 1621, 1621, 1622, 1623, 1623, 1622, 1617, 1616, 1622, 1624, 1626, 1628, 1629, 1632, 1633, 1635, 1635, 1637, 1639, 1641, 1645, 1648, 1650, 1652, 1657, 1658, 1658, 1661, 1661, 1662, 1663, 1664, 1665, 1665, 1665, 1667, 1668, 1670, 1682, 1683, 1684, 1687, 1688, 1690, 1699, 1701, 1699, 1691, 1688, 1686, 1682, 1681, 1681, 1681, 1681, 1681, 1682, 1683, 1683, 1683, 1683, 1683, 1685, 1685, 1685, 1686, 1686, 1686, 1682, 1681, 1680, 1680, 1680, 1681, 1683, 1684, 1684, 1684, 1683, 1682, 1680, 1680, 1679, 1679, 1679, 1680, 1681, 1681, 1681, 1681, 1681, 1681, 1681, 1680, 1677, 1673, 1672, 1671, 1666, 1664, 1664, 1664, 1664, 1662, 1652, 1647, 1646, 1648, 1650, 1651, 1652, 1655, 1656, 1665, 1671, 1676, 1676, 1677, 1678, 1679, 1681, 1682, 1683, 1684, 1692, 1698, 1698, 1700, 1701, 1705, 1707, 1709, 1712, 1714, 1715, 1720, 1720, 1721, 1724, 1725, 1725, 1726, 1726, 1727, 1727, 1728, 1728, 1728, 1730, 1730, 1730]}}]}