{"type": "FeatureCollection", "features": [{"type": "Feature", "geometry": {"type": "LineString", "coordinates": [[-97.45284, 29.5014], [-97.45161, 29.50181], [-97.45181, 29.50226], [-97.45345, 29.50595], [-97.45392, 29.50709], [-97.45437, 29.50812], [-97.456, 29.51162], [-97.45746, 29.51489]]}, "properties": {"surface": "unknown", "label": "Unverified", "color": "#9A9389", "miles": 1.05, "start_mi": 0.0, "end_mi": 1.05, "road": "Saint Lawrence Street", "elev_ft": [287, 288, 288, 292, 297, 300, 317, 338]}}, {"type": "Feature", "geometry": {"type": "LineString", "coordinates": [[-97.4583, 29.51681], [-97.45833, 29.51705], [-97.45825, 29.51769], [-97.4580299, 29.5187], [-97.45757, 29.52111]]}, "properties": {"surface": "pavement", "label": "Pavement", "color": "#4A5568", "miles": 0.3, "start_mi": 1.05, "end_mi": 1.35, "road": "Harwood Road", "elev_ft": [355, 358, 364, 367, 372]}}, {"type": "Feature", "geometry": {"type": "LineString", "coordinates": [[-97.45722, 29.52123], [-97.45287, 29.52266], [-97.45234, 29.52286], [-97.45113, 29.52328], [-97.44959, 29.5238], [-97.44881, 29.52409], [-97.44708, 29.52468], [-97.44682, 29.52478], [-97.44668, 29.52486], [-97.44659, 29.52493], [-97.44656, 29.52497], [-97.44654, 29.52509], [-97.4467, 29.5262], [-97.4467, 29.52653], [-97.4462, 29.52911], [-97.4459, 29.53086], [-97.44572, 29.53164], [-97.44531, 29.5332], [-97.44455, 29.53548], [-97.44443, 29.53577], [-97.44403, 29.53662], [-97.44374, 29.53721], [-97.44331, 29.53798], [-97.44292, 29.53862], [-97.44265, 29.539], [-97.4405, 29.54163], [-97.43994, 29.54226], [-97.43941, 29.54281], [-97.4393, 29.54296], [-97.43922, 29.54312], [-97.43907, 29.54368], [-97.43894, 29.54408], [-97.43873, 29.54461], [-97.43848, 29.54509], [-97.43764, 29.54637], [-97.43749, 29.54663], [-97.43727, 29.54707], [-97.43571, 29.55063], [-97.43498, 29.55193], [-97.43465, 29.55246], [-97.43628, 29.55625], [-97.43693, 29.55766], [-97.43799, 29.5601], [-97.44013, 29.56484], [-97.44194, 29.56897], [-97.44235, 29.56985], [-97.443, 29.57123], [-97.44485, 29.57534], [-97.44488, 29.57548], [-97.44487, 29.57552], [-97.44481, 29.57559], [-97.44463, 29.57567], [-97.44084, 29.57692], [-97.43813, 29.57785], [-97.43798, 29.57786], [-97.43792, 29.57784], [-97.43783, 29.57776], [-97.43737, 29.57665], [-97.43729, 29.57654], [-97.43717, 29.57651], [-97.43704, 29.57652], [-97.43689, 29.57656], [-97.43509, 29.5772], [-97.43339, 29.57775], [-97.43068, 29.57867], [-97.43178, 29.58119], [-97.4325, 29.58281], [-97.4327, 29.58322], [-97.43235, 29.58358], [-97.43007, 29.58534], [-97.42615, 29.5883], [-97.42486, 29.58929], [-97.42336, 29.59062], [-97.42249, 29.59143], [-97.42137, 29.59242], [-97.41999, 29.59367], [-97.41772, 29.59577], [-97.4162, 29.59721], [-97.41601, 29.59736], [-97.41576, 29.59748]]}, "properties": {"surface": "unknown", "label": "Unverified", "color": "#9A9389", "miles": 7.2, "start_mi": 1.35, "end_mi": 8.55, "road": "County Road 239", "elev_ft": [369, 320, 311, 314, 313, 312, 311, 310, 310, 310, 310, 310, 311, 312, 324, 336, 343, 356, 367, 367, 366, 366, 366, 366, 365, 351, 333, 324, 324, 323, 317, 312, 316, 322, 336, 338, 344, 365, 359, 359, 351, 363, 382, 371, 398, 403, 404, 391, 391, 391, 392, 393, 397, 412, 412, 412, 412, 412, 412, 411, 410, 409, 398, 393, 384, 390, 405, 408, 413, 424, 416, 407, 381, 372, 370, 379, 384, 371, 371, 370]}}, {"type": "Feature", "geometry": {"type": "LineString", "coordinates": [[-97.41551, 29.60169], [-97.41529, 29.60175], [-97.4151, 29.60201], [-97.4135, 29.60454], [-97.41203, 29.60685], [-97.4107499, 29.60882], [-97.41058, 29.60905], [-97.41039, 29.60923], [-97.41012, 29.6094], [-97.40992, 29.60949], [-97.40975, 29.60953], [-97.40928, 29.60954], [-97.4091399, 29.60956], [-97.40903, 29.6096], [-97.40894, 29.60968], [-97.40885, 29.60984], [-97.40517, 29.61795]]}, "properties": {"surface": "two_track", "label": "Ranch two-track", "color": "#6B5A45", "miles": 1.32, "start_mi": 8.55, "end_mi": 9.87, "road": "County Road 240", "elev_ft": [388, 389, 390, 414, 398, 382, 381, 380, 380, 380, 380, 380, 379, 377, 375, 372, 414]}}, {"type": "Feature", "geometry": {"type": "LineString", "coordinates": [[-97.40009, 29.61805], [-97.40011, 29.61763], [-97.40019, 29.61667], [-97.4002, 29.61626], [-97.40015, 29.61547], [-97.40011, 29.61512], [-97.40008, 29.61495], [-97.39998, 29.61481], [-97.39981, 29.61466], [-97.39962, 29.61455], [-97.3993799, 29.6145], [-97.39859, 29.61449], [-97.3985299, 29.61448], [-97.3984399, 29.61441], [-97.39841, 29.6143], [-97.3984, 29.61269], [-97.39837, 29.60887], [-97.3984, 29.60639], [-97.39839, 29.60625], [-97.39837, 29.60619], [-97.39833, 29.60615], [-97.39821, 29.6061], [-97.39814, 29.60609], [-97.39669, 29.60608], [-97.39384, 29.6061], [-97.39358, 29.60607], [-97.39351, 29.60605], [-97.39342, 29.60596], [-97.39339, 29.6059], [-97.39337, 29.60575], [-97.39341, 29.60426], [-97.3934, 29.60384], [-97.39334, 29.60342], [-97.39326, 29.60302], [-97.39313, 29.60254], [-97.393, 29.60224], [-97.39276, 29.60176], [-97.39265, 29.60151], [-97.39186, 29.5998], [-97.39043, 29.59677], [-97.38933, 29.59419], [-97.38805, 29.59133], [-97.38802, 29.59116], [-97.38804, 29.591], [-97.38816, 29.59078], [-97.38857, 29.59022], [-97.38861, 29.59014], [-97.38864, 29.58998], [-97.3885899, 29.58971], [-97.38828, 29.58859], [-97.38821, 29.58841], [-97.38816, 29.58834], [-97.38801, 29.58823], [-97.38669, 29.58765], [-97.38649, 29.58751], [-97.3862599, 29.58725], [-97.38615, 29.58706], [-97.38572, 29.58602], [-97.38491, 29.58423], [-97.3848299, 29.58406], [-97.38475, 29.58396], [-97.38461, 29.58388], [-97.38445, 29.58384], [-97.38357, 29.58386], [-97.38318, 29.58384], [-97.38302, 29.58381], [-97.38291, 29.58373], [-97.38283, 29.5836], [-97.3825899, 29.58309], [-97.38137, 29.58032], [-97.3810699, 29.5796], [-97.3809799, 29.57945], [-97.38092, 29.57939], [-97.38086, 29.57934], [-97.38078, 29.57931], [-97.38061, 29.57927], [-97.37478, 29.57925], [-97.37451, 29.57925], [-97.37436, 29.57922], [-97.37421, 29.57917], [-97.37406, 29.5791], [-97.37384, 29.57893], [-97.37323, 29.57836], [-97.37315, 29.57826], [-97.3730999, 29.57815], [-97.37289, 29.57746], [-97.3728299, 29.57732], [-97.37284, 29.57729], [-97.37277, 29.57715], [-97.37261, 29.57668], [-97.3725, 29.57645], [-97.37239, 29.57605], [-97.3722499, 29.5757], [-97.37246, 29.57545], [-97.37317, 29.57474], [-97.37716, 29.57171], [-97.37684, 29.57168], [-97.3756499, 29.5717], [-97.37356, 29.57164], [-97.37312, 29.57164], [-97.37116, 29.57169], [-97.36825, 29.57169], [-97.3659799, 29.57171], [-97.36375, 29.57172], [-97.3614, 29.57175], [-97.35884, 29.57176]]}, "properties": {"surface": "unknown", "label": "Unverified", "color": "#9A9389", "miles": 5.5, "start_mi": 9.87, "end_mi": 15.37, "road": "County Road 433", "elev_ft": [375, 376, 375, 374, 371, 371, 370, 368, 367, 370, 372, 377, 378, 378, 379, 385, 386, 373, 373, 372, 372, 372, 372, 367, 375, 377, 378, 379, 379, 380, 386, 386, 386, 385, 385, 384, 381, 379, 374, 373, 375, 368, 370, 371, 371, 369, 369, 368, 368, 367, 367, 367, 367, 365, 366, 368, 369, 371, 356, 355, 354, 353, 353, 350, 345, 344, 345, 346, 347, 362, 358, 357, 356, 356, 355, 355, 315, 313, 312, 311, 309, 307, 305, 305, 305, 301, 300, 300, 300, 301, 302, 302, 304, 311, 327, 352, 350, 341, 316, 312, 307, 293, 307, 309, 322, 342]}}, {"type": "Feature", "geometry": {"type": "LineString", "coordinates": [[-97.35882, 29.57418], [-97.35883, 29.57491], [-97.35879, 29.57509], [-97.35872, 29.57515], [-97.35859, 29.57519], [-97.35848, 29.5752], [-97.3579, 29.57518], [-97.35522, 29.57516], [-97.3523699, 29.57515], [-97.35203, 29.57517], [-97.3515199, 29.57527], [-97.3514, 29.57527], [-97.35094, 29.57522], [-97.34989, 29.57521], [-97.34801, 29.57524], [-97.3478, 29.57525], [-97.34755, 29.5753], [-97.34741, 29.57535], [-97.34726, 29.57544], [-97.34714, 29.57557], [-97.34707, 29.57573], [-97.34706, 29.57591], [-97.34709, 29.57891], [-97.34706, 29.57905], [-97.34701, 29.57915], [-97.34691, 29.57925], [-97.34665, 29.57942], [-97.34656, 29.57951], [-97.34653, 29.57956], [-97.34651, 29.57969], [-97.34651, 29.57981], [-97.34658, 29.58019], [-97.34658, 29.58026], [-97.3465499, 29.58032], [-97.3465, 29.58037], [-97.3463699, 29.58044], [-97.34619, 29.58045], [-97.34451, 29.58044], [-97.34038, 29.58043], [-97.33989, 29.58044], [-97.33968, 29.58047], [-97.3396, 29.5805], [-97.33954, 29.58055], [-97.33947, 29.58069], [-97.3394299, 29.58104], [-97.3395, 29.5831], [-97.33951, 29.58428], [-97.33951, 29.58428], [-97.33954, 29.58545], [-97.3395199, 29.58554], [-97.33944, 29.58565], [-97.33895, 29.58592], [-97.3388, 29.58608], [-97.3387599, 29.58618], [-97.33872, 29.5863], [-97.33871, 29.58646], [-97.33878, 29.58976], [-97.33877, 29.58985], [-97.3387, 29.59], [-97.33859, 29.59009], [-97.3384899, 29.59012], [-97.3383999, 29.59013], [-97.33762, 29.59012], [-97.3374, 29.59015], [-97.33728, 29.59021], [-97.33724, 29.59026], [-97.33719, 29.59035], [-97.33717, 29.59043], [-97.33716, 29.59218], [-97.3372, 29.59578]]}, "properties": {"surface": "two_track", "label": "Ranch two-track", "color": "#6B5A45", "miles": 2.7, "start_mi": 15.37, "end_mi": 18.06, "road": "County Road 385", "elev_ft": [344, 341, 341, 342, 342, 342, 342, 320, 300, 298, 294, 294, 302, 315, 313, 311, 309, 309, 309, 309, 310, 313, 326, 325, 325, 323, 323, 326, 327, 328, 329, 332, 332, 332, 333, 334, 337, 347, 328, 329, 332, 332, 333, 333, 332, 340, 349, 349, 351, 351, 351, 351, 351, 351, 351, 351, 352, 352, 353, 352, 352, 352, 347, 345, 344, 344, 344, 344, 344, 339]}}, {"type": "Feature", "geometry": {"type": "LineString", "coordinates": [[-97.33642, 29.59579], [-97.33172, 29.59579], [-97.33162, 29.59576], [-97.3315499, 29.59572], [-97.33152, 29.59567], [-97.33145, 29.59505], [-97.33144, 29.5943], [-97.3314, 29.59384], [-97.33139, 29.59324], [-97.33136, 29.58935], [-97.3313, 29.58566], [-97.33132, 29.58482], [-97.33132, 29.58078], [-97.33132, 29.58069], [-97.33127, 29.58058], [-97.33123, 29.58053], [-97.33114, 29.58048], [-97.33091, 29.58046], [-97.33005, 29.58048], [-97.32915, 29.58047], [-97.32765, 29.58049], [-97.32176, 29.58049], [-97.32029, 29.58054], [-97.3201799, 29.58054], [-97.3201, 29.58052], [-97.32004, 29.58048], [-97.3199999, 29.58043], [-97.31998, 29.58033], [-97.31996, 29.57501], [-97.3127, 29.57503], [-97.30716, 29.57505], [-97.30711, 29.57052], [-97.30702, 29.56634], [-97.30702, 29.56541], [-97.30707, 29.56395], [-97.30707, 29.56267], [-97.30698, 29.55736], [-97.3068399, 29.55094]]}, "properties": {"surface": "unknown", "label": "Unverified", "color": "#9A9389", "miles": 4.83, "start_mi": 18.06, "end_mi": 22.89, "road": "County Road 388", "elev_ft": [333, 342, 341, 340, 340, 336, 332, 330, 323, 348, 335, 338, 338, 337, 337, 337, 338, 339, 345, 341, 353, 333, 323, 322, 322, 322, 323, 324, 341, 321, 325, 319, 306, 306, 297, 291, 281, 262]}}, {"type": "Feature", "geometry": {"type": "LineString", "coordinates": [[-97.3068399, 29.55076], [-97.30622, 29.55082], [-97.30524, 29.55098], [-97.30432, 29.55124], [-97.30341, 29.55146], [-97.30292, 29.55152], [-97.30249, 29.55155], [-97.30212, 29.55153], [-97.30154, 29.55144], [-97.2998999, 29.55112], [-97.29953, 29.55106], [-97.29915, 29.55103], [-97.29879, 29.55103], [-97.29634, 29.5511], [-97.28836, 29.55126], [-97.28833, 29.55024], [-97.28833, 29.55024], [-97.2882, 29.54349], [-97.2882599, 29.53916], [-97.28821, 29.53891], [-97.28813, 29.53868], [-97.28802, 29.53846], [-97.2878, 29.53815], [-97.2866899, 29.53721], [-97.2865, 29.53696], [-97.28638, 29.53677], [-97.28626, 29.53645], [-97.28621, 29.53617], [-97.28617, 29.53538], [-97.286, 29.52959], [-97.28591, 29.52613], [-97.2859299, 29.52591], [-97.2860199, 29.52562], [-97.28613, 29.5254], [-97.28632, 29.52516], [-97.2866, 29.52491], [-97.28688, 29.52476], [-97.28716, 29.52467], [-97.28749, 29.5246], [-97.28806, 29.52457], [-97.28934, 29.52455], [-97.28974, 29.52451], [-97.28995, 29.52444], [-97.29025, 29.52432], [-97.29055, 29.52417], [-97.2908099, 29.52392], [-97.2909899, 29.52367], [-97.2911, 29.52348], [-97.29118, 29.52313], [-97.29119, 29.5228], [-97.29114, 29.52092], [-97.29104, 29.51509], [-97.29089, 29.51039], [-97.2908099, 29.50878]]}, "properties": {"surface": "pavement", "label": "Pavement", "color": "#4A5568", "miles": 4.32, "start_mi": 22.89, "end_mi": 27.21, "road": "FM 795", "elev_ft": [261, 261, 261, 260, 262, 262, 261, 260, 263, 265, 266, 266, 266, 260, 273, 272, 272, 296, 289, 292, 293, 295, 297, 306, 311, 312, 316, 323, 331, 302, 280, 279, 278, 278, 277, 277, 277, 277, 276, 275, 274, 272, 271, 269, 265, 263, 261, 260, 261, 263, 282, 261, 281, 280]}}, {"type": "Feature", "geometry": {"type": "LineString", "coordinates": [[-97.2923, 29.50877], [-97.29331, 29.50876], [-97.3022699, 29.50877], [-97.30417, 29.50879], [-97.30719, 29.50864], [-97.31044, 29.50852], [-97.31195, 29.50845], [-97.31236, 29.50838], [-97.31341, 29.5081], [-97.31349, 29.50806], [-97.31365, 29.50809], [-97.31382, 29.50814], [-97.31386, 29.50817], [-97.31405, 29.50822], [-97.31411, 29.50822], [-97.31555, 29.50847], [-97.31599, 29.50859], [-97.31678, 29.50885], [-97.3170899, 29.50893], [-97.31737, 29.50895], [-97.31868, 29.5088], [-97.31948, 29.50874], [-97.32435, 29.5085], [-97.32838, 29.50829], [-97.3290899, 29.50824], [-97.33223, 29.5081], [-97.33385, 29.50807], [-97.33662, 29.50804], [-97.33824, 29.50806], [-97.33927, 29.50806], [-97.34003, 29.50797], [-97.34045, 29.50789], [-97.34107, 29.50776], [-97.34168, 29.5076], [-97.34427, 29.5068], [-97.3445, 29.50674], [-97.34506, 29.50664], [-97.34553, 29.50657], [-97.34634, 29.50649], [-97.34689, 29.50646], [-97.34741, 29.50646], [-97.34775, 29.50648], [-97.35184, 29.50693], [-97.35236, 29.50702], [-97.3542499, 29.50751], [-97.3545199, 29.50757]]}, "properties": {"surface": "two_track", "label": "Ranch two-track", "color": "#6B5A45", "miles": 3.78, "start_mi": 27.21, "end_mi": 30.99, "road": "County Road 353", "elev_ft": [277, 275, 262, 259, 259, 252, 253, 252, 250, 251, 245, 230, 232, 248, 250, 245, 243, 242, 241, 240, 247, 251, 266, 260, 260, 264, 267, 279, 291, 286, 273, 269, 268, 265, 261, 257, 262, 264, 267, 268, 271, 273, 303, 304, 307, 308]}}, {"type": "Feature", "geometry": {"type": "LineString", "coordinates": [[-97.35522, 29.50917], [-97.35545, 29.50911], [-97.35681, 29.50867], [-97.3599, 29.5076], [-97.36054, 29.5074], [-97.36241, 29.50686], [-97.3635, 29.50647], [-97.36427, 29.50615], [-97.36459, 29.50607], [-97.36475, 29.50607], [-97.36503, 29.50613], [-97.36758, 29.50682], [-97.36793, 29.5069], [-97.36817, 29.50692], [-97.36849, 29.50691], [-97.3688899, 29.50685], [-97.36956, 29.50672], [-97.37032, 29.50651], [-97.37089, 29.50633], [-97.3740399, 29.50525], [-97.37421, 29.5052], [-97.37439, 29.50518], [-97.37459, 29.50518], [-97.37479, 29.5052], [-97.37532, 29.5053], [-97.37586, 29.50538], [-97.38034, 29.50612], [-97.38074, 29.50616], [-97.38092, 29.50613], [-97.38113, 29.50608], [-97.38304, 29.50549], [-97.38349, 29.5054], [-97.38404, 29.50537], [-97.38587, 29.50545], [-97.3864, 29.50545], [-97.38755, 29.50541], [-97.38784, 29.50538], [-97.38786, 29.50553], [-97.38816, 29.50638], [-97.38853, 29.50732], [-97.38937, 29.50934], [-97.39069, 29.51241], [-97.39117, 29.51357], [-97.39121, 29.51382], [-97.39135, 29.51609], [-97.39138, 29.51627], [-97.39148, 29.51654], [-97.39301, 29.52001]]}, "properties": {"surface": "unknown", "label": "Unverified", "color": "#9A9389", "miles": 3.11, "start_mi": 30.99, "end_mi": 34.1, "road": "County Road 344", "elev_ft": [309, 309, 310, 302, 308, 310, 317, 322, 323, 323, 323, 323, 323, 324, 325, 327, 329, 333, 334, 332, 332, 332, 332, 331, 329, 329, 322, 324, 325, 327, 336, 339, 340, 342, 342, 343, 343, 343, 344, 344, 347, 343, 348, 348, 351, 352, 352, 357]}}, {"type": "Feature", "geometry": {"type": "LineString", "coordinates": [[-97.39386, 29.52183], [-97.39458, 29.52157], [-97.39491, 29.5214], [-97.39537, 29.52112], [-97.3966, 29.52025], [-97.39685, 29.52011], [-97.39913, 29.51909], [-97.40011, 29.5187], [-97.40046, 29.51861], [-97.40209, 29.51826], [-97.40272, 29.51808], [-97.4030499, 29.51792], [-97.40359, 29.51763], [-97.4044399, 29.51712], [-97.4049, 29.5169], [-97.4055, 29.51674], [-97.40577, 29.51672], [-97.40697, 29.51671], [-97.4074, 29.51668], [-97.40792, 29.51662], [-97.40866, 29.51643], [-97.41052, 29.51584], [-97.41128, 29.51559], [-97.4120499, 29.51525], [-97.41278, 29.51481], [-97.41339, 29.51434], [-97.41451, 29.51354], [-97.41518, 29.51314], [-97.41573, 29.5129], [-97.41678, 29.51254], [-97.41747, 29.51228], [-97.41758, 29.5122], [-97.41767, 29.5121], [-97.41774, 29.51195], [-97.41775, 29.5118], [-97.41829, 29.51177], [-97.41894, 29.51179], [-97.41942, 29.51174], [-97.42099, 29.51164], [-97.42128, 29.51163], [-97.42204, 29.51173], [-97.42219, 29.51116], [-97.42226, 29.51099], [-97.42233, 29.51089], [-97.42242, 29.5108], [-97.42264, 29.51066]]}, "properties": {"surface": "pavement", "label": "Pavement", "color": "#4A5568", "miles": 1.97, "start_mi": 34.1, "end_mi": 36.08, "road": "FM 532", "elev_ft": [359, 360, 361, 363, 358, 352, 344, 334, 330, 315, 310, 310, 307, 300, 300, 300, 300, 316, 322, 330, 335, 322, 328, 324, 321, 334, 347, 344, 340, 336, 331, 330, 330, 329, 328, 329, 330, 330, 322, 320, 320, 323, 323, 323, 322, 321]}}, {"type": "Feature", "geometry": {"type": "LineString", "coordinates": [[-97.42296, 29.51054], [-97.42561, 29.50962], [-97.42767, 29.50895], [-97.43082, 29.50781], [-97.4312999, 29.50868], [-97.4316599, 29.50856], [-97.43374, 29.50788], [-97.43539, 29.50728], [-97.4509999, 29.50202], [-97.45277, 29.50142]]}, "properties": {"surface": "unknown", "label": "Unverified", "color": "#9A9389", "miles": 1.96, "start_mi": 36.08, "end_mi": 38.04, "road": "Saint Lawrence Street", "elev_ft": [320, 288, 276, 283, 293, 293, 294, 295, 289, 287]}}]}