{"type": "FeatureCollection", "features": [{"type": "Feature", "geometry": {"type": "LineString", "coordinates": [[-97.45182, 29.50226], [-97.45206, 29.50281], [-97.4525, 29.50383], [-97.45296, 29.50486], [-97.4531, 29.50522], [-97.45319, 29.50547], [-97.453239, 29.50558], [-97.45346, 29.50596], [-97.45384, 29.50682], [-97.45396, 29.50707], [-97.4541, 29.50741], [-97.45439, 29.50812], [-97.45498, 29.50943], [-97.45546, 29.5105], [-97.45569, 29.511], [-97.455969, 29.51164], [-97.45619, 29.51209], [-97.4565, 29.51274], [-97.45675, 29.51331], [-97.45703, 29.51389], [-97.45746, 29.51488], [-97.45783, 29.51576], [-97.45802, 29.5162]]}, "properties": {"surface": "unknown", "label": "Unverified", "color": "#9A9389", "miles": 1.03, "start_mi": 0.0, "end_mi": 1.03, "road": "Saint Paul Street", "elev_ft": [288, 288, 289, 289, 290, 291, 291, 292, 296, 297, 298, 300, 303, 308, 310, 318, 321, 325, 328, 332, 338, 344, 349]}}, {"type": "Feature", "geometry": {"type": "LineString", "coordinates": [[-97.45809, 29.51637], [-97.458119, 29.51643], [-97.45814, 29.51648], [-97.45822, 29.51665], [-97.45829, 29.51682], [-97.45832, 29.51696], [-97.45832, 29.51705], [-97.45832, 29.51705], [-97.4583, 29.51723], [-97.45826, 29.51745], [-97.45822, 29.51768], [-97.45818, 29.51785], [-97.45802, 29.51869], [-97.45796, 29.51901], [-97.45783, 29.51967], [-97.4578, 29.51986], [-97.45764, 29.52077], [-97.457579, 29.5211], [-97.457579, 29.5211]]}, "properties": {"surface": "pavement", "label": "Pavement", "color": "#4A5568", "miles": 0.33, "start_mi": 1.03, "end_mi": 1.37, "road": "Harwood Road", "elev_ft": [351, 351, 352, 353, 355, 357, 358, 358, 359, 362, 364, 365, 367, 368, 369, 369, 371, 372, 372]}}, {"type": "Feature", "geometry": {"type": "LineString", "coordinates": [[-97.45641, 29.52147], [-97.45592, 29.52165], [-97.45457, 29.5221], [-97.45395, 29.52231], [-97.4538, 29.52236], [-97.45303, 29.52262], [-97.45287, 29.52267], [-97.452699, 29.52272], [-97.45269, 29.52272], [-97.45237, 29.52285], [-97.45231, 29.52287], [-97.452119, 29.52294], [-97.45174, 29.52307], [-97.45097, 29.52334], [-97.45068, 29.52343], [-97.45012, 29.52362], [-97.44981, 29.52373], [-97.44976, 29.52375], [-97.44971, 29.52376], [-97.44966, 29.52377], [-97.44961, 29.5238], [-97.44922, 29.52393], [-97.44901, 29.52401], [-97.44891, 29.52404], [-97.44882, 29.52407], [-97.44835, 29.52423], [-97.44788, 29.52438], [-97.44757, 29.52448], [-97.44741, 29.52454], [-97.44734, 29.52456], [-97.44709, 29.52465], [-97.44695, 29.52472], [-97.44681, 29.52479], [-97.44676, 29.52482], [-97.44667, 29.52486], [-97.44664, 29.52488], [-97.44662, 29.52489], [-97.44658, 29.52492], [-97.44655, 29.52495], [-97.44652, 29.525], [-97.44651, 29.52506], [-97.44651, 29.52511], [-97.44652, 29.52522], [-97.44659, 29.52551], [-97.4466, 29.52559], [-97.44666, 29.52592], [-97.44667, 29.52605], [-97.44669, 29.52623], [-97.4467, 29.52637], [-97.44669, 29.52648], [-97.44668, 29.52658], [-97.44667, 29.5267], [-97.44664, 29.52684], [-97.44661, 29.52698], [-97.44649, 29.52753], [-97.4464, 29.528], [-97.44637, 29.52818], [-97.44632, 29.5284], [-97.446209, 29.52903], [-97.4461, 29.52963], [-97.446, 29.53018], [-97.44591, 29.53071], [-97.44584, 29.53102], [-97.44584, 29.53103], [-97.44581, 29.5312], [-97.44575, 29.53146], [-97.44568, 29.53173], [-97.44565, 29.53185], [-97.4456, 29.53206], [-97.44559, 29.53208], [-97.44552, 29.5323], [-97.44547, 29.53247], [-97.44547, 29.53247], [-97.44543, 29.53257], [-97.4454, 29.53275], [-97.445359, 29.53294], [-97.44489, 29.53449], [-97.44473, 29.53499], [-97.44473, 29.53501], [-97.44467, 29.53518], [-97.44463, 29.53529], [-97.444509, 29.53559], [-97.44434, 29.53599], [-97.4442, 29.53628], [-97.44412, 29.53645], [-97.44382, 29.53705], [-97.44369, 29.53728], [-97.44361, 29.53744], [-97.44352, 29.5376], [-97.44343, 29.53776], [-97.443389, 29.53784], [-97.44315, 29.53825], [-97.443, 29.5385], [-97.44286, 29.53871], [-97.44277, 29.53882], [-97.44272, 29.53889], [-97.44252, 29.53914], [-97.4425, 29.53916], [-97.44226, 29.53946], [-97.44216, 29.53958], [-97.44202, 29.53975], [-97.44197, 29.53983], [-97.44176, 29.54007], [-97.44089, 29.54118], [-97.44082, 29.54126], [-97.44073, 29.54138], [-97.44061, 29.54152], [-97.44056, 29.54158], [-97.44049, 29.54167], [-97.44031, 29.54188], [-97.43999, 29.54223], [-97.43998, 29.54224], [-97.43972, 29.5425], [-97.43971, 29.54251], [-97.43946, 29.54279], [-97.4394, 29.54287], [-97.43935, 29.54294], [-97.4393, 29.54302], [-97.439269, 29.54311], [-97.43924, 29.54319], [-97.439179, 29.54345], [-97.43913, 29.54364], [-97.43912, 29.54368], [-97.43898, 29.54409], [-97.43896, 29.54416], [-97.43889, 29.54436], [-97.43878, 29.54462], [-97.43868, 29.54483], [-97.43867, 29.54484], [-97.43853, 29.54509], [-97.43849, 29.54515], [-97.43829, 29.54547], [-97.43829, 29.54548], [-97.43797, 29.54595], [-97.43783, 29.54616], [-97.43777, 29.54625], [-97.43769, 29.54637], [-97.43751, 29.54666], [-97.43742, 29.54683], [-97.43732, 29.54705], [-97.43731, 29.54706], [-97.43695, 29.54791], [-97.436629, 29.54858], [-97.43614, 29.54969], [-97.43602, 29.54996], [-97.43594, 29.55013], [-97.43572, 29.55062], [-97.4355, 29.55104], [-97.43535, 29.55128], [-97.43528, 29.55142], [-97.43509, 29.55177], [-97.435, 29.55192], [-97.4349, 29.55209], [-97.4348, 29.55227], [-97.43467, 29.55246], [-97.43467, 29.55246], [-97.43495, 29.55313], [-97.43496, 29.55316], [-97.43503, 29.5533], [-97.4351, 29.55347], [-97.43525, 29.5538], [-97.43532, 29.55397], [-97.4354, 29.55414], [-97.43607, 29.55567], [-97.43621, 29.55599], [-97.43633, 29.55626], [-97.4365, 29.55664], [-97.43651, 29.55665], [-97.43653, 29.55669], [-97.43655, 29.55675], [-97.43657, 29.5568], [-97.436719, 29.55712], [-97.43696, 29.55767], [-97.4371, 29.558], [-97.43728, 29.55843], [-97.43744, 29.5588], [-97.43753, 29.55901], [-97.4377, 29.55942], [-97.43799, 29.56011], [-97.43827, 29.56071], [-97.43858, 29.56138], [-97.43861, 29.56144], [-97.43872, 29.56168], [-97.43877, 29.56177], [-97.43937, 29.56311], [-97.43994, 29.56436], [-97.44011, 29.56471], [-97.44016, 29.56483], [-97.44033, 29.56526], [-97.440389, 29.56539], [-97.44042, 29.56545], [-97.44054, 29.56573], [-97.4406, 29.56586], [-97.44091, 29.56657], [-97.441, 29.56678], [-97.441329, 29.56751], [-97.44136, 29.56757], [-97.44159, 29.56812], [-97.44197, 29.56897], [-97.4421, 29.56925], [-97.44257, 29.57025], [-97.443, 29.57115], [-97.44304, 29.57123], [-97.44313, 29.57142], [-97.44356, 29.57239], [-97.44401, 29.5734], [-97.44423, 29.5739], [-97.44439, 29.57427], [-97.4446, 29.57474], [-97.44475, 29.57507], [-97.44488, 29.57534], [-97.44489, 29.57538], [-97.4449, 29.57543], [-97.4449, 29.57548], [-97.44489, 29.57552], [-97.44483, 29.57559], [-97.44478, 29.57561], [-97.44465, 29.57566], [-97.44434, 29.57576], [-97.44389, 29.57592], [-97.4438, 29.57595], [-97.44215, 29.57649], [-97.44196, 29.57656], [-97.441329, 29.57676], [-97.44099, 29.57687], [-97.44086, 29.57692], [-97.43912, 29.5775], [-97.43848, 29.57773], [-97.43821, 29.57782], [-97.43813, 29.57785], [-97.438059, 29.57786], [-97.43799, 29.57786], [-97.43793, 29.57784], [-97.43788, 29.5778], [-97.43784, 29.57776], [-97.43781, 29.5777], [-97.43762, 29.57725], [-97.43745, 29.57682], [-97.43741, 29.57671], [-97.43738, 29.57665], [-97.43734, 29.57659], [-97.43729, 29.57654], [-97.43724, 29.57652], [-97.43717, 29.57651], [-97.43711, 29.57651], [-97.43704, 29.57652], [-97.43689, 29.57656], [-97.43512, 29.57719], [-97.43509, 29.5772], [-97.43429, 29.57747], [-97.43392, 29.57759], [-97.433449, 29.57773], [-97.43338, 29.57776], [-97.43307, 29.57786], [-97.43164, 29.57833], [-97.43095, 29.57855], [-97.43068, 29.57864], [-97.43068, 29.57864], [-97.43106, 29.57949], [-97.43112, 29.57963], [-97.43113, 29.57964], [-97.43118, 29.57977], [-97.43134, 29.58015], [-97.43151, 29.58051], [-97.43171, 29.58099], [-97.43179, 29.58119], [-97.43245, 29.58267], [-97.432509, 29.58281], [-97.43271, 29.58323], [-97.43271, 29.58323], [-97.43256, 29.58338], [-97.43247, 29.58348], [-97.43236, 29.58358], [-97.43075, 29.58482], [-97.43008, 29.58535], [-97.42967, 29.58566], [-97.4292, 29.58601], [-97.42872, 29.58637], [-97.42826, 29.58671], [-97.42779, 29.58707], [-97.42757, 29.58723], [-97.427539, 29.58725], [-97.42723, 29.58748], [-97.42667, 29.58791], [-97.42598, 29.58843], [-97.42544, 29.58883], [-97.42523, 29.58899], [-97.42486, 29.58928], [-97.42483, 29.58932], [-97.42439, 29.5897], [-97.42425, 29.58982], [-97.42367, 29.59034], [-97.42337, 29.59061], [-97.42267, 29.59126], [-97.4225, 29.59142], [-97.4215, 29.5923], [-97.42138, 29.59241], [-97.42137, 29.59241], [-97.4211, 29.59266], [-97.42103, 29.59272], [-97.420959, 29.5928], [-97.42094, 29.59281], [-97.42037, 29.59332], [-97.42, 29.59365], [-97.419079, 29.5945], [-97.41901, 29.59457], [-97.41838, 29.59515], [-97.417959, 29.59555], [-97.41781, 29.59568], [-97.41774, 29.59575], [-97.41699, 29.59646], [-97.4167, 29.59674], [-97.4164, 29.59703], [-97.41622, 29.59719], [-97.41603, 29.59734], [-97.41593, 29.5974], [-97.41579, 29.59746], [-97.41579, 29.59746], [-97.41573, 29.59839], [-97.41565, 29.59959], [-97.41552, 29.60156], [-97.41552, 29.60156]]}, "properties": {"surface": "unknown", "label": "Unverified", "color": "#9A9389", "miles": 7.43, "start_mi": 1.37, "end_mi": 8.8, "road": "County Road 238", "elev_ft": [360, 356, 339, 331, 329, 322, 319, 316, 316, 311, 311, 311, 312, 314, 315, 314, 313, 313, 313, 313, 313, 312, 312, 312, 312, 312, 312, 311, 311, 311, 311, 311, 310, 310, 310, 310, 310, 310, 310, 310, 310, 310, 311, 310, 310, 311, 311, 311, 312, 312, 312, 313, 314, 314, 317, 319, 319, 320, 324, 328, 332, 335, 337, 337, 339, 341, 343, 344, 346, 346, 348, 349, 349, 350, 352, 354, 366, 367, 367, 368, 368, 367, 366, 366, 366, 366, 366, 366, 366, 366, 366, 366, 366, 366, 366, 365, 365, 365, 364, 363, 362, 362, 359, 352, 352, 353, 352, 352, 351, 346, 335, 334, 328, 328, 325, 325, 325, 324, 324, 323, 321, 319, 318, 313, 312, 313, 316, 318, 318, 321, 322, 326, 326, 331, 333, 334, 335, 338, 340, 343, 343, 354, 361, 366, 367, 367, 366, 363, 362, 361, 359, 359, 360, 360, 359, 359, 366, 366, 367, 368, 368, 367, 367, 354, 352, 351, 355, 355, 356, 357, 357, 359, 363, 364, 366, 369, 370, 375, 382, 385, 388, 388, 387, 386, 375, 374, 372, 371, 366, 365, 364, 366, 369, 372, 375, 382, 383, 390, 398, 401, 404, 404, 404, 405, 405, 403, 400, 395, 389, 391, 391, 391, 391, 391, 391, 392, 392, 393, 394, 395, 396, 393, 392, 395, 397, 397, 407, 411, 412, 412, 412, 412, 412, 412, 412, 412, 413, 412, 412, 412, 412, 412, 411, 411, 411, 410, 409, 398, 398, 396, 395, 393, 393, 393, 391, 386, 384, 384, 379, 378, 378, 378, 380, 382, 388, 390, 404, 405, 408, 408, 409, 411, 413, 422, 424, 424, 423, 422, 421, 421, 421, 421, 421, 419, 415, 413, 412, 407, 406, 399, 395, 386, 381, 374, 372, 370, 370, 370, 370, 370, 370, 370, 376, 379, 388, 389, 391, 387, 385, 385, 377, 375, 372, 372, 371, 370, 370, 370, 368, 373, 387, 387]}}, {"type": "Feature", "geometry": {"type": "LineString", "coordinates": [[-97.41534, 29.60174], [-97.415229, 29.60186], [-97.415139, 29.60198], [-97.41472, 29.60263], [-97.414689, 29.60266], [-97.41456, 29.60289], [-97.41442, 29.6031], [-97.41392, 29.60388], [-97.41332, 29.60483], [-97.41312, 29.60514], [-97.41303, 29.60528], [-97.41204, 29.60685], [-97.41192, 29.60703], [-97.41133, 29.60793], [-97.41131, 29.60797], [-97.4108, 29.60876], [-97.41076, 29.60882], [-97.41065, 29.60898], [-97.41059, 29.60905], [-97.41054, 29.60911], [-97.4104, 29.60923], [-97.41034, 29.60926], [-97.41028, 29.60931], [-97.41012, 29.6094], [-97.41011, 29.60941], [-97.40993, 29.60949], [-97.40986, 29.60952], [-97.40976, 29.60953], [-97.40953, 29.60954], [-97.40936, 29.60953], [-97.40929, 29.60954], [-97.40915, 29.60956], [-97.40909, 29.60958], [-97.40903, 29.60961], [-97.40899, 29.60964], [-97.40895, 29.60968], [-97.40894, 29.60968], [-97.40891, 29.60973], [-97.40886, 29.60984], [-97.40864, 29.61034], [-97.40849, 29.61068], [-97.40844, 29.61079], [-97.40834, 29.61101], [-97.408109, 29.61151], [-97.40734, 29.61319], [-97.40665, 29.61469], [-97.40634, 29.61538], [-97.40597, 29.6162], [-97.40545, 29.61737], [-97.40523, 29.61785], [-97.40519, 29.61795], [-97.40519, 29.61795]]}, "properties": {"surface": "two_track", "label": "Ranch two-track", "color": "#6B5A45", "miles": 1.31, "start_mi": 8.8, "end_mi": 10.11, "road": "County Road 240", "elev_ft": [389, 389, 390, 396, 396, 398, 400, 408, 414, 410, 409, 398, 397, 391, 390, 383, 382, 381, 381, 381, 380, 380, 380, 380, 380, 380, 380, 380, 380, 380, 380, 379, 378, 377, 376, 375, 375, 374, 372, 365, 364, 365, 366, 372, 396, 405, 406, 409, 413, 414, 414, 414]}}, {"type": "Feature", "geometry": {"type": "LineString", "coordinates": [[-97.40504, 29.61795], [-97.40453, 29.61796], [-97.40425, 29.61797], [-97.40405, 29.61797], [-97.40335, 29.61798], [-97.40196, 29.61801], [-97.40147, 29.61802], [-97.40141, 29.61802], [-97.40098, 29.61803], [-97.40074, 29.61804], [-97.40036, 29.61805], [-97.40012, 29.61805], [-97.40012, 29.61805], [-97.40013, 29.61763], [-97.40021, 29.61668], [-97.40022, 29.61647], [-97.40022, 29.61626], [-97.4002, 29.61587], [-97.40017, 29.61547], [-97.400139, 29.61521], [-97.40013, 29.61512], [-97.40009, 29.61495], [-97.40007, 29.61491], [-97.39999, 29.61481], [-97.39982, 29.61466], [-97.39975, 29.61462], [-97.39972, 29.61459], [-97.39964, 29.61455], [-97.39951, 29.61451], [-97.39939, 29.6145], [-97.39924, 29.61449], [-97.39886, 29.6145], [-97.39868, 29.6145], [-97.39861, 29.61449], [-97.39855, 29.61448], [-97.3985, 29.61445], [-97.39846, 29.61441], [-97.398439, 29.61436], [-97.39842, 29.6143], [-97.39842, 29.6139], [-97.39842, 29.61354], [-97.39842, 29.61292], [-97.39841, 29.61228], [-97.3984, 29.61167], [-97.3984, 29.61138], [-97.3984, 29.61102], [-97.39839, 29.6103], [-97.39838, 29.60886], [-97.39839, 29.60778], [-97.39839, 29.60738], [-97.39841, 29.60638], [-97.3984, 29.60623], [-97.39837, 29.60618], [-97.39834, 29.60613], [-97.39828, 29.6061], [-97.39822, 29.60609], [-97.39814, 29.60608], [-97.39757, 29.60607], [-97.39669, 29.60607], [-97.39633, 29.60607], [-97.39551, 29.60608], [-97.39509, 29.60608], [-97.394679, 29.60608], [-97.39384, 29.60609], [-97.39367, 29.60607], [-97.39359, 29.60606], [-97.39352, 29.60603], [-97.39346, 29.60599], [-97.39342, 29.60594], [-97.39339, 29.60588], [-97.393379, 29.60581], [-97.393379, 29.60573], [-97.39339, 29.60529], [-97.39341, 29.60424], [-97.3934, 29.60382], [-97.39339, 29.60368], [-97.39336, 29.60349], [-97.39334, 29.6034], [-97.39326, 29.603], [-97.393199, 29.60275], [-97.39313, 29.60252], [-97.393, 29.60221], [-97.39294, 29.6021], [-97.39276, 29.60174], [-97.39265, 29.60149], [-97.3924, 29.60094], [-97.39202, 29.6001], [-97.39186, 29.59977], [-97.39139, 29.59877], [-97.39068, 29.59728], [-97.3906, 29.59711], [-97.39042, 29.59674], [-97.39039, 29.59667], [-97.39013, 29.59607], [-97.39008, 29.59593], [-97.38972, 29.59509], [-97.38933, 29.59416], [-97.38907, 29.59357], [-97.38869, 29.59274], [-97.38824, 29.59173], [-97.38819, 29.59161], [-97.38806, 29.59131], [-97.38804, 29.59122], [-97.38803, 29.59114], [-97.38803, 29.59106], [-97.38805, 29.59098], [-97.38808, 29.59091], [-97.38817, 29.59077], [-97.388319, 29.59057], [-97.38842, 29.59043], [-97.38858, 29.59021], [-97.38862, 29.59013], [-97.38864, 29.59005], [-97.38865, 29.58996], [-97.38864, 29.58988], [-97.38862, 29.58975], [-97.3886, 29.58969], [-97.38837, 29.58887], [-97.3883, 29.58858], [-97.38827, 29.58848], [-97.388229, 29.5884], [-97.3882, 29.58836], [-97.38818, 29.58833], [-97.38811, 29.58827], [-97.38803, 29.58822], [-97.387829, 29.58812], [-97.38693, 29.58774], [-97.38676, 29.58766], [-97.386709, 29.58764], [-97.38661, 29.58757], [-97.38651, 29.5875], [-97.38643, 29.58742], [-97.38628, 29.58725], [-97.38622, 29.58715], [-97.38618, 29.58705], [-97.38607, 29.5868], [-97.385859, 29.58629], [-97.38574, 29.58602], [-97.38511, 29.58461], [-97.38494, 29.58423], [-97.38486, 29.58406], [-97.38478, 29.58397], [-97.38471, 29.58392], [-97.38464, 29.58388], [-97.38457, 29.58386], [-97.38448, 29.58384], [-97.38411, 29.58384], [-97.38378, 29.58385], [-97.3836, 29.58386], [-97.38321, 29.58385], [-97.38313, 29.58384], [-97.38306, 29.58382], [-97.38302, 29.5838], [-97.38299, 29.58378], [-97.38294, 29.58374], [-97.382859, 29.58361], [-97.38262, 29.58309], [-97.38234, 29.58245], [-97.38234, 29.58244], [-97.38193, 29.58155], [-97.38189, 29.58144], [-97.38177, 29.58117], [-97.38172, 29.58106], [-97.38166, 29.58093], [-97.38139, 29.58032], [-97.38136, 29.58026], [-97.38108, 29.5796], [-97.381069, 29.57959], [-97.38104, 29.57952], [-97.381, 29.57945], [-97.38094, 29.57939], [-97.38087, 29.57934], [-97.380799, 29.57931], [-97.380709, 29.57928], [-97.380619, 29.57927], [-97.38021, 29.57926], [-97.38002, 29.57926], [-97.37907, 29.57926], [-97.37835, 29.57926], [-97.3769, 29.57926], [-97.37525, 29.57925], [-97.37479, 29.57925], [-97.374619, 29.57925], [-97.37452, 29.57925], [-97.37437, 29.57922], [-97.37429, 29.5792], [-97.37421, 29.57917], [-97.37407, 29.5791], [-97.37385, 29.57893], [-97.37348, 29.5786], [-97.37332, 29.57844], [-97.37323, 29.57835], [-97.37315, 29.57815], [-97.372649, 29.57675], [-97.37228, 29.57571], [-97.37228, 29.57571]]}, "properties": {"surface": "unknown", "label": "Unverified", "color": "#9A9389", "miles": 4.29, "start_mi": 10.11, "end_mi": 14.4, "road": "County Road 433", "elev_ft": [414, 413, 412, 410, 403, 391, 387, 387, 383, 381, 378, 375, 375, 376, 375, 375, 374, 373, 372, 371, 371, 370, 370, 369, 367, 368, 369, 370, 371, 372, 373, 376, 377, 377, 377, 378, 378, 378, 379, 382, 385, 385, 386, 390, 392, 393, 392, 386, 380, 378, 373, 372, 372, 372, 372, 372, 372, 372, 367, 365, 361, 362, 366, 375, 376, 377, 378, 379, 379, 380, 380, 380, 383, 386, 386, 386, 386, 386, 385, 385, 385, 384, 384, 381, 379, 377, 374, 374, 375, 372, 373, 373, 373, 377, 379, 381, 375, 374, 372, 365, 365, 368, 369, 370, 370, 371, 371, 371, 370, 370, 369, 369, 368, 368, 368, 368, 368, 368, 367, 367, 367, 367, 367, 367, 367, 367, 365, 365, 365, 365, 366, 366, 368, 369, 369, 371, 372, 371, 361, 356, 355, 354, 354, 354, 353, 353, 352, 351, 350, 345, 345, 345, 345, 345, 345, 346, 348, 345, 345, 359, 360, 361, 361, 362, 362, 362, 358, 358, 357, 356, 356, 355, 355, 355, 355, 353, 352, 348, 345, 335, 318, 315, 314, 313, 312, 312, 311, 309, 307, 304, 305, 305, 305, 301, 304, 304]}}, {"type": "Feature", "geometry": {"type": "LineString", "coordinates": [[-97.37269, 29.57525], [-97.37276, 29.57517], [-97.37284, 29.57508], [-97.37293, 29.57499], [-97.37302, 29.57491], [-97.37312, 29.57482], [-97.37317, 29.57478], [-97.37324, 29.57472], [-97.37331, 29.57466], [-97.37333, 29.57465], [-97.37358, 29.57445], [-97.37383, 29.57426], [-97.37416, 29.574], [-97.3745, 29.57374], [-97.37456, 29.57369], [-97.37472, 29.57357], [-97.374889, 29.57344], [-97.37532, 29.5731], [-97.37533, 29.57309], [-97.37603, 29.57255], [-97.37653, 29.57216], [-97.37688, 29.5719], [-97.37688, 29.5719]]}, "properties": {"surface": "pavement", "label": "Pavement", "color": "#4A5568", "miles": 0.34, "start_mi": 14.4, "end_mi": 14.74, "road": "TX 97", "elev_ft": [316, 318, 320, 321, 322, 324, 326, 329, 330, 330, 331, 333, 339, 341, 341, 341, 342, 348, 348, 351, 351, 351, 351]}}, {"type": "Feature", "geometry": {"type": "LineString", "coordinates": [[-97.3768, 29.57169], [-97.3768, 29.57169], [-97.37598, 29.57169], [-97.37536, 29.57169], [-97.37513, 29.57169], [-97.37366, 29.57163], [-97.37329, 29.57163], [-97.37315, 29.57163], [-97.37289, 29.57164], [-97.37288, 29.57164], [-97.37184, 29.57166], [-97.371799, 29.57166], [-97.37118, 29.57168], [-97.37045, 29.57169], [-97.370009, 29.57168], [-97.36957, 29.57168], [-97.36879, 29.57168], [-97.36844, 29.57169], [-97.36844, 29.57169], [-97.36826, 29.57169], [-97.36711, 29.5717], [-97.3669, 29.5717], [-97.36599, 29.57171], [-97.36566, 29.57171], [-97.36545, 29.57171], [-97.36542, 29.57171], [-97.36533, 29.57171], [-97.36375, 29.57172], [-97.36338, 29.57172], [-97.36276, 29.57173], [-97.36235, 29.57174], [-97.36233, 29.57174], [-97.36218, 29.57175], [-97.36194, 29.57175], [-97.36152, 29.57175], [-97.3614, 29.57176], [-97.36111, 29.57176], [-97.36028, 29.57176], [-97.36007, 29.57176], [-97.35948, 29.57177], [-97.35925, 29.57177], [-97.35904, 29.57177], [-97.35883, 29.57177], [-97.35883, 29.57177]]}, "properties": {"surface": "unknown", "label": "Unverified", "color": "#9A9389", "miles": 1.08, "start_mi": 14.74, "end_mi": 15.82, "road": "County Road 384", "elev_ft": [350, 350, 345, 339, 337, 317, 314, 312, 310, 309, 309, 309, 307, 303, 300, 299, 292, 290, 290, 292, 303, 304, 307, 308, 308, 308, 308, 309, 309, 308, 312, 312, 314, 317, 321, 322, 323, 329, 330, 336, 339, 340, 342, 342]}}, {"type": "Feature", "geometry": {"type": "LineString", "coordinates": [[-97.35883, 29.57189], [-97.35883, 29.57234], [-97.35883, 29.57252], [-97.35883, 29.57279], [-97.35883, 29.57342], [-97.35882, 29.57396], [-97.35882, 29.57419], [-97.35883, 29.57432], [-97.35883, 29.5745], [-97.35884, 29.57492], [-97.35883, 29.57499], [-97.35881, 29.57505], [-97.35879, 29.5751], [-97.35873, 29.57516], [-97.3587, 29.57517], [-97.35866, 29.57519], [-97.35865, 29.57519], [-97.3586, 29.5752], [-97.35848, 29.5752], [-97.35791, 29.57519], [-97.35762, 29.57518], [-97.35756, 29.57518], [-97.35741, 29.57518], [-97.35521, 29.57516], [-97.35514, 29.57516], [-97.35466, 29.57516], [-97.35322, 29.57516], [-97.35218, 29.57515], [-97.35206, 29.57516], [-97.35198, 29.57518], [-97.35162, 29.57526], [-97.35137, 29.57524], [-97.35105, 29.57522], [-97.34971, 29.5752], [-97.34968, 29.5752], [-97.3493, 29.5752], [-97.34806, 29.57523], [-97.34756, 29.57529], [-97.34742, 29.57535], [-97.34728, 29.57543], [-97.34727, 29.57544], [-97.34721, 29.5755], [-97.34715, 29.57557], [-97.34711, 29.57564], [-97.34709, 29.57572], [-97.34708, 29.57581], [-97.34708, 29.5759], [-97.34709, 29.57609], [-97.34709, 29.57627], [-97.34709, 29.57652], [-97.3471, 29.57771], [-97.34711, 29.57789], [-97.34711, 29.57807], [-97.34712, 29.57843], [-97.34712, 29.57872], [-97.34712, 29.5789], [-97.34711, 29.57898], [-97.34709, 29.57905], [-97.34706, 29.5791], [-97.34703, 29.57915], [-97.34696, 29.57922], [-97.34692, 29.57925], [-97.34688, 29.57928], [-97.3467, 29.57939], [-97.34665, 29.57942], [-97.34661, 29.57946], [-97.34657, 29.5795], [-97.34656, 29.57952], [-97.34654, 29.57956], [-97.34654, 29.57962], [-97.34653, 29.57967], [-97.34654, 29.57972], [-97.34654, 29.5798], [-97.34659, 29.58002], [-97.34662, 29.58018], [-97.34661, 29.58026], [-97.34658, 29.58033], [-97.34653, 29.58039], [-97.34645, 29.58043], [-97.34638, 29.58045], [-97.34632, 29.58046], [-97.34629, 29.58047], [-97.34619, 29.58046], [-97.34582, 29.58046], [-97.34487, 29.58045], [-97.34466, 29.58045], [-97.34451, 29.58045], [-97.34446, 29.58045], [-97.34392, 29.58045], [-97.34333, 29.58044], [-97.34268, 29.58045], [-97.34248, 29.58045], [-97.34236, 29.58045], [-97.34144, 29.58045], [-97.34099, 29.58045], [-97.34046, 29.58045], [-97.34044, 29.58045], [-97.34043, 29.58045], [-97.34028, 29.58045], [-97.34023, 29.58045], [-97.33982, 29.58046], [-97.33979, 29.58046], [-97.33971, 29.58046], [-97.33961, 29.58046], [-97.33961, 29.58046], [-97.33956, 29.58053], [-97.33954, 29.58062], [-97.33952, 29.58076], [-97.33951, 29.58086], [-97.3395, 29.58101], [-97.3395, 29.58119], [-97.33951, 29.58155], [-97.33951, 29.58173], [-97.33951, 29.58176], [-97.33951, 29.58209], [-97.33951, 29.58227], [-97.3395, 29.58238], [-97.3395, 29.58245], [-97.3395, 29.58248], [-97.3395, 29.58263], [-97.3395, 29.58335], [-97.33951, 29.58407], [-97.33951, 29.58432], [-97.33953, 29.58496], [-97.33953, 29.58527], [-97.33954, 29.58536], [-97.33954, 29.58544], [-97.33954, 29.58551], [-97.33951, 29.58558], [-97.33947, 29.58563], [-97.33943, 29.58567], [-97.33937, 29.58571], [-97.33905, 29.58587], [-97.33898, 29.58591], [-97.3389, 29.58597], [-97.33884, 29.58604], [-97.33879, 29.58611], [-97.33875, 29.58619], [-97.33873, 29.58628], [-97.33872, 29.58637], [-97.33872, 29.58643], [-97.33872, 29.58647], [-97.33872, 29.58648], [-97.33872, 29.58664], [-97.33877, 29.58898], [-97.33878, 29.58951], [-97.33878, 29.58954], [-97.33879, 29.58971], [-97.33879, 29.58979], [-97.33877, 29.58987], [-97.33875, 29.58994], [-97.3387, 29.59], [-97.33865, 29.59005], [-97.33859, 29.5901], [-97.33852, 29.59012], [-97.33848, 29.59013], [-97.33844, 29.59014], [-97.33835, 29.59014], [-97.33826, 29.59014], [-97.3378, 29.59013], [-97.33753, 29.59013], [-97.33745, 29.59014], [-97.33738, 29.59016], [-97.33731, 29.59019], [-97.33728, 29.59021], [-97.33727, 29.59023], [-97.33723, 29.59027], [-97.3372, 29.59032], [-97.33718, 29.59036], [-97.33718, 29.59038], [-97.33717, 29.59045], [-97.33717, 29.59052], [-97.33717, 29.59094], [-97.33717, 29.59326], [-97.33718, 29.59344], [-97.33718, 29.59362], [-97.33718, 29.59456], [-97.33718, 29.59488], [-97.33719, 29.59506], [-97.33719, 29.59512], [-97.33718, 29.59578], [-97.33718, 29.59578]]}, "properties": {"surface": "two_track", "label": "Ranch two-track", "color": "#6B5A45", "miles": 2.86, "start_mi": 15.82, "end_mi": 18.68, "road": "County Road 385", "elev_ft": [342, 342, 342, 341, 342, 343, 344, 344, 344, 341, 341, 341, 341, 342, 342, 342, 342, 342, 342, 342, 342, 342, 341, 320, 319, 311, 303, 299, 298, 297, 295, 294, 301, 316, 316, 318, 313, 309, 309, 309, 309, 309, 309, 309, 310, 312, 313, 316, 318, 319, 328, 328, 328, 328, 327, 326, 326, 326, 325, 325, 324, 323, 323, 323, 323, 324, 325, 326, 327, 327, 328, 328, 329, 330, 331, 332, 332, 333, 334, 334, 335, 335, 337, 341, 346, 347, 347, 347, 347, 341, 339, 337, 336, 337, 334, 329, 329, 329, 327, 326, 330, 330, 331, 333, 333, 333, 333, 332, 332, 331, 331, 328, 331, 331, 334, 334, 335, 335, 335, 336, 342, 348, 349, 351, 351, 351, 351, 351, 351, 351, 351, 351, 351, 351, 351, 351, 351, 351, 351, 351, 351, 351, 351, 351, 351, 352, 352, 352, 352, 352, 353, 353, 353, 352, 352, 352, 352, 352, 351, 349, 347, 346, 345, 344, 344, 344, 344, 344, 344, 344, 344, 344, 344, 343, 343, 343, 340, 338, 336, 336, 338, 338]}}, {"type": "Feature", "geometry": {"type": "LineString", "coordinates": [[-97.33787, 29.59579], [-97.33808, 29.59579], [-97.33862, 29.59578], [-97.33878, 29.59578], [-97.33885, 29.59578], [-97.33896, 29.5958], [-97.33901, 29.59582], [-97.33905, 29.59585], [-97.3391, 29.5959], [-97.33912, 29.59594], [-97.33913, 29.59599], [-97.33914, 29.59611], [-97.33914, 29.59621], [-97.33914, 29.59624], [-97.33914, 29.59639], [-97.33915, 29.59693], [-97.33914, 29.59728], [-97.33914, 29.59818], [-97.33913, 29.59872], [-97.33912, 29.59962], [-97.33911, 29.60034], [-97.33911, 29.6007], [-97.33911, 29.6009], [-97.33912, 29.60126], [-97.33912, 29.60126]]}, "properties": {"surface": "unknown", "label": "Unverified", "color": "#9A9389", "miles": 0.45, "start_mi": 18.68, "end_mi": 19.13, "road": "County Road 388", "elev_ft": [343, 344, 346, 347, 348, 348, 349, 349, 349, 349, 349, 350, 351, 352, 353, 355, 355, 354, 351, 358, 364, 366, 367, 369, 369]}}, {"type": "Feature", "geometry": {"type": "LineString", "coordinates": [[-97.33846, 29.60163], [-97.33837, 29.60168], [-97.33811, 29.60182], [-97.33775, 29.60202], [-97.33775, 29.60202], [-97.33748, 29.60196], [-97.33747, 29.60196], [-97.33743, 29.60195], [-97.33736, 29.60194], [-97.33716, 29.60191], [-97.33634, 29.6018], [-97.33614, 29.60177], [-97.33593, 29.60175], [-97.33573, 29.60172], [-97.33532, 29.60166], [-97.33511, 29.60164], [-97.33492, 29.60161], [-97.33491, 29.60161], [-97.3345, 29.60155], [-97.33409, 29.60149], [-97.33401, 29.60148], [-97.33389, 29.60146], [-97.33348, 29.60141], [-97.33286, 29.60134], [-97.33233, 29.60129], [-97.33143, 29.60117], [-97.33061, 29.60107], [-97.33051, 29.60106], [-97.33041, 29.60104], [-97.32908, 29.60089], [-97.32897, 29.60087], [-97.32878, 29.60085], [-97.32877, 29.60085], [-97.32837, 29.6008], [-97.32836, 29.6008], [-97.32802, 29.60074], [-97.32775, 29.60069], [-97.32755, 29.60066], [-97.32714, 29.60058], [-97.32682, 29.60052], [-97.32674, 29.6005], [-97.32656, 29.60046], [-97.32636, 29.6004], [-97.32563, 29.60014], [-97.32558, 29.60012], [-97.32539, 29.60004], [-97.3253, 29.60001], [-97.32521, 29.59996], [-97.32509, 29.59991], [-97.32503, 29.59987], [-97.325, 29.59984], [-97.3248, 29.59969], [-97.32461, 29.59952], [-97.32428, 29.59923], [-97.32424, 29.5992], [-97.32415, 29.59911], [-97.32389, 29.59888], [-97.32357, 29.59859], [-97.32328, 29.59834], [-97.32269, 29.59784], [-97.32195, 29.59721], [-97.32093, 29.59633], [-97.32085, 29.59628], [-97.32077, 29.59623], [-97.32068, 29.5962], [-97.32059, 29.59618], [-97.3205, 29.59616], [-97.32041, 29.59615], [-97.32034, 29.59614], [-97.32014, 29.59612], [-97.31952, 29.59606], [-97.31932, 29.59605], [-97.31849, 29.59597], [-97.3181, 29.59594], [-97.31767, 29.5959], [-97.31753, 29.59589], [-97.31737, 29.59588], [-97.31664, 29.59582], [-97.31643, 29.5958], [-97.31602, 29.59576], [-97.31594, 29.59576], [-97.31581, 29.59575], [-97.3154, 29.59572], [-97.31528, 29.59571], [-97.31468, 29.59566], [-97.31429, 29.59561], [-97.31397, 29.59555], [-97.31388, 29.59553], [-97.31356, 29.59546], [-97.31317, 29.59536], [-97.31307, 29.59534], [-97.31297, 29.59532], [-97.31292, 29.59531], [-97.31222, 29.59512], [-97.31198, 29.59506], [-97.3119, 29.59505], [-97.31178, 29.59502], [-97.31167, 29.59499], [-97.31022, 29.59465], [-97.31008, 29.59462], [-97.30998, 29.5946], [-97.30799, 29.59411], [-97.30795, 29.5941], [-97.30786, 29.59408], [-97.30778, 29.59405], [-97.30772, 29.594], [-97.30767, 29.59395], [-97.30764, 29.59388], [-97.30763, 29.59381], [-97.3076, 29.59357], [-97.30758, 29.59346], [-97.30758, 29.59339], [-97.30752, 29.59281], [-97.30751, 29.59267], [-97.30749, 29.59249], [-97.30748, 29.59238], [-97.30748, 29.59231], [-97.30746, 29.59204], [-97.30746, 29.59174], [-97.30746, 29.59159], [-97.30746, 29.59159], [-97.30705, 29.5916], [-97.30684, 29.5916], [-97.30601, 29.59162], [-97.3056, 29.59163], [-97.30398, 29.59166], [-97.30313, 29.59166], [-97.3025, 29.59167], [-97.30206, 29.59168], [-97.30152, 29.5917], [-97.30106, 29.59171], [-97.30085, 29.59171], [-97.30079, 29.59171], [-97.30072, 29.59172], [-97.30066, 29.59173], [-97.30061, 29.59175], [-97.30056, 29.59177], [-97.30051, 29.59181], [-97.30047, 29.59186], [-97.30043, 29.59192], [-97.30023, 29.5923], [-97.30022, 29.59233], [-97.30005, 29.59266], [-97.29993, 29.59288], [-97.29987, 29.59298], [-97.29986, 29.59299], [-97.29978, 29.59315], [-97.2997, 29.59331], [-97.29968, 29.59334], [-97.29962, 29.59343], [-97.29954, 29.5936], [-97.29949, 29.59367], [-97.29945, 29.59375], [-97.29933, 29.59395], [-97.29932, 29.59397], [-97.29922, 29.59409], [-97.29914, 29.59419], [-97.29908, 29.59424], [-97.29905, 29.59427], [-97.29883, 29.59448], [-97.29878, 29.59452], [-97.29867, 29.59463], [-97.29863, 29.59466], [-97.29862, 29.59467], [-97.29853, 29.59475], [-97.29847, 29.5948], [-97.29843, 29.59485], [-97.29834, 29.59493], [-97.29831, 29.59496], [-97.29827, 29.595], [-97.29823, 29.59503], [-97.2982, 29.59506], [-97.29818, 29.59508], [-97.29784, 29.59541], [-97.29778, 29.59546], [-97.29764, 29.59559], [-97.29746, 29.59577], [-97.29733, 29.59592], [-97.29722, 29.59608], [-97.29718, 29.59612], [-97.29713, 29.59615], [-97.29701, 29.59622], [-97.29693, 29.59626], [-97.29689, 29.59628], [-97.29684, 29.5963], [-97.2968, 29.59633], [-97.29676, 29.59638], [-97.29674, 29.59644], [-97.29673, 29.5965], [-97.29673, 29.59652], [-97.29673, 29.59655], [-97.29676, 29.59778], [-97.29676, 29.59781], [-97.29677, 29.59798], [-97.29677, 29.59799], [-97.29677, 29.59814], [-97.29679, 29.59871], [-97.29679, 29.59886], [-97.2968, 29.59907], [-97.29681, 29.59942], [-97.29681, 29.59943], [-97.29681, 29.59961], [-97.29681, 29.59976], [-97.29682, 29.59997], [-97.29683, 29.60051], [-97.29684, 29.60066], [-97.29684, 29.60083], [-97.29684, 29.60086], [-97.29684, 29.60087], [-97.29686, 29.60158], [-97.29686, 29.60159], [-97.29686, 29.60174], [-97.29686, 29.60177], [-97.29687, 29.60194], [-97.29687, 29.60195], [-97.29687, 29.60206], [-97.29687, 29.60211], [-97.29688, 29.60224], [-97.29688, 29.60228], [-97.29688, 29.6023], [-97.29688, 29.60242], [-97.29688, 29.60245], [-97.2969, 29.60314], [-97.2969, 29.60318], [-97.2969, 29.6032], [-97.2969, 29.60326], [-97.29691, 29.60338], [-97.29692, 29.60368], [-97.29692, 29.60374], [-97.29693, 29.6039], [-97.29693, 29.60403], [-97.29693, 29.6041], [-97.29694, 29.60422], [-97.29695, 29.60435], [-97.29695, 29.60443], [-97.29695, 29.60446], [-97.29695, 29.60449], [-97.29693, 29.60454], [-97.29691, 29.60459], [-97.29688, 29.60462], [-97.29686, 29.60463], [-97.29683, 29.60465], [-97.29681, 29.60466], [-97.29674, 29.60468], [-97.29671, 29.60468], [-97.29668, 29.60469], [-97.29666, 29.60469], [-97.29657, 29.60469], [-97.29648, 29.6047], [-97.29586, 29.60471], [-97.29566, 29.60471], [-97.29555, 29.60471], [-97.29547, 29.60471], [-97.29545, 29.60471], [-97.29544, 29.60471], [-97.29524, 29.60472], [-97.29517, 29.60472], [-97.29506, 29.60473], [-97.29462, 29.60474], [-97.29433, 29.60475], [-97.29423, 29.60475], [-97.294, 29.60476], [-97.29388, 29.60476], [-97.29361, 29.60477], [-97.29358, 29.60477], [-97.29338, 29.60478], [-97.293, 29.60479], [-97.29276, 29.60479], [-97.29258, 29.6048], [-97.29255, 29.6048], [-97.29192, 29.6048], [-97.29134, 29.60481], [-97.29131, 29.60481], [-97.2911, 29.60481], [-97.29076, 29.60481], [-97.29072, 29.60481], [-97.29048, 29.60481], [-97.29007, 29.60482], [-97.28945, 29.60483], [-97.28927, 29.60483], [-97.28924, 29.60484], [-97.28908, 29.60484], [-97.288, 29.60485], [-97.28762, 29.60486], [-97.28758, 29.60486], [-97.28534, 29.60489], [-97.28514, 29.60489], [-97.2851, 29.6049], [-97.28493, 29.6049], [-97.28393, 29.60491]]}, "properties": {"surface": "unknown", "label": "Unverified", "color": "#9A9389", "miles": 4.33, "start_mi": 19.13, "end_mi": 23.45, "road": "County Road 407", "elev_ft": [371, 371, 370, 368, 368, 365, 365, 364, 363, 361, 352, 350, 348, 348, 348, 350, 352, 352, 358, 362, 363, 363, 363, 355, 347, 343, 336, 336, 336, 324, 322, 319, 318, 311, 311, 312, 313, 313, 311, 314, 315, 318, 320, 331, 331, 335, 336, 337, 337, 337, 338, 337, 333, 327, 327, 327, 330, 338, 342, 337, 328, 323, 323, 322, 322, 321, 321, 321, 321, 321, 323, 324, 328, 329, 327, 324, 322, 313, 310, 304, 303, 302, 302, 302, 304, 303, 302, 302, 300, 299, 299, 298, 298, 302, 302, 302, 303, 303, 311, 311, 311, 303, 303, 303, 303, 302, 302, 302, 302, 302, 302, 302, 301, 301, 301, 301, 301, 299, 297, 295, 295, 297, 298, 292, 292, 301, 300, 299, 299, 301, 301, 301, 301, 300, 300, 300, 300, 300, 299, 299, 296, 295, 292, 292, 291, 291, 289, 288, 288, 287, 284, 283, 282, 280, 280, 280, 279, 279, 279, 278, 278, 278, 278, 278, 277, 277, 277, 276, 276, 276, 276, 275, 275, 273, 273, 272, 271, 271, 271, 271, 271, 271, 271, 271, 271, 271, 271, 271, 271, 271, 271, 272, 272, 272, 272, 273, 274, 274, 275, 275, 275, 276, 276, 277, 278, 278, 279, 279, 279, 281, 281, 282, 282, 284, 284, 285, 286, 287, 287, 288, 289, 290, 304, 305, 305, 306, 307, 312, 314, 318, 320, 321, 322, 323, 324, 324, 324, 325, 325, 325, 325, 325, 325, 325, 324, 324, 324, 323, 322, 312, 308, 306, 304, 303, 303, 302, 303, 305, 309, 311, 312, 312, 312, 312, 311, 309, 308, 307, 306, 306, 302, 295, 295, 293, 291, 291, 291, 292, 298, 299, 300, 302, 311, 312, 312, 316, 317, 317, 318, 322]}}, {"type": "Feature", "geometry": {"type": "LineString", "coordinates": [[-97.28357, 29.60496], [-97.28357, 29.60496], [-97.28323, 29.60441], [-97.28304, 29.60421], [-97.28291, 29.60407], [-97.2829, 29.60405], [-97.28261, 29.6038], [-97.28213, 29.60349], [-97.28212, 29.60348], [-97.28195, 29.60339], [-97.28184, 29.60333], [-97.28177, 29.6033], [-97.28144, 29.60318], [-97.28104, 29.60308], [-97.28068, 29.60303], [-97.28056, 29.60302], [-97.28021, 29.603], [-97.28016, 29.60301], [-97.27931, 29.60302], [-97.2791, 29.60302], [-97.27869, 29.60303], [-97.27823, 29.60304], [-97.2762, 29.60306], [-97.27616, 29.60306], [-97.276, 29.60306], [-97.27476, 29.60308], [-97.27424, 29.60309], [-97.27414, 29.60309], [-97.27404, 29.60309], [-97.273, 29.60311], [-97.27299, 29.60311], [-97.27154, 29.60313], [-97.27145, 29.60313], [-97.27114, 29.60313], [-97.2711, 29.60313], [-97.27093, 29.60314], [-97.2703, 29.60316], [-97.27021, 29.60317], [-97.26952, 29.60319], [-97.26947, 29.60319], [-97.26942, 29.60319]]}, "properties": {"surface": "pavement", "label": "Pavement", "color": "#4A5568", "miles": 0.91, "start_mi": 23.45, "end_mi": 24.36, "road": "FM 2814", "elev_ft": [323, 323, 319, 320, 320, 320, 320, 315, 315, 313, 312, 311, 308, 306, 304, 304, 302, 302, 292, 291, 290, 291, 289, 289, 289, 287, 287, 287, 288, 288, 289, 292, 292, 293, 293, 294, 297, 298, 300, 300, 301]}}, {"type": "Feature", "geometry": {"type": "LineString", "coordinates": [[-97.26783, 29.60325], [-97.26783, 29.60325], [-97.26781, 29.60325], [-97.26763, 29.60326], [-97.26742, 29.60327], [-97.26727, 29.60327], [-97.26721, 29.60327], [-97.26618, 29.60327], [-97.26603, 29.60327], [-97.26588, 29.60328], [-97.26515, 29.60328], [-97.26496, 29.60328], [-97.26432, 29.60326], [-97.26426, 29.60326], [-97.26411, 29.60326], [-97.2639, 29.60325], [-97.26385, 29.60325], [-97.26327, 29.60326], [-97.26287, 29.60328], [-97.26266, 29.60329], [-97.26242, 29.6033], [-97.26231, 29.60331], [-97.26142, 29.60334], [-97.26101, 29.60336], [-97.2606, 29.60337], [-97.26024, 29.60339], [-97.25986, 29.6034], [-97.25955, 29.60339], [-97.25914, 29.60338], [-97.25886, 29.60337], [-97.25831, 29.60338], [-97.25789, 29.60338], [-97.25769, 29.60338], [-97.25659, 29.60338], [-97.25624, 29.60339], [-97.25521, 29.60339]]}, "properties": {"surface": "unknown", "label": "Unverified", "color": "#9A9389", "miles": 0.76, "start_mi": 24.36, "end_mi": 25.12, "road": "County Road 397", "elev_ft": [318, 318, 318, 320, 321, 322, 322, 314, 313, 314, 313, 312, 304, 303, 301, 299, 299, 301, 300, 298, 296, 295, 283, 280, 277, 276, 275, 274, 272, 271, 271, 272, 273, 274, 273, 270]}}, {"type": "Feature", "geometry": {"type": "LineString", "coordinates": [[-97.25516, 29.60339], [-97.255, 29.60339], [-97.25478, 29.6034], [-97.25444, 29.60341], [-97.25429, 29.60341], [-97.25419, 29.6034], [-97.25412, 29.60337], [-97.25409, 29.60334], [-97.25406, 29.6033], [-97.25405, 29.60325], [-97.25405, 29.6032], [-97.25403, 29.60271], [-97.25397, 29.60054], [-97.25395, 29.60045], [-97.25391, 29.60039], [-97.25387, 29.60036], [-97.2538, 29.60033], [-97.25331, 29.60033], [-97.24855, 29.60034], [-97.24718, 29.60035], [-97.24669, 29.60035], [-97.2442, 29.60037], [-97.24296, 29.60038], [-97.24265, 29.60038], [-97.2425, 29.60038], [-97.24236, 29.60033], [-97.24232, 29.6003], [-97.24229, 29.60025], [-97.24227, 29.60021], [-97.24224, 29.60009], [-97.24223, 29.59969], [-97.24221, 29.5991], [-97.2422, 29.59893], [-97.242189, 29.59812], [-97.24218, 29.59802], [-97.24215, 29.59676], [-97.24214, 29.59661], [-97.24214, 29.59637], [-97.24213, 29.59612], [-97.24211, 29.59607], [-97.24208, 29.59604], [-97.24203, 29.59601], [-97.24196, 29.59599], [-97.24172, 29.59597], [-97.24129, 29.59597], [-97.24079, 29.59597], [-97.24067, 29.59597], [-97.24051, 29.59597], [-97.24006, 29.59597], [-97.23972, 29.59597], [-97.2393, 29.59597], [-97.23905, 29.59598], [-97.2379, 29.59599], [-97.23765, 29.596], [-97.23734, 29.596], [-97.23692, 29.59601], [-97.236, 29.59603], [-97.23565, 29.59604], [-97.2355, 29.59604], [-97.23521, 29.59604], [-97.23393, 29.59606], [-97.23365, 29.59606], [-97.23352, 29.59606], [-97.233099, 29.59606], [-97.23269, 29.59606], [-97.23165, 29.59607], [-97.23124, 29.59608], [-97.23083, 29.59609], [-97.23063, 29.59609], [-97.22991, 29.59611], [-97.2296, 29.59611], [-97.22941, 29.59611], [-97.22918, 29.5961], [-97.22903, 29.59603], [-97.22899, 29.59598], [-97.22889, 29.59585], [-97.2288, 29.59569], [-97.22866, 29.59548], [-97.22865, 29.59545], [-97.2286, 29.59538], [-97.22856, 29.59531], [-97.22848, 29.59513], [-97.22844, 29.59503], [-97.22837, 29.59483], [-97.22827, 29.59443], [-97.22823, 29.59423], [-97.22819, 29.59402], [-97.22819, 29.59399], [-97.22817, 29.59381], [-97.22817, 29.59358], [-97.22817, 29.59327], [-97.22818, 29.5925], [-97.22818, 29.59214], [-97.22816, 29.59193], [-97.22815, 29.59183], [-97.2281, 29.59137], [-97.2281, 29.59121], [-97.22811, 29.59107], [-97.2282, 29.59058], [-97.22826, 29.59014], [-97.22827, 29.58998], [-97.22828, 29.58973], [-97.22829, 29.58963], [-97.22834, 29.5889], [-97.22835, 29.58873], [-97.22836, 29.58842], [-97.22835, 29.58836], [-97.22836, 29.58819], [-97.22838, 29.58791], [-97.22838, 29.58788], [-97.22838, 29.58784], [-97.228399, 29.58765], [-97.228399, 29.58761], [-97.228399, 29.58759], [-97.228399, 29.58749], [-97.22835, 29.58724], [-97.22833, 29.58718], [-97.22833, 29.58713], [-97.22825, 29.5867], [-97.2282, 29.58646], [-97.22819, 29.58641], [-97.22817, 29.58623], [-97.22817, 29.58613], [-97.22816, 29.58603], [-97.22815, 29.58584], [-97.22815, 29.5857], [-97.228129, 29.58535], [-97.2281, 29.58515], [-97.228039, 29.5848], [-97.22803, 29.58476], [-97.22801, 29.58453], [-97.22801, 29.58444], [-97.22799, 29.58408], [-97.22799, 29.58403], [-97.22798, 29.58372], [-97.22796, 29.58306], [-97.22796, 29.583], [-97.22795, 29.58264], [-97.22793, 29.58187], [-97.22792, 29.58172], [-97.2279, 29.58115], [-97.2279, 29.58102], [-97.2279, 29.58101], [-97.22789, 29.58067], [-97.2279, 29.5803], [-97.22789, 29.58019], [-97.227549, 29.57926], [-97.2275, 29.57837], [-97.22747, 29.57785], [-97.22744, 29.57693], [-97.227369, 29.57514], [-97.22734, 29.57442], [-97.227279, 29.5728], [-97.22727, 29.57244], [-97.22724, 29.57172], [-97.22723, 29.57151], [-97.2272, 29.57144], [-97.2272, 29.57138], [-97.2272, 29.57137], [-97.2272, 29.57128], [-97.227189, 29.57121], [-97.227189, 29.57119], [-97.22718, 29.57114], [-97.22715, 29.57109], [-97.227099, 29.57104], [-97.22704, 29.571], [-97.22697, 29.57098], [-97.22689, 29.57097], [-97.22681, 29.57097], [-97.226699, 29.57097], [-97.22649, 29.57098], [-97.22525, 29.57101], [-97.22484, 29.57102], [-97.22442, 29.57103], [-97.22422, 29.57104], [-97.2236, 29.57105], [-97.22318, 29.57107], [-97.22277, 29.57108], [-97.22159, 29.57111], [-97.22112, 29.57112], [-97.21988, 29.57116], [-97.21917, 29.57117], [-97.21905, 29.57117], [-97.21807, 29.57117], [-97.21801, 29.57117], [-97.21771, 29.57117], [-97.217609, 29.57115], [-97.217519, 29.57114], [-97.217429, 29.57111], [-97.21735, 29.57107], [-97.21731, 29.57105], [-97.21727, 29.57103], [-97.2172, 29.57098], [-97.21713, 29.57093], [-97.21706, 29.57086], [-97.21701, 29.5708], [-97.21696, 29.57073], [-97.21691, 29.57065], [-97.2168, 29.57041], [-97.21666, 29.57016], [-97.216579, 29.57001], [-97.21635, 29.56958], [-97.2163, 29.56951], [-97.21621, 29.56935], [-97.21614, 29.56919], [-97.21609, 29.56903], [-97.21608, 29.56894], [-97.21607, 29.56886], [-97.21606, 29.56846], [-97.21606, 29.568], [-97.21606, 29.56788], [-97.21604, 29.56651], [-97.21601, 29.56471], [-97.21601, 29.5647], [-97.215999, 29.56425], [-97.21599, 29.56381], [-97.21599, 29.56345], [-97.21596, 29.56201], [-97.21595, 29.56156], [-97.21594, 29.56093], [-97.21593, 29.56075], [-97.21593, 29.56057], [-97.21592, 29.56039], [-97.215909, 29.56016], [-97.21592, 29.55949], [-97.21592, 29.55947], [-97.2159, 29.55933], [-97.21588, 29.55928], [-97.21585, 29.55923], [-97.2158, 29.55919], [-97.21575, 29.55917], [-97.2157, 29.55915], [-97.21557, 29.55914], [-97.21556, 29.55914], [-97.21536, 29.55913], [-97.21516, 29.55912], [-97.21474, 29.5591], [-97.21454, 29.5591], [-97.21433, 29.55909], [-97.21392, 29.55907], [-97.21392, 29.55907]]}, "properties": {"surface": "two_track", "label": "Ranch two-track", "color": "#6B5A45", "miles": 5.35, "start_mi": 25.12, "end_mi": 30.46, "road": "County Road 397", "elev_ft": [271, 273, 275, 275, 275, 275, 275, 275, 275, 275, 275, 274, 273, 273, 273, 273, 273, 273, 275, 276, 276, 275, 276, 277, 278, 279, 279, 279, 279, 279, 280, 280, 280, 285, 286, 294, 296, 298, 298, 298, 298, 299, 299, 301, 308, 309, 309, 309, 309, 308, 307, 307, 313, 316, 318, 321, 327, 329, 330, 332, 342, 343, 343, 340, 338, 329, 323, 319, 316, 308, 308, 308, 306, 306, 306, 305, 306, 307, 307, 307, 308, 311, 311, 312, 314, 316, 318, 319, 320, 320, 320, 329, 330, 330, 332, 338, 338, 339, 339, 339, 339, 338, 338, 324, 322, 314, 313, 312, 313, 312, 312, 310, 310, 310, 310, 311, 312, 312, 313, 314, 315, 315, 316, 315, 316, 316, 316, 316, 317, 317, 318, 319, 320, 320, 320, 324, 324, 325, 327, 327, 329, 329, 329, 329, 331, 332, 339, 340, 339, 342, 353, 355, 355, 353, 345, 341, 340, 340, 339, 338, 338, 337, 337, 336, 335, 334, 334, 334, 333, 333, 333, 332, 332, 334, 335, 341, 344, 346, 353, 356, 361, 364, 364, 363, 363, 362, 362, 362, 362, 362, 362, 363, 363, 362, 363, 364, 365, 368, 371, 372, 373, 377, 378, 381, 381, 381, 382, 383, 384, 390, 390, 400, 405, 405, 404, 403, 410, 428, 437, 448, 449, 452, 454, 456, 459, 460, 462, 463, 464, 464, 464, 465, 465, 465, 467, 469, 476, 480, 483, 486, 486]}}, {"type": "Feature", "geometry": {"type": "LineString", "coordinates": [[-97.21415, 29.55902], [-97.21431, 29.55897], [-97.214429, 29.55894], [-97.21465, 29.55885], [-97.21469, 29.55883], [-97.21487, 29.55876], [-97.21501, 29.55869], [-97.21519, 29.55859], [-97.21523, 29.55856], [-97.21534, 29.55848], [-97.21539, 29.55845], [-97.21548, 29.55839], [-97.2157, 29.55822], [-97.21651, 29.55757], [-97.21662, 29.55749], [-97.21756, 29.55674], [-97.21772, 29.5566], [-97.21802, 29.5564], [-97.21832, 29.55623]]}, "properties": {"surface": "pavement", "label": "Pavement", "color": "#4A5568", "miles": 0.32, "start_mi": 30.46, "end_mi": 30.78, "road": "FM 532", "elev_ft": [486, 485, 482, 478, 478, 476, 475, 472, 472, 471, 470, 469, 466, 454, 453, 443, 442, 441, 433]}}, {"type": "Feature", "geometry": {"type": "LineString", "coordinates": [[-97.21874, 29.55605], [-97.21912, 29.55593], [-97.21912, 29.55593], [-97.21912, 29.55575], [-97.21912, 29.55545], [-97.21912, 29.55536], [-97.2191, 29.55485], [-97.21911, 29.55478], [-97.21911, 29.55473], [-97.2191, 29.55468], [-97.2191, 29.55464], [-97.2191, 29.55447], [-97.21912, 29.55443], [-97.21911, 29.55431], [-97.21911, 29.55429], [-97.2191, 29.55411], [-97.2191, 29.55393], [-97.2191, 29.55377], [-97.21911, 29.55353], [-97.2191, 29.55321], [-97.2191, 29.55303], [-97.21909, 29.55267], [-97.21909, 29.55245], [-97.2191, 29.55231], [-97.21911, 29.55194], [-97.21915, 29.55105], [-97.21918, 29.55049], [-97.21921, 29.55016], [-97.21924, 29.54998], [-97.21925, 29.54997], [-97.2193, 29.54981], [-97.21948, 29.54939], [-97.21952, 29.54929], [-97.21964, 29.54895], [-97.21964, 29.54893], [-97.21975, 29.54844], [-97.21975, 29.54838], [-97.21977, 29.54824], [-97.219759, 29.54818], [-97.21979, 29.54808], [-97.21982, 29.54797], [-97.21986, 29.54791], [-97.21996, 29.54776], [-97.21997, 29.54774], [-97.22002, 29.5477], [-97.22009, 29.54763], [-97.22016, 29.54753], [-97.22032, 29.54738], [-97.2204, 29.54733], [-97.22097, 29.54687], [-97.22127, 29.54664], [-97.22148, 29.54647], [-97.22159, 29.54638], [-97.22191, 29.54615], [-97.22201, 29.5461], [-97.22207, 29.54604], [-97.22211, 29.54601], [-97.22253, 29.54571], [-97.22278, 29.5455], [-97.22298, 29.54533], [-97.22328, 29.54508], [-97.22356, 29.54485], [-97.22357, 29.54484], [-97.22404, 29.54448], [-97.22434, 29.54428], [-97.22486, 29.54392], [-97.225219, 29.54368], [-97.22529, 29.54362], [-97.22548, 29.54346], [-97.22555, 29.54341], [-97.22563, 29.54334], [-97.22583, 29.54317], [-97.22592, 29.54308], [-97.22593, 29.54308], [-97.22608, 29.54256], [-97.22608, 29.54253], [-97.22613, 29.54239], [-97.22615, 29.54232], [-97.22617, 29.54221], [-97.2262, 29.54196], [-97.2262, 29.54185], [-97.22618, 29.54131], [-97.22617, 29.54113], [-97.22617, 29.54097], [-97.22618, 29.54041], [-97.22619, 29.54001], [-97.2262, 29.53985], [-97.22621, 29.53934], [-97.22622, 29.53861], [-97.22621, 29.53826], [-97.2262, 29.5379]]}, "properties": {"surface": "unknown", "label": "Unverified", "color": "#9A9389", "miles": 1.44, "start_mi": 30.78, "end_mi": 32.22, "road": "County Road 381", "elev_ft": [433, 436, 436, 438, 439, 439, 434, 433, 432, 431, 431, 428, 428, 427, 427, 427, 430, 432, 434, 437, 438, 439, 438, 437, 429, 417, 409, 402, 399, 399, 397, 391, 389, 383, 383, 384, 384, 382, 382, 382, 382, 382, 381, 382, 381, 381, 382, 381, 381, 382, 384, 385, 385, 387, 388, 389, 389, 391, 392, 392, 389, 381, 381, 371, 367, 361, 359, 358, 357, 356, 355, 358, 360, 360, 364, 365, 367, 368, 369, 370, 370, 373, 372, 372, 379, 381, 386, 399, 410, 416, 418]}}, {"type": "Feature", "geometry": {"type": "LineString", "coordinates": [[-97.22619, 29.53736], [-97.22619, 29.53736], [-97.22636, 29.53737], [-97.22661, 29.53737], [-97.22764, 29.53735], [-97.22777, 29.53734], [-97.22785, 29.53733], [-97.22805, 29.53731], [-97.22826, 29.53728], [-97.22846, 29.53725], [-97.22869, 29.53722], [-97.229, 29.53714], [-97.22904, 29.53713], [-97.22906, 29.53712], [-97.22937, 29.53702], [-97.22966, 29.53687], [-97.22968, 29.53685], [-97.22974, 29.53633], [-97.22971, 29.53584], [-97.2297, 29.53569], [-97.22969, 29.53548], [-97.2297, 29.53537], [-97.2297, 29.5353], [-97.22968, 29.53515], [-97.22968, 29.53513], [-97.22966, 29.53498], [-97.22966, 29.53482], [-97.22962, 29.53463], [-97.22962, 29.53459], [-97.22962, 29.53423], [-97.22962, 29.53406], [-97.22961, 29.53387], [-97.22959, 29.53331], [-97.22959, 29.53327], [-97.22958, 29.53322], [-97.22958, 29.53315], [-97.22955, 29.53279], [-97.22954, 29.53264], [-97.22954, 29.53261], [-97.2295, 29.53226], [-97.22948, 29.53209], [-97.22949, 29.5319], [-97.2295, 29.53175], [-97.2295, 29.53172], [-97.22947, 29.53136], [-97.22946, 29.53131], [-97.22943, 29.53118], [-97.22933, 29.53083], [-97.22929, 29.53068], [-97.22926, 29.53047], [-97.22932, 29.53016], [-97.22933, 29.53012], [-97.22941, 29.52989], [-97.22945, 29.52978], [-97.2295, 29.52966], [-97.22957, 29.52958], [-97.2296, 29.52947], [-97.22966, 29.52933], [-97.22976, 29.52923], [-97.22982, 29.52915], [-97.22994, 29.529], [-97.23002, 29.52891], [-97.23006, 29.52886], [-97.23032, 29.52856], [-97.23052, 29.52826], [-97.23065, 29.52807], [-97.23072, 29.52798], [-97.23078, 29.52793], [-97.23087, 29.52788], [-97.23097, 29.52783], [-97.23109, 29.52778], [-97.23125, 29.52777], [-97.23131, 29.52777], [-97.23158, 29.52777], [-97.23172, 29.52777], [-97.23217, 29.52777], [-97.23264, 29.52775], [-97.23353, 29.52773], [-97.23358, 29.52773], [-97.23378, 29.52772], [-97.23434, 29.5277], [-97.23482, 29.52771], [-97.23508, 29.52771], [-97.23523, 29.52771], [-97.23544, 29.52771], [-97.23548, 29.52771], [-97.23585, 29.52768], [-97.23606, 29.52767], [-97.23615, 29.52764], [-97.23625, 29.52762], [-97.23631, 29.52761], [-97.23641, 29.52755], [-97.2365, 29.52746], [-97.23656, 29.5273], [-97.23659, 29.52721], [-97.23663, 29.5271], [-97.23673, 29.52678], [-97.23686, 29.52647], [-97.23688, 29.52641], [-97.23691, 29.52634], [-97.237, 29.52615], [-97.23717, 29.52573], [-97.23721, 29.52562], [-97.23724, 29.52556], [-97.23726, 29.5255], [-97.2374, 29.52508], [-97.23746, 29.5249], [-97.23749, 29.52482], [-97.23752, 29.5247], [-97.23757, 29.52446], [-97.23764, 29.52417], [-97.23771, 29.52393], [-97.23771, 29.52392], [-97.23778, 29.52346], [-97.23783, 29.52334], [-97.2379, 29.52308], [-97.23796, 29.52286], [-97.23801, 29.52269], [-97.2382, 29.52201], [-97.23828, 29.52176], [-97.23833, 29.52164], [-97.23841, 29.52148], [-97.23844, 29.52142], [-97.2385, 29.52132], [-97.23861, 29.52116], [-97.23863, 29.52113], [-97.23871, 29.52104], [-97.23873, 29.52102], [-97.23878, 29.52097], [-97.23886, 29.5209], [-97.23887, 29.52089], [-97.23894, 29.52083], [-97.23903, 29.52078], [-97.23903, 29.52077], [-97.2392, 29.52068], [-97.23928, 29.52065], [-97.23936, 29.52061], [-97.23939, 29.5206], [-97.23957, 29.52051], [-97.23982, 29.5204], [-97.23994, 29.52035], [-97.23996, 29.52033], [-97.24024, 29.52021], [-97.24031, 29.52018], [-97.24038, 29.52015], [-97.24155, 29.5196], [-97.24176, 29.5195], [-97.24189, 29.51945], [-97.24211, 29.51937], [-97.24214, 29.51936], [-97.2424, 29.51928], [-97.2428, 29.51918], [-97.24294, 29.51914], [-97.24312, 29.51907], [-97.24313, 29.51907], [-97.24329, 29.51899], [-97.2433, 29.51898], [-97.24345, 29.51889], [-97.24349, 29.51886], [-97.24354, 29.51882], [-97.24366, 29.51872], [-97.2438, 29.51858], [-97.24393, 29.51841], [-97.24398, 29.51832], [-97.24404, 29.51823], [-97.24409, 29.51814], [-97.24413, 29.51805], [-97.24415, 29.51799], [-97.24422, 29.51782], [-97.24424, 29.51777], [-97.24428, 29.51765], [-97.24435, 29.51743], [-97.24452, 29.51696], [-97.24465, 29.51662], [-97.24471, 29.51645], [-97.24475, 29.51635], [-97.24504, 29.5156], [-97.24509, 29.51548], [-97.24511, 29.51543], [-97.24522, 29.51512], [-97.24523, 29.51508], [-97.2453, 29.51491], [-97.24534, 29.51481], [-97.24537, 29.51474], [-97.24542, 29.51463], [-97.2455, 29.51447], [-97.24553, 29.51441], [-97.24555, 29.51439], [-97.24562, 29.51425], [-97.24569, 29.51414], [-97.24577, 29.51402], [-97.24582, 29.51397], [-97.24583, 29.51395], [-97.24595, 29.51378], [-97.24601, 29.51372], [-97.24606, 29.51365], [-97.2462, 29.51347], [-97.24644, 29.51322], [-97.24649, 29.51317], [-97.2467, 29.51296], [-97.24671, 29.51295], [-97.24684, 29.51281], [-97.24723, 29.51239], [-97.24732, 29.51229], [-97.24744, 29.51213], [-97.24758, 29.51201], [-97.24781, 29.51174], [-97.24828, 29.51125], [-97.24881, 29.51069], [-97.24894, 29.51055], [-97.24907, 29.51042], [-97.24907, 29.51041], [-97.2492, 29.51028], [-97.2493, 29.51017], [-97.24933, 29.51013], [-97.24939, 29.51006], [-97.24947, 29.50996], [-97.24955, 29.50983], [-97.24961, 29.50974], [-97.24975, 29.50951], [-97.24989, 29.50927], [-97.24994, 29.5092], [-97.25032, 29.50856], [-97.25042, 29.5084], [-97.25052, 29.50824], [-97.25057, 29.50815], [-97.25086, 29.50768], [-97.2509, 29.50763], [-97.25101, 29.50747], [-97.25123, 29.50718], [-97.25124, 29.50718], [-97.25126, 29.50716], [-97.25136, 29.50705], [-97.25137, 29.50704], [-97.25154, 29.50689], [-97.25158, 29.50685], [-97.2517, 29.50673], [-97.25178, 29.50669], [-97.25187, 29.50664], [-97.2519, 29.50664], [-97.25209, 29.50657], [-97.25226, 29.50652], [-97.25267, 29.50639], [-97.25273, 29.50637], [-97.25286, 29.50632], [-97.25302, 29.50626], [-97.25305, 29.50625], [-97.25324, 29.50618], [-97.25381, 29.50596], [-97.25392, 29.50592], [-97.2543, 29.50577], [-97.25449, 29.5057], [-97.2545, 29.50569], [-97.25468, 29.50563], [-97.25486, 29.50556], [-97.25503, 29.50549], [-97.25505, 29.50548], [-97.25524, 29.50541], [-97.25543, 29.50533], [-97.25562, 29.50526], [-97.25592, 29.50514], [-97.25599, 29.50511], [-97.25683, 29.50479], [-97.25713, 29.50466], [-97.2573, 29.50456], [-97.25732, 29.50455], [-97.25744, 29.50444], [-97.25745, 29.50443], [-97.25756, 29.50427], [-97.25769, 29.50407], [-97.25781, 29.50387], [-97.25795, 29.50365], [-97.25805, 29.5035], [-97.25822, 29.50323], [-97.25841, 29.50297], [-97.25861, 29.50275], [-97.25874, 29.50261], [-97.25886, 29.50248], [-97.25902, 29.50234], [-97.25902, 29.50234], [-97.25944, 29.50276], [-97.25967, 29.503], [-97.25969, 29.50302], [-97.2599, 29.50324], [-97.25995, 29.5033], [-97.26004, 29.50339], [-97.26008, 29.50344], [-97.26021, 29.50358], [-97.26027, 29.50364], [-97.26035, 29.50371], [-97.26046, 29.50383], [-97.26075, 29.50416], [-97.26086, 29.50428], [-97.26089, 29.5043], [-97.26099, 29.50441], [-97.26101, 29.50444], [-97.26109, 29.50449], [-97.26115, 29.50453], [-97.26116, 29.50453], [-97.26124, 29.50457], [-97.26134, 29.5046], [-97.26139, 29.50462], [-97.26159, 29.50466], [-97.26174, 29.50468], [-97.26182, 29.50469], [-97.26195, 29.50471], [-97.26213, 29.50474], [-97.26241, 29.50478], [-97.26275, 29.50484], [-97.26305, 29.50488], [-97.26317, 29.5049], [-97.26318, 29.5049], [-97.26378, 29.50498], [-97.26387, 29.50498], [-97.26397, 29.50497], [-97.264, 29.50496], [-97.26406, 29.50494], [-97.26418, 29.50492], [-97.26433, 29.50484], [-97.26448, 29.50473], [-97.2649, 29.50443], [-97.2649, 29.50442], [-97.2652, 29.50419], [-97.26521, 29.50419], [-97.26526, 29.50416], [-97.2653, 29.50414], [-97.26533, 29.50413], [-97.2654, 29.5041], [-97.26547, 29.50409], [-97.26554, 29.50409], [-97.2656, 29.50409], [-97.26561, 29.50409], [-97.26577, 29.50412], [-97.26617, 29.50423], [-97.2662, 29.50423], [-97.26653, 29.50432], [-97.26713, 29.50449], [-97.26718, 29.50451], [-97.26777, 29.50467], [-97.26817, 29.50477], [-97.26837, 29.50483], [-97.26929, 29.50507], [-97.26955, 29.50514], [-97.26991, 29.50523], [-97.26995, 29.50524], [-97.2701, 29.50529], [-97.27057, 29.5054], [-97.27101, 29.50553], [-97.27126, 29.50561], [-97.27132, 29.50563], [-97.27176, 29.50576], [-97.27178, 29.50577], [-97.27189, 29.5058], [-97.27199, 29.50581], [-97.27204, 29.50582], [-97.27217, 29.50583], [-97.2726, 29.50581], [-97.27289, 29.50579], [-97.27322, 29.50576], [-97.27425, 29.50568], [-97.2743, 29.50568], [-97.27446, 29.50567], [-97.27561, 29.50561], [-97.27576, 29.5056], [-97.27597, 29.50559], [-97.27618, 29.50558], [-97.2765, 29.50556], [-97.27659, 29.50556], [-97.277, 29.50554], [-97.27742, 29.50552], [-97.27762, 29.50551], [-97.27776, 29.50551], [-97.27792, 29.5055], [-97.27805, 29.5055], [-97.27815, 29.50551], [-97.27826, 29.50553], [-97.27844, 29.50557], [-97.27863, 29.50565], [-97.27881, 29.50573], [-97.27883, 29.50574], [-97.27899, 29.50581], [-97.27918, 29.50589], [-97.27951, 29.50604], [-97.27955, 29.50605], [-97.27974, 29.50613], [-97.27993, 29.5062], [-97.2808, 29.50652], [-97.28096, 29.50659], [-97.28105, 29.50663], [-97.28143, 29.5068], [-97.28191, 29.50705], [-97.28204, 29.50712], [-97.28215, 29.50717], [-97.28222, 29.50721], [-97.28283, 29.50754], [-97.2831, 29.50768], [-97.28335, 29.50781], [-97.28363, 29.50796], [-97.28376, 29.50803], [-97.28397, 29.50813], [-97.28417, 29.5082], [-97.28418, 29.5082], [-97.28424, 29.50821], [-97.28432, 29.50822], [-97.28447, 29.5082], [-97.28456, 29.50819], [-97.28472, 29.50815], [-97.28511, 29.50804], [-97.28517, 29.50802], [-97.28539, 29.50795], [-97.28546, 29.50793], [-97.28563, 29.50788], [-97.28604, 29.50776], [-97.28633, 29.50768], [-97.28652, 29.50764], [-97.28671, 29.50762], [-97.28677, 29.50762], [-97.28682, 29.50761], [-97.28721, 29.50761], [-97.288, 29.50761], [-97.28841, 29.50761], [-97.28868, 29.50762], [-97.28939, 29.50762], [-97.28965, 29.50762], [-97.29027, 29.50762], [-97.29028, 29.50762], [-97.29036, 29.50762], [-97.29043, 29.50763], [-97.29049, 29.50765], [-97.29055, 29.50768], [-97.29059, 29.50771], [-97.29063, 29.50776], [-97.29066, 29.50782], [-97.29068, 29.50788], [-97.29068, 29.50793], [-97.29069, 29.50795], [-97.29069, 29.50808], [-97.29069, 29.50811], [-97.2907, 29.50845], [-97.2907, 29.50864], [-97.29071, 29.50869], [-97.29073, 29.50873], [-97.29076, 29.50876], [-97.29081, 29.50879], [-97.29081, 29.50879], [-97.29089, 29.50878], [-97.29096, 29.50877], [-97.29122, 29.50876], [-97.29191, 29.50875], [-97.29226, 29.50875], [-97.29232, 29.50875], [-97.29253, 29.50875], [-97.29333, 29.50875], [-97.29345, 29.50875], [-97.29377, 29.50875], [-97.29397, 29.50875], [-97.29432, 29.50875], [-97.29542, 29.50875], [-97.29693, 29.50875], [-97.29895, 29.50876], [-97.29932, 29.50876], [-97.30017, 29.50876], [-97.30059, 29.50876], [-97.30187, 29.50877], [-97.30197, 29.50876], [-97.30203, 29.50876], [-97.30227, 29.50876], [-97.30302, 29.50877], [-97.30311, 29.50877], [-97.30345, 29.50878], [-97.30369, 29.50878], [-97.30373, 29.50878], [-97.30393, 29.50878], [-97.30414, 29.50878], [-97.30476, 29.50876], [-97.30489, 29.50875], [-97.30493, 29.50875], [-97.30597, 29.50869], [-97.30682, 29.50865], [-97.30703, 29.50864], [-97.30711, 29.50864], [-97.3072, 29.50863], [-97.30889, 29.50857], [-97.30903, 29.50857], [-97.30978, 29.50854], [-97.31009, 29.50852], [-97.31041, 29.50851], [-97.31062, 29.5085], [-97.31071, 29.5085], [-97.31108, 29.50848], [-97.31144, 29.50847], [-97.31178, 29.50844], [-97.31195, 29.50843], [-97.31206, 29.50841], [-97.31218, 29.50839], [-97.31246, 29.50831], [-97.3128, 29.50822], [-97.31285, 29.5082], [-97.31324, 29.5081], [-97.31346, 29.50809], [-97.31367, 29.50816], [-97.31385, 29.50821], [-97.31392, 29.50822], [-97.31405, 29.50825], [-97.31425, 29.50827], [-97.31446, 29.5083], [-97.31466, 29.50832], [-97.31506, 29.50841], [-97.31511, 29.50842], [-97.31539, 29.50847], [-97.31567, 29.50852], [-97.3158, 29.50854], [-97.31587, 29.50856], [-97.31621, 29.50865], [-97.31646, 29.50873], [-97.31651, 29.50875], [-97.31688, 29.50889], [-97.31704, 29.5089], [-97.31725, 29.50892], [-97.31731, 29.50893], [-97.31807, 29.50885], [-97.31827, 29.50882], [-97.31859, 29.50879], [-97.31868, 29.50878], [-97.31886, 29.50876], [-97.31889, 29.50876], [-97.31941, 29.50872], [-97.31993, 29.5087], [-97.32095, 29.50865], [-97.32176, 29.5086], [-97.32177, 29.5086], [-97.32219, 29.50858], [-97.32286, 29.50855], [-97.32322, 29.50853], [-97.32342, 29.50852], [-97.32438, 29.50847], [-97.32576, 29.5084], [-97.32625, 29.50838], [-97.32699, 29.50834], [-97.32721, 29.50833], [-97.32745, 29.50832], [-97.32755, 29.50831], [-97.32793, 29.5083], [-97.32855, 29.50827], [-97.32875, 29.50826], [-97.32881, 29.50826], [-97.32885, 29.50826], [-97.32896, 29.50825], [-97.3295, 29.50822], [-97.33094, 29.50816], [-97.33164, 29.50813], [-97.33247, 29.5081], [-97.33259, 29.50809], [-97.33268, 29.50809], [-97.3335, 29.50808], [-97.33371, 29.50807], [-97.33418, 29.50807], [-97.33495, 29.50807], [-97.33556, 29.50807], [-97.33578, 29.50807], [-97.3366, 29.50806], [-97.33691, 29.50806], [-97.33722, 29.50806], [-97.33778, 29.50807], [-97.33805, 29.50807], [-97.33825, 29.50808], [-97.33846, 29.50808], [-97.3385, 29.50808], [-97.33867, 29.50808], [-97.33887, 29.50807], [-97.33929, 29.50806], [-97.33941, 29.50805], [-97.33964, 29.50802], [-97.34004, 29.50797], [-97.34025, 29.50793], [-97.34046, 29.5079], [-97.34066, 29.50785], [-97.34086, 29.50781], [-97.34106, 29.50777], [-97.34108, 29.50776], [-97.34169, 29.50761], [-97.34229, 29.50743], [-97.34244, 29.50738], [-97.34302, 29.5072], [-97.34321, 29.50714], [-97.34341, 29.50707], [-97.3438, 29.50695], [-97.34427, 29.5068], [-97.3445, 29.50675], [-97.34458, 29.50673], [-97.34496, 29.50666], [-97.34521, 29.50662], [-97.34534, 29.50659], [-97.34539, 29.50658], [-97.34551, 29.50657], [-97.34553, 29.50657], [-97.34571, 29.50653], [-97.34581, 29.50651], [-97.34621, 29.50648], [-97.34628, 29.50647], [-97.34674, 29.50642], [-97.34719, 29.50642], [-97.34744, 29.50641], [-97.34749, 29.50642], [-97.34756, 29.50643], [-97.34765, 29.50644], [-97.34779, 29.50645], [-97.34806, 29.50648], [-97.34838, 29.50651], [-97.34841, 29.50652], [-97.34867, 29.50655], [-97.34879, 29.50657], [-97.34888, 29.50658], [-97.34949, 29.50666], [-97.34961, 29.50667], [-97.34969, 29.50668], [-97.34978, 29.5067], [-97.34981, 29.5067], [-97.3499, 29.50671], [-97.35049, 29.50677], [-97.35084, 29.5068], [-97.35092, 29.50681], [-97.35098, 29.50682], [-97.35104, 29.50683], [-97.35109, 29.50683], [-97.35125, 29.50685], [-97.35145, 29.50687], [-97.35154, 29.50687], [-97.35166, 29.50689], [-97.35186, 29.50691], [-97.35188, 29.50691], [-97.35195, 29.50692], [-97.35207, 29.50694], [-97.3521, 29.50695], [-97.35215, 29.50696], [-97.35241, 29.50701], [-97.35272, 29.50709], [-97.35283, 29.50711], [-97.35326, 29.50723], [-97.35333, 29.50724], [-97.35346, 29.50727], [-97.35365, 29.50732], [-97.35369, 29.50735], [-97.35374, 29.50736], [-97.35379, 29.50737], [-97.35425, 29.50748], [-97.35431, 29.5075], [-97.35451, 29.50756], [-97.35457, 29.50758], [-97.35457, 29.50758]]}, "properties": {"surface": "two_track", "label": "Ranch two-track", "color": "#6B5A45", "miles": 9.57, "start_mi": 32.22, "end_mi": 41.79, "road": "County Road 381", "elev_ft": [415, 415, 412, 409, 390, 389, 389, 387, 384, 381, 380, 378, 378, 378, 376, 374, 373, 371, 368, 365, 362, 361, 361, 364, 365, 369, 372, 374, 374, 375, 374, 373, 367, 367, 367, 366, 364, 363, 362, 363, 365, 367, 367, 367, 369, 370, 371, 373, 375, 377, 378, 378, 377, 377, 377, 376, 375, 373, 372, 374, 377, 378, 379, 383, 386, 388, 389, 390, 391, 392, 394, 395, 395, 397, 397, 398, 395, 395, 395, 396, 397, 395, 394, 393, 396, 397, 402, 404, 405, 406, 406, 407, 408, 409, 409, 410, 414, 418, 418, 420, 422, 425, 425, 425, 425, 426, 426, 426, 426, 427, 429, 431, 431, 434, 434, 436, 436, 436, 436, 435, 435, 434, 434, 433, 434, 435, 436, 436, 437, 438, 438, 439, 440, 440, 443, 444, 446, 447, 448, 449, 450, 450, 456, 456, 457, 455, 455, 454, 454, 454, 453, 450, 450, 449, 449, 448, 448, 447, 447, 446, 446, 445, 444, 443, 442, 441, 440, 439, 439, 438, 438, 435, 429, 425, 423, 422, 419, 418, 418, 416, 416, 414, 413, 411, 409, 408, 407, 407, 403, 400, 398, 398, 399, 404, 406, 408, 411, 419, 419, 426, 426, 429, 435, 435, 435, 435, 434, 433, 426, 424, 421, 421, 419, 418, 417, 414, 410, 408, 407, 401, 399, 397, 386, 382, 380, 378, 369, 368, 366, 360, 360, 360, 356, 356, 349, 349, 353, 355, 356, 356, 359, 362, 370, 371, 372, 373, 373, 375, 383, 384, 387, 387, 387, 388, 390, 393, 393, 394, 395, 394, 390, 389, 377, 372, 369, 369, 367, 367, 366, 364, 363, 362, 361, 358, 355, 353, 352, 351, 349, 349, 340, 335, 335, 332, 331, 328, 328, 331, 331, 332, 334, 336, 337, 337, 338, 338, 338, 339, 339, 339, 340, 340, 342, 346, 347, 349, 350, 355, 357, 357, 357, 357, 355, 355, 355, 355, 355, 355, 355, 355, 355, 355, 355, 355, 354, 354, 354, 354, 354, 353, 353, 353, 352, 350, 350, 347, 340, 340, 335, 333, 332, 328, 326, 324, 324, 323, 315, 308, 307, 306, 306, 306, 306, 307, 308, 309, 312, 316, 320, 333, 333, 336, 350, 352, 354, 354, 353, 352, 349, 344, 341, 340, 338, 337, 337, 336, 333, 331, 329, 328, 326, 323, 321, 321, 320, 319, 319, 319, 319, 316, 311, 310, 309, 308, 301, 298, 295, 292, 291, 289, 286, 286, 286, 285, 284, 284, 284, 288, 289, 290, 290, 291, 290, 289, 289, 289, 288, 288, 287, 286, 284, 282, 280, 279, 279, 279, 279, 278, 278, 278, 278, 278, 278, 278, 278, 278, 278, 278, 280, 280, 280, 280, 280, 280, 280, 280, 280, 280, 278, 277, 276, 276, 275, 274, 274, 274, 274, 273, 272, 271, 270, 268, 267, 263, 263, 263, 262, 260, 260, 260, 260, 260, 260, 259, 259, 259, 259, 260, 260, 259, 259, 259, 254, 254, 253, 253, 252, 252, 252, 252, 253, 253, 253, 253, 253, 252, 251, 251, 251, 250, 250, 250, 250, 250, 250, 250, 251, 248, 248, 246, 244, 244, 244, 243, 242, 242, 242, 241, 240, 240, 244, 245, 246, 247, 248, 248, 251, 255, 261, 264, 264, 266, 266, 266, 266, 266, 264, 265, 266, 265, 265, 265, 262, 260, 260, 260, 260, 260, 261, 263, 264, 264, 264, 264, 266, 266, 268, 271, 275, 276, 279, 280, 282, 288, 290, 291, 292, 292, 292, 291, 286, 284, 280, 273, 270, 269, 269, 268, 268, 268, 265, 262, 262, 260, 259, 260, 260, 261, 258, 257, 261, 262, 263, 263, 264, 264, 265, 265, 266, 267, 268, 269, 271, 271, 271, 272, 274, 277, 281, 281, 284, 287, 289, 295, 297, 298, 299, 300, 300, 302, 302, 302, 302, 302, 302, 302, 302, 302, 303, 303, 303, 303, 303, 303, 304, 304, 305, 305, 306, 306, 306, 307, 307, 307, 307, 307, 308, 308, 308, 308]}}, {"type": "Feature", "geometry": {"type": "LineString", "coordinates": [[-97.35477, 29.50804], [-97.35482, 29.50814], [-97.35489, 29.50831], [-97.35518, 29.50898], [-97.35526, 29.50915], [-97.35526, 29.50915], [-97.35539, 29.50912], [-97.35543, 29.5091], [-97.35548, 29.50909], [-97.35674, 29.50868], [-97.35681, 29.50866], [-97.35685, 29.50864], [-97.35693, 29.50862], [-97.35739, 29.50846], [-97.35751, 29.50842], [-97.35755, 29.5084], [-97.35758, 29.5084], [-97.35806, 29.50822], [-97.35825, 29.50816], [-97.35826, 29.50816], [-97.3584, 29.50811], [-97.35847, 29.50808], [-97.35859, 29.50804], [-97.35866, 29.50802], [-97.35876, 29.50799], [-97.35879, 29.50798], [-97.35917, 29.50784], [-97.35936, 29.50778], [-97.35956, 29.50772], [-97.35963, 29.50769], [-97.35972, 29.50766], [-97.35975, 29.50765], [-97.35995, 29.50758], [-97.36059, 29.50738], [-97.36079, 29.50733], [-97.36089, 29.5073], [-97.36092, 29.50729], [-97.36099, 29.50727], [-97.36151, 29.50712], [-97.36206, 29.50696], [-97.36209, 29.50695], [-97.36216, 29.50693], [-97.36247, 29.50684], [-97.36268, 29.50677], [-97.36275, 29.50675], [-97.36284, 29.50672], [-97.36287, 29.50671], [-97.36294, 29.50668], [-97.36295, 29.50668], [-97.36303, 29.50665], [-97.36306, 29.50664], [-97.36356, 29.50645], [-97.36379, 29.50636], [-97.36382, 29.50635], [-97.36384, 29.50635], [-97.36389, 29.50633], [-97.36408, 29.50625], [-97.36417, 29.50621], [-97.3642, 29.5062], [-97.36434, 29.50614], [-97.36438, 29.50613], [-97.3645, 29.50609], [-97.36455, 29.50607], [-97.36458, 29.50607], [-97.36465, 29.50606], [-97.36466, 29.50605], [-97.36474, 29.50605], [-97.36475, 29.50605], [-97.36478, 29.50605], [-97.36482, 29.50606], [-97.36486, 29.50606], [-97.36491, 29.50607], [-97.3651, 29.50611], [-97.36553, 29.50623], [-97.36755, 29.50678], [-97.36766, 29.50681], [-97.36784, 29.50685], [-97.36801, 29.50689], [-97.36825, 29.50691], [-97.36838, 29.50691], [-97.36841, 29.50691], [-97.36857, 29.5069], [-97.36874, 29.50688], [-97.36876, 29.50687], [-97.36894, 29.50685], [-97.36898, 29.50684], [-97.36905, 29.50683], [-97.36915, 29.50681], [-97.36925, 29.5068], [-97.36932, 29.50678], [-97.36935, 29.50678], [-97.36964, 29.50671], [-97.36997, 29.50663], [-97.37034, 29.50652], [-97.37041, 29.5065], [-97.37044, 29.50649], [-97.37053, 29.50646], [-97.37063, 29.50643], [-97.37098, 29.50632], [-97.37102, 29.50631], [-97.37112, 29.50627], [-97.37155, 29.50612], [-97.37167, 29.50608], [-97.37179, 29.50604], [-97.37239, 29.50583], [-97.37275, 29.50571], [-97.37294, 29.50565], [-97.37314, 29.50558], [-97.37358, 29.50544], [-97.3741, 29.50526], [-97.37414, 29.50524], [-97.37432, 29.5052], [-97.3745, 29.50517], [-97.37469, 29.50517], [-97.37479, 29.50518], [-97.37488, 29.5052], [-97.37508, 29.50524], [-97.37528, 29.50527], [-97.3754, 29.5053], [-97.37593, 29.50537], [-97.3763, 29.50544], [-97.3765, 29.50547], [-97.37853, 29.50582], [-97.37871, 29.50585], [-97.37958, 29.50598], [-97.37995, 29.50604], [-97.38016, 29.50607], [-97.38037, 29.50611], [-97.38058, 29.50613], [-97.38078, 29.50614], [-97.38087, 29.50614], [-97.38096, 29.50612], [-97.38117, 29.50607], [-97.38128, 29.50604], [-97.38183, 29.50586], [-97.3828, 29.50555], [-97.38307, 29.50548], [-97.38334, 29.50542], [-97.38352, 29.50539], [-97.38361, 29.50538], [-97.38391, 29.50537], [-97.38394, 29.50537], [-97.38406, 29.50537], [-97.38443, 29.50538], [-97.38453, 29.50539], [-97.38474, 29.5054], [-97.38521, 29.50542], [-97.38588, 29.50545], [-97.3864, 29.50544], [-97.38755, 29.5054], [-97.38784, 29.50537], [-97.38784, 29.50537], [-97.38786, 29.50547], [-97.38789, 29.50557], [-97.38805, 29.50604], [-97.38811, 29.50621], [-97.38817, 29.50639], [-97.38843, 29.50707], [-97.38848, 29.50719], [-97.3885, 29.50724], [-97.38864, 29.50757], [-97.3891, 29.50866], [-97.38943, 29.50943], [-97.38961, 29.50984], [-97.39008, 29.51089], [-97.39011, 29.51096], [-97.39026, 29.51132], [-97.39047, 29.5118], [-97.39056, 29.51199], [-97.39062, 29.51214], [-97.39069, 29.5123], [-97.39075, 29.51244], [-97.39085, 29.51267], [-97.39104, 29.51312], [-97.39117, 29.51342], [-97.39119, 29.51348], [-97.39122, 29.51358], [-97.39124, 29.51369], [-97.39126, 29.51382], [-97.39128, 29.51459], [-97.39129, 29.51474], [-97.39134, 29.51587], [-97.39134, 29.51587], [-97.39134, 29.51587], [-97.39136, 29.51603], [-97.39136, 29.51606], [-97.3914, 29.51624], [-97.39142, 29.51633], [-97.391499, 29.51651], [-97.39188, 29.51739], [-97.39202, 29.5177], [-97.3924, 29.51859], [-97.39276, 29.51941], [-97.39302, 29.51999], [-97.39368, 29.52142], [-97.3938, 29.52166]]}, "properties": {"surface": "unknown", "label": "Unverified", "color": "#9A9389", "miles": 3.32, "start_mi": 41.79, "end_mi": 45.1, "road": "County Road 344", "elev_ft": [308, 308, 308, 309, 309, 309, 308, 309, 309, 311, 310, 310, 309, 307, 306, 306, 306, 304, 303, 303, 302, 302, 302, 301, 300, 300, 296, 296, 298, 299, 299, 300, 302, 308, 309, 309, 310, 310, 311, 311, 311, 311, 310, 310, 310, 311, 311, 311, 311, 312, 312, 318, 320, 320, 321, 321, 322, 322, 322, 323, 323, 323, 323, 323, 323, 323, 323, 323, 323, 323, 323, 323, 323, 323, 323, 323, 323, 323, 324, 324, 324, 325, 326, 326, 327, 327, 327, 328, 328, 328, 328, 329, 332, 334, 334, 334, 334, 334, 334, 334, 334, 333, 333, 332, 332, 333, 333, 333, 332, 332, 332, 332, 332, 331, 330, 330, 330, 329, 329, 329, 329, 329, 320, 320, 320, 320, 321, 322, 323, 324, 325, 326, 327, 328, 330, 334, 336, 338, 339, 339, 340, 340, 340, 341, 341, 341, 341, 342, 342, 343, 343, 343, 343, 343, 343, 344, 344, 344, 344, 344, 345, 346, 347, 346, 341, 340, 339, 340, 341, 342, 343, 343, 344, 347, 348, 348, 348, 348, 349, 349, 350, 351, 351, 351, 351, 351, 352, 352, 352, 352, 352, 355, 356, 357, 358, 359]}}, {"type": "Feature", "geometry": {"type": "LineString", "coordinates": [[-97.39387, 29.52183], [-97.39387, 29.52183], [-97.39413, 29.52173], [-97.3944, 29.52163], [-97.39458, 29.52156], [-97.39463, 29.52153], [-97.39471, 29.5215], [-97.39481, 29.52144], [-97.39493, 29.52138], [-97.39509, 29.52129], [-97.39524, 29.5212], [-97.39539, 29.52109], [-97.3955, 29.52101], [-97.39568, 29.52088], [-97.39597, 29.52067], [-97.39613, 29.52055], [-97.39628, 29.52045], [-97.39644, 29.52035], [-97.39657, 29.52027], [-97.39669, 29.5202], [-97.39683, 29.52012], [-97.39697, 29.52005], [-97.39715, 29.51997], [-97.397409, 29.51985], [-97.39806, 29.51957], [-97.39822, 29.5195], [-97.39843, 29.51941], [-97.39861, 29.51933], [-97.39869, 29.51929], [-97.39906, 29.51913], [-97.39931, 29.51902], [-97.399559, 29.51892], [-97.39974, 29.51885], [-97.39985, 29.5188], [-97.399959, 29.51876], [-97.4001, 29.51871], [-97.40028, 29.51866], [-97.40046, 29.51861], [-97.40067, 29.51856], [-97.40069, 29.51856], [-97.40093, 29.51851], [-97.40121, 29.51845], [-97.40162, 29.51837], [-97.40186, 29.51831], [-97.40204, 29.51827], [-97.40216, 29.51825], [-97.4023, 29.51821], [-97.40235, 29.51819], [-97.40253, 29.51814], [-97.40268, 29.51808], [-97.4028, 29.51803], [-97.40291, 29.51799], [-97.40304, 29.51793], [-97.40317, 29.51786], [-97.403319, 29.51778], [-97.40346, 29.51769], [-97.40357, 29.51763], [-97.40374, 29.51752], [-97.40402, 29.51735], [-97.40425, 29.51722], [-97.4044, 29.51714], [-97.40447, 29.51709], [-97.40455, 29.51705], [-97.40462, 29.51702], [-97.40477, 29.51696], [-97.40492, 29.5169], [-97.40505, 29.51686], [-97.40517, 29.51682], [-97.40528, 29.5168], [-97.40544, 29.51676], [-97.40558, 29.51674], [-97.40572, 29.51673], [-97.405869, 29.51672], [-97.40624, 29.51671], [-97.40626, 29.51671], [-97.40671, 29.5167], [-97.40704, 29.51669], [-97.40731, 29.51668], [-97.40758, 29.51666], [-97.40779, 29.51663], [-97.40791, 29.51662], [-97.40803, 29.5166], [-97.40818, 29.51657], [-97.40834, 29.51654], [-97.40847, 29.51651], [-97.40851, 29.5165], [-97.40869, 29.51645], [-97.408869, 29.51639], [-97.4091, 29.51632], [-97.40931, 29.51625], [-97.40971, 29.51612], [-97.41007, 29.516], [-97.41015, 29.51597], [-97.41059, 29.51583], [-97.41094, 29.51571], [-97.41114, 29.51564], [-97.41135, 29.51556], [-97.41152, 29.5155], [-97.41172, 29.51541], [-97.41183, 29.51536], [-97.41199, 29.51528], [-97.41212, 29.51521], [-97.41225, 29.51513], [-97.41229, 29.51511], [-97.4124, 29.51504], [-97.41259, 29.51491], [-97.41279, 29.51478], [-97.41296, 29.51466], [-97.4132, 29.51448], [-97.4134, 29.51434], [-97.41365, 29.51414], [-97.41373, 29.51409], [-97.41389, 29.51397], [-97.414019, 29.51387], [-97.41421, 29.51374], [-97.41424, 29.51371], [-97.41427, 29.51369], [-97.41446, 29.51356], [-97.41464, 29.51344], [-97.41471, 29.5134], [-97.4148, 29.51334], [-97.41495, 29.51325], [-97.41517, 29.51313], [-97.41536, 29.51305], [-97.41548, 29.51299], [-97.41562, 29.51293], [-97.41588, 29.51283], [-97.41594, 29.51281], [-97.41638, 29.51266], [-97.41661, 29.51259], [-97.416749, 29.51255], [-97.41696, 29.51248], [-97.41725, 29.51238], [-97.41747, 29.51227], [-97.41748, 29.51226], [-97.41758, 29.5122], [-97.41767, 29.5121], [-97.41772, 29.51201], [-97.41771, 29.5118], [-97.41771, 29.5118], [-97.41833, 29.51177], [-97.41844, 29.51183], [-97.41945, 29.51175], [-97.41956, 29.51174], [-97.421, 29.51164], [-97.42122, 29.51164], [-97.42128, 29.51164], [-97.42176, 29.51167], [-97.42183, 29.51168], [-97.42183, 29.51168], [-97.42204, 29.5117], [-97.42204, 29.5117], [-97.42207, 29.51154], [-97.42207, 29.51152], [-97.42209, 29.51142], [-97.42216, 29.51114], [-97.42219, 29.51107], [-97.42224, 29.51099], [-97.42228, 29.51093], [-97.42237, 29.51084], [-97.42237, 29.51084], [-97.42246, 29.51075], [-97.42251, 29.51072], [-97.42256, 29.51068], [-97.42263, 29.51063], [-97.42329, 29.5104], [-97.42334, 29.51041], [-97.42367, 29.5103], [-97.42425, 29.51011], [-97.42444, 29.51004], [-97.42521, 29.50979], [-97.42561, 29.50965], [-97.42568, 29.50961], [-97.42626, 29.50942], [-97.42631, 29.5094], [-97.4266, 29.50931], [-97.4269, 29.50921], [-97.42704, 29.50917], [-97.42709, 29.50915], [-97.42723, 29.5091], [-97.42728, 29.50909], [-97.42757, 29.50899], [-97.42766, 29.50896], [-97.42776, 29.50893], [-97.42819, 29.50877], [-97.42881, 29.50855], [-97.42986, 29.5082], [-97.43029, 29.50801]]}, "properties": {"surface": "pavement", "label": "Pavement", "color": "#4A5568", "miles": 2.47, "start_mi": 45.1, "end_mi": 47.58, "road": "FM 532", "elev_ft": [359, 359, 359, 360, 360, 360, 361, 361, 361, 362, 362, 363, 363, 363, 363, 363, 362, 361, 359, 356, 352, 351, 351, 353, 353, 352, 350, 350, 349, 345, 343, 342, 340, 339, 337, 334, 332, 330, 328, 328, 325, 322, 320, 315, 315, 315, 315, 315, 312, 310, 310, 310, 310, 310, 310, 308, 307, 306, 302, 301, 300, 300, 300, 300, 300, 300, 300, 300, 300, 300, 300, 300, 301, 307, 307, 313, 317, 321, 324, 328, 330, 331, 332, 333, 334, 334, 335, 335, 335, 334, 330, 324, 322, 324, 328, 328, 328, 327, 326, 326, 325, 324, 323, 323, 322, 320, 321, 325, 331, 334, 338, 339, 341, 343, 345, 345, 345, 347, 347, 347, 347, 346, 344, 342, 341, 340, 339, 339, 338, 337, 336, 335, 333, 331, 331, 330, 330, 329, 328, 328, 329, 329, 330, 330, 322, 321, 320, 320, 320, 320, 320, 320, 321, 321, 322, 323, 323, 323, 323, 323, 323, 322, 322, 322, 321, 320, 320, 312, 310, 309, 292, 289, 288, 281, 280, 279, 278, 277, 277, 277, 277, 276, 276, 275, 274, 272, 270, 281]}}, {"type": "Feature", "geometry": {"type": "LineString", "coordinates": [[-97.43083, 29.50782], [-97.43083, 29.50782], [-97.43087, 29.50793], [-97.43102, 29.50822], [-97.43109, 29.50836], [-97.4311, 29.50836], [-97.4313, 29.50867], [-97.4313, 29.50867], [-97.43189, 29.50849], [-97.43193, 29.50847], [-97.43209, 29.50842], [-97.43229, 29.50835], [-97.43285, 29.50816], [-97.43289, 29.50815], [-97.43304, 29.5081], [-97.43308, 29.50808], [-97.43366, 29.50788], [-97.43371, 29.50787], [-97.4341, 29.50774], [-97.43412, 29.50773], [-97.4343, 29.50767], [-97.43509, 29.50741], [-97.43603, 29.50708], [-97.43649, 29.50692], [-97.43764, 29.50654], [-97.43777, 29.5065], [-97.43795, 29.50644], [-97.43825, 29.50634], [-97.43854, 29.50623], [-97.43862, 29.5062], [-97.43892, 29.5061], [-97.43902, 29.50607], [-97.43911, 29.50604], [-97.4392, 29.50601], [-97.43932, 29.50597], [-97.43937, 29.50595], [-97.43969, 29.50584], [-97.43971, 29.50583], [-97.44018, 29.50568], [-97.44019, 29.50567], [-97.44023, 29.50566], [-97.44037, 29.50561], [-97.44047, 29.50558], [-97.44054, 29.50555], [-97.44153, 29.50522], [-97.44159, 29.5052], [-97.44165, 29.50518], [-97.44192, 29.50508], [-97.44236, 29.50494], [-97.44281, 29.50479], [-97.44293, 29.50474], [-97.44303, 29.50471], [-97.44357, 29.50453], [-97.44364, 29.50451], [-97.44364, 29.5045], [-97.44396, 29.5044], [-97.44403, 29.50437], [-97.44406, 29.50436], [-97.44412, 29.50434], [-97.44415, 29.50433], [-97.44423, 29.5043], [-97.44426, 29.5043], [-97.44446, 29.50423], [-97.44447, 29.50423], [-97.44458, 29.50419], [-97.44469, 29.50415], [-97.44524, 29.50397], [-97.44535, 29.50393], [-97.44548, 29.50388], [-97.44709, 29.50336], [-97.44713, 29.50334], [-97.44778, 29.50313], [-97.4479, 29.50308], [-97.44797, 29.50306], [-97.44806, 29.50303], [-97.44816, 29.503], [-97.44827, 29.50296], [-97.44862, 29.50284], [-97.44865, 29.50283], [-97.4487, 29.50281], [-97.44873, 29.5028], [-97.44899, 29.50272], [-97.44905, 29.5027], [-97.4491, 29.50268], [-97.44921, 29.50264], [-97.4493, 29.50261], [-97.44939, 29.50258], [-97.45035, 29.50226], [-97.45044, 29.50222], [-97.45049, 29.50221], [-97.4505, 29.50221], [-97.45055, 29.50219], [-97.45107, 29.50201]]}, "properties": {"surface": "unknown", "label": "Unverified", "color": "#9A9389", "miles": 1.34, "start_mi": 47.58, "end_mi": 48.92, "road": "Saint Lawrence Street", "elev_ft": [283, 283, 284, 288, 289, 290, 292, 292, 293, 293, 293, 292, 291, 292, 292, 291, 293, 294, 296, 296, 296, 295, 294, 294, 293, 293, 292, 292, 291, 291, 290, 289, 289, 288, 287, 287, 285, 285, 281, 281, 281, 280, 280, 279, 271, 271, 270, 271, 276, 280, 281, 281, 282, 283, 283, 283, 284, 284, 284, 284, 284, 284, 284, 284, 284, 284, 283, 283, 283, 291, 291, 291, 291, 291, 291, 291, 291, 291, 291, 291, 291, 291, 291, 291, 291, 291, 291, 289, 289, 289, 289, 289, 288]}}]}