{"type": "FeatureCollection", "features": [{"type": "Feature", "geometry": {"type": "LineString", "coordinates": [[-97.45182, 29.50226], [-97.45206, 29.50281], [-97.4525, 29.50383], [-97.45296, 29.50486], [-97.4531, 29.50522], [-97.45319, 29.50547], [-97.4532399, 29.50558], [-97.45346, 29.50596], [-97.45384, 29.50682], [-97.45396, 29.50707], [-97.4541, 29.50741], [-97.45439, 29.50812], [-97.45498, 29.50943], [-97.45546, 29.5105], [-97.45569, 29.511], [-97.4559699, 29.51164], [-97.45619, 29.51209], [-97.4565, 29.51274], [-97.45675, 29.51331], [-97.45703, 29.51389], [-97.45746, 29.51488], [-97.45783, 29.51576], [-97.45802, 29.5162]]}, "properties": {"surface": "unknown", "label": "Unverified", "color": "#9A9389", "miles": 1.03, "start_mi": 0.0, "end_mi": 1.03, "road": "Saint Paul Street", "elev_ft": [288, 288, 289, 289, 290, 291, 291, 292, 296, 297, 298, 300, 303, 308, 310, 318, 321, 325, 328, 332, 338, 344, 349]}}, {"type": "Feature", "geometry": {"type": "LineString", "coordinates": [[-97.45809, 29.51637], [-97.4581199, 29.51643], [-97.45814, 29.51648], [-97.45822, 29.51665], [-97.45829, 29.51682], [-97.45832, 29.51696], [-97.45832, 29.51705], [-97.45832, 29.51705], [-97.4583, 29.51723], [-97.45826, 29.51745], [-97.45822, 29.51768], [-97.45818, 29.51785], [-97.45802, 29.51869], [-97.45796, 29.51901], [-97.45783, 29.51967], [-97.4578, 29.51986], [-97.45764, 29.52077], [-97.4575799, 29.5211], [-97.4575799, 29.5211]]}, "properties": {"surface": "pavement", "label": "Pavement", "color": "#4A5568", "miles": 0.33, "start_mi": 1.03, "end_mi": 1.37, "road": "Harwood Road", "elev_ft": [351, 351, 352, 353, 355, 357, 358, 358, 359, 362, 364, 365, 367, 368, 369, 369, 371, 372, 372]}}, {"type": "Feature", "geometry": {"type": "LineString", "coordinates": [[-97.45641, 29.52147], [-97.45592, 29.52165], [-97.45457, 29.5221], [-97.45395, 29.52231], [-97.4538, 29.52236], [-97.45303, 29.52262], [-97.45287, 29.52267], [-97.4526999, 29.52272], [-97.45269, 29.52272], [-97.45237, 29.52285], [-97.45231, 29.52287], [-97.4521199, 29.52294], [-97.45174, 29.52307], [-97.45097, 29.52334], [-97.45068, 29.52343], [-97.45012, 29.52362], [-97.44981, 29.52373], [-97.44976, 29.52375], [-97.44971, 29.52376], [-97.44966, 29.52377], [-97.44961, 29.5238], [-97.44922, 29.52393], [-97.44901, 29.52401], [-97.44891, 29.52404], [-97.44882, 29.52407], [-97.44835, 29.52423], [-97.44788, 29.52438], [-97.44757, 29.52448], [-97.44741, 29.52454], [-97.44734, 29.52456], [-97.44709, 29.52465], [-97.44695, 29.52472], [-97.44681, 29.52479], [-97.44676, 29.52482], [-97.44667, 29.52486], [-97.44664, 29.52488], [-97.44662, 29.52489], [-97.44658, 29.52492], [-97.44655, 29.52495], [-97.44652, 29.525], [-97.44651, 29.52506], [-97.44651, 29.52511], [-97.44652, 29.52522], [-97.44659, 29.52551], [-97.4466, 29.52559], [-97.44666, 29.52592], [-97.44667, 29.52605], [-97.44669, 29.52623], [-97.4467, 29.52637], [-97.44669, 29.52648], [-97.44668, 29.52658], [-97.44667, 29.5267], [-97.44664, 29.52684], [-97.44661, 29.52698], [-97.44649, 29.52753], [-97.4464, 29.528], [-97.44637, 29.52818], [-97.44632, 29.5284], [-97.4462099, 29.52903], [-97.4461, 29.52963], [-97.446, 29.53018], [-97.44591, 29.53071], [-97.44584, 29.53102], [-97.44584, 29.53103], [-97.44581, 29.5312], [-97.44575, 29.53146], [-97.44568, 29.53173], [-97.44565, 29.53185], [-97.4456, 29.53206], [-97.44559, 29.53208], [-97.44552, 29.5323], [-97.44547, 29.53247], [-97.44547, 29.53247], [-97.44543, 29.53257], [-97.4454, 29.53275], [-97.4453599, 29.53294], [-97.44489, 29.53449], [-97.44473, 29.53499], [-97.44473, 29.53501], [-97.44467, 29.53518], [-97.44463, 29.53529], [-97.4445099, 29.53559], [-97.44434, 29.53599], [-97.4442, 29.53628], [-97.44412, 29.53645], [-97.44382, 29.53705], [-97.44369, 29.53728], [-97.44361, 29.53744], [-97.44352, 29.5376], [-97.44343, 29.53776], [-97.4433899, 29.53784], [-97.44315, 29.53825], [-97.443, 29.5385], [-97.44286, 29.53871], [-97.44277, 29.53882], [-97.44272, 29.53889], [-97.44252, 29.53914], [-97.4425, 29.53916], [-97.44226, 29.53946], [-97.44216, 29.53958], [-97.44202, 29.53975], [-97.44197, 29.53983], [-97.44176, 29.54007], [-97.44089, 29.54118], [-97.44082, 29.54126], [-97.44073, 29.54138], [-97.44061, 29.54152], [-97.44056, 29.54158], [-97.44049, 29.54167], [-97.44031, 29.54188], [-97.43999, 29.54223], [-97.43998, 29.54224], [-97.43972, 29.5425], [-97.43971, 29.54251], [-97.43946, 29.54279], [-97.4394, 29.54287], [-97.43935, 29.54294], [-97.4393, 29.54302], [-97.4392699, 29.54311], [-97.43924, 29.54319], [-97.4391799, 29.54345], [-97.43913, 29.54364], [-97.43912, 29.54368], [-97.43898, 29.54409], [-97.43896, 29.54416], [-97.43889, 29.54436], [-97.43878, 29.54462], [-97.43868, 29.54483], [-97.43867, 29.54484], [-97.43853, 29.54509], [-97.43849, 29.54515], [-97.43829, 29.54547], [-97.43829, 29.54548], [-97.43797, 29.54595], [-97.43783, 29.54616], [-97.43777, 29.54625], [-97.43769, 29.54637], [-97.43751, 29.54666], [-97.43742, 29.54683], [-97.43732, 29.54705], [-97.43731, 29.54706], [-97.43695, 29.54791], [-97.4366299, 29.54858], [-97.43614, 29.54969], [-97.43602, 29.54996], [-97.43594, 29.55013], [-97.43572, 29.55062], [-97.4355, 29.55104], [-97.43535, 29.55128], [-97.43528, 29.55142], [-97.43509, 29.55177], [-97.435, 29.55192], [-97.4349, 29.55209], [-97.4348, 29.55227], [-97.43467, 29.55246], [-97.43467, 29.55246], [-97.43495, 29.55313], [-97.43496, 29.55316], [-97.43503, 29.5533], [-97.4351, 29.55347], [-97.43525, 29.5538], [-97.43532, 29.55397], [-97.4354, 29.55414], [-97.43607, 29.55567], [-97.43621, 29.55599], [-97.43633, 29.55626], [-97.4365, 29.55664], [-97.43651, 29.55665], [-97.43653, 29.55669], [-97.43655, 29.55675], [-97.43657, 29.5568], [-97.4367199, 29.55712], [-97.43696, 29.55767], [-97.4371, 29.558], [-97.43728, 29.55843], [-97.43744, 29.5588], [-97.43753, 29.55901], [-97.4377, 29.55942], [-97.43799, 29.56011], [-97.43827, 29.56071], [-97.43858, 29.56138], [-97.43861, 29.56144], [-97.43872, 29.56168], [-97.43877, 29.56177], [-97.43937, 29.56311], [-97.43994, 29.56436], [-97.44011, 29.56471], [-97.44016, 29.56483], [-97.44033, 29.56526], [-97.4403899, 29.56539], [-97.44042, 29.56545], [-97.44054, 29.56573], [-97.4406, 29.56586], [-97.44091, 29.56657], [-97.441, 29.56678], [-97.4413299, 29.56751], [-97.44136, 29.56757], [-97.44159, 29.56812], [-97.44197, 29.56897], [-97.4421, 29.56925], [-97.44257, 29.57025], [-97.443, 29.57115], [-97.44304, 29.57123], [-97.44313, 29.57142], [-97.44356, 29.57239], [-97.44401, 29.5734], [-97.44423, 29.5739], [-97.44439, 29.57427], [-97.4446, 29.57474], [-97.44475, 29.57507], [-97.44488, 29.57534], [-97.44489, 29.57538], [-97.4449, 29.57543], [-97.4449, 29.57548], [-97.44489, 29.57552], [-97.44483, 29.57559], [-97.44478, 29.57561], [-97.44465, 29.57566], [-97.44434, 29.57576], [-97.44389, 29.57592], [-97.4438, 29.57595], [-97.44215, 29.57649], [-97.44196, 29.57656], [-97.4413299, 29.57676], [-97.44099, 29.57687], [-97.44086, 29.57692], [-97.43912, 29.5775], [-97.43848, 29.57773], [-97.43821, 29.57782], [-97.43813, 29.57785], [-97.4380599, 29.57786], [-97.43799, 29.57786], [-97.43793, 29.57784], [-97.43788, 29.5778], [-97.43784, 29.57776], [-97.43781, 29.5777], [-97.43762, 29.57725], [-97.43745, 29.57682], [-97.43741, 29.57671], [-97.43738, 29.57665], [-97.43734, 29.57659], [-97.43729, 29.57654], [-97.43724, 29.57652], [-97.43717, 29.57651], [-97.43711, 29.57651], [-97.43704, 29.57652], [-97.43689, 29.57656], [-97.43512, 29.57719], [-97.43509, 29.5772], [-97.43429, 29.57747], [-97.43392, 29.57759], [-97.4334499, 29.57773], [-97.43338, 29.57776], [-97.43307, 29.57786], [-97.43164, 29.57833], [-97.43095, 29.57855], [-97.43068, 29.57864], [-97.43068, 29.57864], [-97.43106, 29.57949], [-97.43112, 29.57963], [-97.43113, 29.57964], [-97.43118, 29.57977], [-97.43134, 29.58015], [-97.43151, 29.58051], [-97.43171, 29.58099], [-97.43179, 29.58119], [-97.43245, 29.58267], [-97.4325099, 29.58281], [-97.43271, 29.58323], [-97.43271, 29.58323], [-97.43256, 29.58338], [-97.43247, 29.58348], [-97.43236, 29.58358], [-97.43075, 29.58482], [-97.43008, 29.58535], [-97.42967, 29.58566], [-97.4292, 29.58601], [-97.42872, 29.58637], [-97.42826, 29.58671], [-97.42779, 29.58707], [-97.42757, 29.58723], [-97.4275399, 29.58725], [-97.42723, 29.58748], [-97.42667, 29.58791], [-97.42598, 29.58843], [-97.42544, 29.58883], [-97.42523, 29.58899], [-97.42486, 29.58928], [-97.42483, 29.58932], [-97.42439, 29.5897], [-97.42425, 29.58982], [-97.42367, 29.59034], [-97.42337, 29.59061], [-97.42267, 29.59126], [-97.4225, 29.59142], [-97.4215, 29.5923], [-97.42138, 29.59241], [-97.42137, 29.59241], [-97.4211, 29.59266], [-97.42103, 29.59272], [-97.4209599, 29.5928], [-97.42094, 29.59281], [-97.42037, 29.59332], [-97.42, 29.59365], [-97.4190799, 29.5945], [-97.41901, 29.59457], [-97.41838, 29.59515], [-97.4179599, 29.59555], [-97.41781, 29.59568], [-97.41774, 29.59575], [-97.41699, 29.59646], [-97.4167, 29.59674], [-97.4164, 29.59703], [-97.41622, 29.59719], [-97.41603, 29.59734], [-97.41593, 29.5974], [-97.41579, 29.59746], [-97.41579, 29.59746], [-97.41573, 29.59839], [-97.41565, 29.59959], [-97.41552, 29.60156], [-97.41552, 29.60156]]}, "properties": {"surface": "unknown", "label": "Unverified", "color": "#9A9389", "miles": 7.43, "start_mi": 1.37, "end_mi": 8.8, "road": "County Road 238", "elev_ft": [360, 356, 339, 331, 329, 322, 319, 316, 316, 311, 311, 311, 312, 314, 315, 314, 313, 313, 313, 313, 313, 312, 312, 312, 312, 312, 312, 311, 311, 311, 311, 311, 310, 310, 310, 310, 310, 310, 310, 310, 310, 310, 311, 310, 310, 311, 311, 311, 312, 312, 312, 313, 314, 314, 317, 319, 319, 320, 324, 328, 332, 335, 337, 337, 339, 341, 343, 344, 346, 346, 348, 349, 349, 350, 352, 354, 366, 367, 367, 368, 368, 367, 366, 366, 366, 366, 366, 366, 366, 366, 366, 366, 366, 366, 366, 365, 365, 365, 364, 363, 362, 362, 359, 352, 352, 353, 352, 352, 351, 346, 335, 334, 328, 328, 325, 325, 325, 324, 324, 323, 321, 319, 318, 313, 312, 313, 316, 318, 318, 321, 322, 326, 326, 331, 333, 334, 335, 338, 340, 343, 343, 354, 361, 366, 367, 367, 366, 363, 362, 361, 359, 359, 360, 360, 359, 359, 366, 366, 367, 368, 368, 367, 367, 354, 352, 351, 355, 355, 356, 357, 357, 359, 363, 364, 366, 369, 370, 375, 382, 385, 388, 388, 387, 386, 375, 374, 372, 371, 366, 365, 364, 366, 369, 372, 375, 382, 383, 390, 398, 401, 404, 404, 404, 405, 405, 403, 400, 395, 389, 391, 391, 391, 391, 391, 391, 392, 392, 393, 394, 395, 396, 393, 392, 395, 397, 397, 407, 411, 412, 412, 412, 412, 412, 412, 412, 412, 413, 412, 412, 412, 412, 412, 411, 411, 411, 410, 409, 398, 398, 396, 395, 393, 393, 393, 391, 386, 384, 384, 379, 378, 378, 378, 380, 382, 388, 390, 404, 405, 408, 408, 409, 411, 413, 422, 424, 424, 423, 422, 421, 421, 421, 421, 421, 419, 415, 413, 412, 407, 406, 399, 395, 386, 381, 374, 372, 370, 370, 370, 370, 370, 370, 370, 376, 379, 388, 389, 391, 387, 385, 385, 377, 375, 372, 372, 371, 370, 370, 370, 368, 373, 387, 387]}}, {"type": "Feature", "geometry": {"type": "LineString", "coordinates": [[-97.41534, 29.60174], [-97.4152299, 29.60186], [-97.4151399, 29.60198], [-97.41472, 29.60263], [-97.4146899, 29.60266], [-97.41456, 29.60289], [-97.41442, 29.6031], [-97.41392, 29.60388], [-97.41332, 29.60483], [-97.41312, 29.60514], [-97.41303, 29.60528], [-97.41204, 29.60685], [-97.41192, 29.60703], [-97.41133, 29.60793], [-97.41131, 29.60797], [-97.4108, 29.60876], [-97.41076, 29.60882], [-97.41065, 29.60898], [-97.41059, 29.60905], [-97.41054, 29.60911], [-97.4104, 29.60923], [-97.41034, 29.60926], [-97.41028, 29.60931], [-97.41012, 29.6094], [-97.41011, 29.60941], [-97.40993, 29.60949], [-97.40986, 29.60952], [-97.40976, 29.60953], [-97.40953, 29.60954], [-97.40936, 29.60953], [-97.40929, 29.60954], [-97.40915, 29.60956], [-97.40909, 29.60958], [-97.40903, 29.60961], [-97.40899, 29.60964], [-97.40895, 29.60968], [-97.40894, 29.60968], [-97.40891, 29.60973], [-97.40886, 29.60984], [-97.40864, 29.61034], [-97.40849, 29.61068], [-97.40844, 29.61079], [-97.40834, 29.61101], [-97.4081099, 29.61151], [-97.40734, 29.61319], [-97.40665, 29.61469], [-97.40634, 29.61538], [-97.40597, 29.6162], [-97.40545, 29.61737], [-97.40523, 29.61785], [-97.40519, 29.61795], [-97.40519, 29.61795]]}, "properties": {"surface": "two_track", "label": "Ranch two-track", "color": "#6B5A45", "miles": 1.31, "start_mi": 8.8, "end_mi": 10.11, "road": "County Road 240", "elev_ft": [389, 389, 390, 396, 396, 398, 400, 408, 414, 410, 409, 398, 397, 391, 390, 383, 382, 381, 381, 381, 380, 380, 380, 380, 380, 380, 380, 380, 380, 380, 380, 379, 378, 377, 376, 375, 375, 374, 372, 365, 364, 365, 366, 372, 396, 405, 406, 409, 413, 414, 414, 414]}}, {"type": "Feature", "geometry": {"type": "LineString", "coordinates": [[-97.40504, 29.61795], [-97.40453, 29.61796], [-97.40425, 29.61797], [-97.40405, 29.61797], [-97.40335, 29.61798], [-97.40196, 29.61801], [-97.40147, 29.61802], [-97.40141, 29.61802], [-97.40098, 29.61803], [-97.40074, 29.61804], [-97.40036, 29.61805], [-97.40012, 29.61805], [-97.40012, 29.61805], [-97.40013, 29.61763], [-97.40021, 29.61668], [-97.40022, 29.61647], [-97.40022, 29.61626], [-97.4002, 29.61587], [-97.40017, 29.61547], [-97.4001399, 29.61521], [-97.40013, 29.61512], [-97.40009, 29.61495], [-97.40007, 29.61491], [-97.39999, 29.61481], [-97.39982, 29.61466], [-97.39975, 29.61462], [-97.39972, 29.61459], [-97.39964, 29.61455], [-97.39951, 29.61451], [-97.39939, 29.6145], [-97.39924, 29.61449], [-97.39886, 29.6145], [-97.39868, 29.6145], [-97.39861, 29.61449], [-97.39855, 29.61448], [-97.3985, 29.61445], [-97.39846, 29.61441], [-97.3984399, 29.61436], [-97.39842, 29.6143], [-97.39842, 29.6139], [-97.39842, 29.61354], [-97.39842, 29.61292], [-97.39841, 29.61228], [-97.3984, 29.61167], [-97.3984, 29.61138], [-97.3984, 29.61102], [-97.39839, 29.6103], [-97.39838, 29.60886], [-97.39839, 29.60778], [-97.39839, 29.60738], [-97.39841, 29.60638], [-97.3984, 29.60623], [-97.39837, 29.60618], [-97.39834, 29.60613], [-97.39828, 29.6061], [-97.39822, 29.60609], [-97.39814, 29.60608], [-97.39757, 29.60607], [-97.39669, 29.60607], [-97.39633, 29.60607], [-97.39551, 29.60608], [-97.39509, 29.60608], [-97.3946799, 29.60608], [-97.39384, 29.60609], [-97.39367, 29.60607], [-97.39359, 29.60606], [-97.39352, 29.60603], [-97.39346, 29.60599], [-97.39342, 29.60594], [-97.39339, 29.60588], [-97.3933799, 29.60581], [-97.3933799, 29.60573], [-97.39339, 29.60529], [-97.39341, 29.60424], [-97.3934, 29.60382], [-97.39339, 29.60368], [-97.39336, 29.60349], [-97.39334, 29.6034], [-97.39326, 29.603], [-97.3931999, 29.60275], [-97.39313, 29.60252], [-97.393, 29.60221], [-97.39294, 29.6021], [-97.39276, 29.60174], [-97.39265, 29.60149], [-97.3924, 29.60094], [-97.39202, 29.6001], [-97.39186, 29.59977], [-97.39139, 29.59877], [-97.39068, 29.59728], [-97.3906, 29.59711], [-97.39042, 29.59674], [-97.39039, 29.59667], [-97.39013, 29.59607], [-97.39008, 29.59593], [-97.38972, 29.59509], [-97.38933, 29.59416], [-97.38907, 29.59357], [-97.38869, 29.59274], [-97.38824, 29.59173], [-97.38819, 29.59161], [-97.38806, 29.59131], [-97.38804, 29.59122], [-97.38803, 29.59114], [-97.38803, 29.59106], [-97.38805, 29.59098], [-97.38808, 29.59091], [-97.38817, 29.59077], [-97.3883199, 29.59057], [-97.38842, 29.59043], [-97.38858, 29.59021], [-97.38862, 29.59013], [-97.38864, 29.59005], [-97.38865, 29.58996], [-97.38864, 29.58988], [-97.38862, 29.58975], [-97.3886, 29.58969], [-97.38837, 29.58887], [-97.3883, 29.58858], [-97.38827, 29.58848], [-97.3882299, 29.5884], [-97.3882, 29.58836], [-97.38818, 29.58833], [-97.38811, 29.58827], [-97.38803, 29.58822], [-97.3878299, 29.58812], [-97.38693, 29.58774], [-97.38676, 29.58766], [-97.3867099, 29.58764], [-97.38661, 29.58757], [-97.38651, 29.5875], [-97.38643, 29.58742], [-97.38628, 29.58725], [-97.38622, 29.58715], [-97.38618, 29.58705], [-97.38607, 29.5868], [-97.3858599, 29.58629], [-97.38574, 29.58602], [-97.38511, 29.58461], [-97.38494, 29.58423], [-97.38486, 29.58406], [-97.38478, 29.58397], [-97.38471, 29.58392], [-97.38464, 29.58388], [-97.38457, 29.58386], [-97.38448, 29.58384], [-97.38411, 29.58384], [-97.38378, 29.58385], [-97.3836, 29.58386], [-97.38321, 29.58385], [-97.38313, 29.58384], [-97.38306, 29.58382], [-97.38302, 29.5838], [-97.38299, 29.58378], [-97.38294, 29.58374], [-97.3828599, 29.58361], [-97.38262, 29.58309], [-97.38234, 29.58245], [-97.38234, 29.58244], [-97.38193, 29.58155], [-97.38189, 29.58144], [-97.38177, 29.58117], [-97.38172, 29.58106], [-97.38166, 29.58093], [-97.38139, 29.58032], [-97.38136, 29.58026], [-97.38108, 29.5796], [-97.3810699, 29.57959], [-97.38104, 29.57952], [-97.381, 29.57945], [-97.38094, 29.57939], [-97.38087, 29.57934], [-97.3807999, 29.57931], [-97.3807099, 29.57928], [-97.3806199, 29.57927], [-97.38021, 29.57926], [-97.38002, 29.57926], [-97.37907, 29.57926], [-97.37835, 29.57926], [-97.3769, 29.57926], [-97.37525, 29.57925], [-97.37479, 29.57925], [-97.3746199, 29.57925], [-97.37452, 29.57925], [-97.37437, 29.57922], [-97.37429, 29.5792], [-97.37421, 29.57917], [-97.37407, 29.5791], [-97.37385, 29.57893], [-97.37348, 29.5786], [-97.37332, 29.57844], [-97.37323, 29.57835], [-97.37315, 29.57815], [-97.3726499, 29.57675], [-97.37228, 29.57571], [-97.37228, 29.57571]]}, "properties": {"surface": "unknown", "label": "Unverified", "color": "#9A9389", "miles": 4.29, "start_mi": 10.11, "end_mi": 14.4, "road": "County Road 433", "elev_ft": [414, 413, 412, 410, 403, 391, 387, 387, 383, 381, 378, 375, 375, 376, 375, 375, 374, 373, 372, 371, 371, 370, 370, 369, 367, 368, 369, 370, 371, 372, 373, 376, 377, 377, 377, 378, 378, 378, 379, 382, 385, 385, 386, 390, 392, 393, 392, 386, 380, 378, 373, 372, 372, 372, 372, 372, 372, 372, 367, 365, 361, 362, 366, 375, 376, 377, 378, 379, 379, 380, 380, 380, 383, 386, 386, 386, 386, 386, 385, 385, 385, 384, 384, 381, 379, 377, 374, 374, 375, 372, 373, 373, 373, 377, 379, 381, 375, 374, 372, 365, 365, 368, 369, 370, 370, 371, 371, 371, 370, 370, 369, 369, 368, 368, 368, 368, 368, 368, 367, 367, 367, 367, 367, 367, 367, 367, 365, 365, 365, 365, 366, 366, 368, 369, 369, 371, 372, 371, 361, 356, 355, 354, 354, 354, 353, 353, 352, 351, 350, 345, 345, 345, 345, 345, 345, 346, 348, 345, 345, 359, 360, 361, 361, 362, 362, 362, 358, 358, 357, 356, 356, 355, 355, 355, 355, 353, 352, 348, 345, 335, 318, 315, 314, 313, 312, 312, 311, 309, 307, 304, 305, 305, 305, 301, 304, 304]}}, {"type": "Feature", "geometry": {"type": "LineString", "coordinates": [[-97.37269, 29.57525], [-97.37276, 29.57517], [-97.37284, 29.57508], [-97.37293, 29.57499], [-97.37302, 29.57491], [-97.37312, 29.57482], [-97.37317, 29.57478], [-97.37324, 29.57472], [-97.37331, 29.57466], [-97.37333, 29.57465], [-97.37358, 29.57445], [-97.37383, 29.57426], [-97.37416, 29.574], [-97.3745, 29.57374], [-97.37456, 29.57369], [-97.37472, 29.57357], [-97.3748899, 29.57344], [-97.37532, 29.5731], [-97.37533, 29.57309], [-97.37603, 29.57255], [-97.37653, 29.57216], [-97.37688, 29.5719], [-97.37688, 29.5719]]}, "properties": {"surface": "pavement", "label": "Pavement", "color": "#4A5568", "miles": 0.34, "start_mi": 14.4, "end_mi": 14.74, "road": "TX 97", "elev_ft": [316, 318, 320, 321, 322, 324, 326, 329, 330, 330, 331, 333, 339, 341, 341, 341, 342, 348, 348, 351, 351, 351, 351]}}, {"type": "Feature", "geometry": {"type": "LineString", "coordinates": [[-97.3768, 29.57169], [-97.3768, 29.57169], [-97.37598, 29.57169], [-97.37536, 29.57169], [-97.37513, 29.57169], [-97.37366, 29.57163], [-97.37329, 29.57163], [-97.37315, 29.57163], [-97.37289, 29.57164], [-97.37288, 29.57164], [-97.37184, 29.57166], [-97.3717999, 29.57166], [-97.37118, 29.57168], [-97.37045, 29.57169], [-97.3700099, 29.57168], [-97.36957, 29.57168], [-97.36879, 29.57168], [-97.36844, 29.57169], [-97.36826, 29.57169], [-97.3669, 29.5717], [-97.36599, 29.57171], [-97.36566, 29.57171], [-97.36542, 29.57171], [-97.36533, 29.57171], [-97.36375, 29.57172], [-97.36235, 29.57174], [-97.36233, 29.57174], [-97.36218, 29.57175], [-97.36152, 29.57175], [-97.3614, 29.57176], [-97.36028, 29.57176], [-97.35948, 29.57177], [-97.35925, 29.57177], [-97.3590399, 29.57177], [-97.35883, 29.57177], [-97.35883, 29.57177]]}, "properties": {"surface": "unknown", "label": "Unverified", "color": "#9A9389", "miles": 1.08, "start_mi": 14.74, "end_mi": 15.82, "road": "County Road 384", "elev_ft": [350, 350, 345, 339, 337, 317, 314, 312, 310, 309, 309, 309, 307, 303, 300, 299, 292, 290, 292, 304, 307, 308, 308, 308, 309, 312, 312, 314, 321, 322, 329, 336, 339, 340, 342, 342]}}, {"type": "Feature", "geometry": {"type": "LineString", "coordinates": [[-97.35883, 29.57189], [-97.35883, 29.57234], [-97.35883, 29.57279], [-97.35882, 29.57396], [-97.35882, 29.57419], [-97.35884, 29.57492], [-97.35883, 29.57499], [-97.35881, 29.57505], [-97.35879, 29.5751], [-97.35873, 29.57516], [-97.3587, 29.57517], [-97.35866, 29.57519], [-97.3586, 29.5752], [-97.35848, 29.5752], [-97.35791, 29.57519], [-97.35756, 29.57518], [-97.35521, 29.57516], [-97.35466, 29.57516], [-97.3532199, 29.57516], [-97.35218, 29.57516], [-97.35206, 29.57516], [-97.35163, 29.57528], [-97.35137, 29.57525], [-97.35105, 29.57523], [-97.34971, 29.57524], [-97.34968, 29.57524], [-97.3493, 29.57525], [-97.34806, 29.57528], [-97.34756, 29.57529], [-97.34742, 29.57534], [-97.34728, 29.57543], [-97.34727, 29.57543], [-97.3472, 29.57549], [-97.34714, 29.57557], [-97.3471, 29.57564], [-97.34708, 29.57572], [-97.34707, 29.57581], [-97.34706, 29.57591], [-97.34707, 29.57609], [-97.34707, 29.57652], [-97.34708, 29.57771], [-97.34708, 29.57789], [-97.34709, 29.57843], [-97.3471, 29.57872], [-97.34709, 29.5789], [-97.34708, 29.57897], [-97.34707, 29.57904], [-97.34704, 29.57909], [-97.34702, 29.57914], [-97.34695, 29.57921], [-97.34691, 29.57924], [-97.34687, 29.57927], [-97.34669, 29.57937], [-97.34665, 29.57941], [-97.3466, 29.57945], [-97.34656, 29.5795], [-97.34653, 29.57956], [-97.34652, 29.57962], [-97.34651, 29.57968], [-97.34651, 29.5798], [-97.34656, 29.58002], [-97.34658, 29.58018], [-97.34658, 29.58025], [-97.3465499, 29.58031], [-97.3465, 29.58037], [-97.34644, 29.58041], [-97.3463699, 29.58043], [-97.34632, 29.58044], [-97.34629, 29.58044], [-97.34619, 29.58045], [-97.34582, 29.58044], [-97.34487, 29.58043], [-97.34451, 29.58043], [-97.34446, 29.58043], [-97.34392, 29.58043], [-97.34333, 29.58044], [-97.34248, 29.58043], [-97.34236, 29.58043], [-97.34099, 29.58044], [-97.34047, 29.58043], [-97.34039, 29.58043], [-97.34027, 29.58043], [-97.33992, 29.58043], [-97.3397899, 29.58044], [-97.33971, 29.58046], [-97.33966, 29.58048], [-97.33964, 29.58049], [-97.33958, 29.58054], [-97.33953, 29.5806], [-97.3395, 29.58067], [-97.33949, 29.58075], [-97.33948, 29.58083], [-97.33947, 29.58101], [-97.33947, 29.58103], [-97.33947, 29.58125], [-97.33947, 29.58245], [-97.33948, 29.58338], [-97.33948, 29.58407], [-97.33949, 29.58432], [-97.33951, 29.58496], [-97.3395199, 29.58527], [-97.3395199, 29.58544], [-97.33951, 29.5855], [-97.33951, 29.58551], [-97.33948, 29.58557], [-97.33945, 29.58562], [-97.33941, 29.58565], [-97.33936, 29.58569], [-97.33904, 29.58585], [-97.33896, 29.5859], [-97.33889, 29.58596], [-97.33883, 29.58603], [-97.33878, 29.58611], [-97.33875, 29.58619], [-97.33872, 29.58628], [-97.33871, 29.58637], [-97.3387, 29.58647], [-97.33871, 29.58664], [-97.33875, 29.58898], [-97.33878, 29.58971], [-97.33877, 29.58979], [-97.33875, 29.58987], [-97.33873, 29.58993], [-97.33869, 29.58999], [-97.33864, 29.59004], [-97.3385799, 29.59008], [-97.33851, 29.5901], [-97.33847, 29.59011], [-97.33843, 29.59011], [-97.33835, 29.59012], [-97.3378, 29.59012], [-97.33753, 29.59012], [-97.33745, 29.59013], [-97.33738, 29.59015], [-97.33731, 29.59019], [-97.33726, 29.59022], [-97.33723, 29.59027], [-97.33719, 29.59032], [-97.33717, 29.59038], [-97.33716, 29.59044], [-97.33715, 29.59052], [-97.33715, 29.59094], [-97.33716, 29.59326], [-97.33716, 29.59456], [-97.33718, 29.59512], [-97.33718, 29.59578], [-97.33718, 29.59578]]}, "properties": {"surface": "two_track", "label": "Ranch two-track", "color": "#6B5A45", "miles": 2.85, "start_mi": 15.82, "end_mi": 18.67, "road": "County Road 385", "elev_ft": [342, 342, 341, 343, 344, 341, 341, 341, 341, 342, 342, 342, 342, 342, 342, 342, 320, 311, 303, 299, 298, 295, 294, 301, 317, 317, 318, 314, 309, 309, 309, 309, 309, 309, 309, 310, 312, 313, 316, 319, 328, 328, 327, 326, 326, 326, 325, 325, 325, 324, 323, 323, 323, 323, 324, 325, 327, 328, 328, 329, 330, 332, 332, 332, 333, 334, 334, 335, 335, 337, 341, 346, 347, 347, 347, 341, 336, 335, 334, 329, 328, 326, 328, 331, 331, 332, 332, 332, 333, 333, 333, 333, 332, 332, 330, 335, 341, 348, 349, 351, 351, 351, 351, 351, 351, 351, 351, 351, 351, 351, 351, 351, 351, 351, 351, 351, 351, 351, 351, 352, 352, 352, 352, 353, 352, 352, 352, 352, 352, 352, 349, 346, 346, 345, 344, 344, 344, 344, 344, 344, 344, 344, 343, 340, 336, 338, 338]}}, {"type": "Feature", "geometry": {"type": "LineString", "coordinates": [[-97.33566, 29.59579], [-97.33376, 29.5958], [-97.33339, 29.5958], [-97.33242, 29.5958], [-97.33215, 29.5958], [-97.33177, 29.59579], [-97.33161, 29.59578], [-97.3315, 29.59568], [-97.33149, 29.59557], [-97.33143, 29.59483], [-97.33143, 29.59471], [-97.33143, 29.59467], [-97.33143, 29.59377], [-97.33143, 29.59359], [-97.33142, 29.59322], [-97.33142, 29.59284], [-97.33142, 29.59269], [-97.33142, 29.59197], [-97.33142, 29.59184], [-97.33142, 29.59161], [-97.3314, 29.58999], [-97.3314, 29.58935], [-97.33138, 29.58819], [-97.33137, 29.58765], [-97.33136, 29.5871], [-97.33136, 29.58693], [-97.33135, 29.5868], [-97.33135, 29.58657], [-97.33134, 29.58568], [-97.33134, 29.58566], [-97.33136, 29.58482], [-97.33136, 29.58478], [-97.33136, 29.58406], [-97.33136, 29.58359], [-97.33136, 29.58316], [-97.33136, 29.5828], [-97.33136, 29.58276], [-97.33136, 29.58172], [-97.33137, 29.58077], [-97.33136, 29.58069], [-97.33135, 29.58062], [-97.33132, 29.58057], [-97.33128, 29.58052], [-97.3312399, 29.5805], [-97.33118, 29.58047], [-97.33112, 29.58046], [-97.33096, 29.58045], [-97.3301, 29.58047], [-97.33008, 29.58047], [-97.32952, 29.58046], [-97.32919, 29.58046], [-97.32905, 29.58046], [-97.32781, 29.58048], [-97.3276999, 29.58048], [-97.32719, 29.58048], [-97.3261, 29.58047], [-97.32583, 29.58048], [-97.3257, 29.58047], [-97.32512, 29.58048], [-97.32346, 29.58048], [-97.3230899, 29.58048], [-97.32256, 29.58047], [-97.32202, 29.58048], [-97.3218, 29.58048], [-97.32067, 29.58051], [-97.32057, 29.58051], [-97.32032, 29.58053], [-97.32022, 29.58052], [-97.32016, 29.58051], [-97.32013, 29.5805], [-97.32007, 29.58046], [-97.32003, 29.58041], [-97.32002, 29.58037], [-97.32001, 29.58031], [-97.32001, 29.57976], [-97.32001, 29.57804], [-97.32001, 29.57798], [-97.3199999, 29.57714], [-97.31999, 29.57615], [-97.31999, 29.57498], [-97.31999, 29.57498], [-97.31896, 29.57499], [-97.31772, 29.57499], [-97.31647, 29.57499], [-97.31555, 29.57499], [-97.31505, 29.57499], [-97.31464, 29.57499], [-97.31319, 29.57499], [-97.3125699, 29.575], [-97.31174, 29.575], [-97.31133, 29.575], [-97.31092, 29.575], [-97.3103, 29.57501], [-97.30997, 29.57501], [-97.30988, 29.57501], [-97.30885, 29.57503], [-97.3087, 29.57503], [-97.30843, 29.57504], [-97.30781, 29.57507], [-97.3074199, 29.57508], [-97.30721, 29.57509], [-97.30721, 29.57509], [-97.30721, 29.57527], [-97.3072399, 29.57599], [-97.30726, 29.57668], [-97.30727, 29.57758], [-97.3073, 29.57919], [-97.3073299, 29.58071], [-97.30732, 29.58141], [-97.30732, 29.58144], [-97.30732, 29.58165], [-97.3073299, 29.58197], [-97.3073299, 29.58334], [-97.30734, 29.58359], [-97.30734, 29.58367], [-97.30735, 29.5839], [-97.30735, 29.58439], [-97.30736, 29.58448], [-97.30736, 29.5846], [-97.30736, 29.58467], [-97.30737, 29.58543], [-97.30737, 29.58575], [-97.30738, 29.58621], [-97.30739, 29.58665], [-97.3074, 29.58701], [-97.3074, 29.58761], [-97.30741, 29.58808], [-97.30741, 29.58862], [-97.3074199, 29.58892], [-97.30743, 29.58916], [-97.30744, 29.58935], [-97.30744, 29.58974], [-97.30744, 29.58982], [-97.30744, 29.5899], [-97.30745, 29.59006], [-97.30745, 29.59078], [-97.30745, 29.59096], [-97.30746, 29.59159], [-97.30746, 29.59159], [-97.30705, 29.5916], [-97.3056, 29.59163], [-97.30398, 29.59166], [-97.30313, 29.59166], [-97.30206, 29.59168], [-97.30152, 29.5917], [-97.30106, 29.59171], [-97.30079, 29.59171], [-97.30072, 29.59172], [-97.3006599, 29.59173], [-97.30061, 29.59175], [-97.30056, 29.59177], [-97.30051, 29.59181], [-97.30047, 29.59186], [-97.30043, 29.59192], [-97.30023, 29.5923], [-97.30022, 29.59233], [-97.30005, 29.59266], [-97.29993, 29.59288], [-97.29987, 29.59298], [-97.29986, 29.59299], [-97.2997, 29.59331], [-97.29968, 29.59334], [-97.29962, 29.59343], [-97.2995399, 29.5936], [-97.29949, 29.59367], [-97.2994499, 29.59375], [-97.29933, 29.59395], [-97.29932, 29.59397], [-97.29922, 29.59409], [-97.29914, 29.59419], [-97.29908, 29.59424], [-97.29905, 29.59427], [-97.29883, 29.59448], [-97.2987799, 29.59452], [-97.29867, 29.59463], [-97.29863, 29.59466], [-97.29862, 29.59467], [-97.29853, 29.59475], [-97.29847, 29.5948], [-97.29843, 29.59485], [-97.29834, 29.59493], [-97.29831, 29.59496], [-97.29827, 29.595], [-97.29823, 29.59503], [-97.2982, 29.59506], [-97.29818, 29.59508], [-97.2978399, 29.59541], [-97.29764, 29.59559], [-97.29746, 29.59577], [-97.29733, 29.59592], [-97.29722, 29.59608], [-97.29718, 29.59612], [-97.29713, 29.59615], [-97.29701, 29.59622], [-97.29693, 29.59626], [-97.2968999, 29.59628], [-97.29684, 29.5963], [-97.2968, 29.59633], [-97.29676, 29.59638], [-97.29674, 29.59644], [-97.29673, 29.5965], [-97.29673, 29.59652], [-97.29677, 29.59778], [-97.29679, 29.59886], [-97.29682, 29.59975], [-97.29684, 29.60065], [-97.29687, 29.60173], [-97.29688, 29.6021], [-97.29688, 29.60227], [-97.29689, 29.60244], [-97.2968999, 29.60317], [-97.29691, 29.60325], [-97.29693, 29.60389], [-97.29693, 29.60402], [-97.29695, 29.60435], [-97.29695, 29.60443], [-97.29695, 29.60448], [-97.29694, 29.60454], [-97.29691, 29.60459], [-97.29687, 29.60463], [-97.29683, 29.60464], [-97.2968099, 29.60466], [-97.29674, 29.60467], [-97.2967199, 29.60468], [-97.29666, 29.60468], [-97.29657, 29.60469], [-97.29556, 29.6047], [-97.29548, 29.60471], [-97.29518, 29.60472], [-97.29507, 29.60472], [-97.29433, 29.60474], [-97.29424, 29.60474], [-97.29388, 29.60476], [-97.29362, 29.60477], [-97.293, 29.60478], [-97.29258, 29.60479], [-97.2919299, 29.6048], [-97.29134, 29.6048], [-97.29077, 29.6048], [-97.2907199, 29.6048], [-97.28928, 29.60483], [-97.28908, 29.60484], [-97.28762, 29.60486], [-97.2853499, 29.60489], [-97.28514, 29.60489], [-97.28493, 29.6049], [-97.28393, 29.60491]]}, "properties": {"surface": "unknown", "label": "Unverified", "color": "#9A9389", "miles": 6.43, "start_mi": 18.67, "end_mi": 25.1, "road": "County Road 407", "elev_ft": [337, 345, 345, 344, 343, 342, 341, 340, 339, 335, 334, 334, 329, 328, 323, 320, 321, 327, 328, 330, 347, 349, 348, 345, 340, 339, 339, 337, 334, 335, 338, 338, 339, 342, 343, 343, 343, 342, 337, 337, 336, 337, 337, 337, 337, 338, 339, 345, 345, 343, 341, 341, 353, 353, 353, 351, 349, 348, 345, 341, 336, 336, 335, 333, 326, 325, 323, 323, 322, 322, 323, 323, 323, 324, 330, 341, 341, 342, 343, 341, 341, 337, 330, 317, 313, 311, 312, 322, 320, 309, 308, 311, 320, 322, 323, 316, 316, 320, 330, 330, 325, 325, 324, 314, 307, 302, 301, 283, 279, 280, 281, 283, 292, 292, 292, 291, 288, 289, 290, 291, 294, 295, 296, 296, 295, 292, 289, 288, 287, 286, 285, 283, 283, 282, 282, 288, 289, 295, 295, 297, 292, 301, 300, 299, 301, 301, 301, 300, 300, 300, 300, 300, 299, 299, 296, 295, 292, 292, 291, 291, 288, 288, 287, 284, 283, 282, 280, 280, 280, 279, 279, 279, 278, 278, 278, 278, 278, 277, 277, 277, 276, 276, 276, 276, 275, 275, 273, 272, 271, 271, 270, 270, 270, 270, 270, 270, 270, 270, 271, 271, 271, 271, 272, 274, 276, 278, 282, 285, 287, 289, 305, 306, 317, 320, 323, 324, 324, 325, 325, 325, 325, 325, 325, 324, 324, 323, 306, 304, 303, 304, 311, 312, 312, 312, 308, 306, 302, 295, 291, 290, 299, 302, 312, 316, 317, 318, 322]}}, {"type": "Feature", "geometry": {"type": "LineString", "coordinates": [[-97.28357, 29.60496], [-97.28357, 29.60496], [-97.28323, 29.60441], [-97.28304, 29.60421], [-97.2829, 29.60405], [-97.28261, 29.6038], [-97.28213, 29.60349], [-97.28212, 29.60348], [-97.28184, 29.60333], [-97.28177, 29.6033], [-97.28144, 29.60318], [-97.28104, 29.60308], [-97.28068, 29.60303], [-97.28056, 29.60302], [-97.28021, 29.603], [-97.28016, 29.60301], [-97.27931, 29.60302], [-97.27869, 29.60303], [-97.2782299, 29.60304], [-97.27616, 29.60306], [-97.276, 29.60306], [-97.27476, 29.60308], [-97.27424, 29.60309], [-97.27114, 29.60313]]}, "properties": {"surface": "pavement", "label": "Pavement", "color": "#4A5568", "miles": 0.8, "start_mi": 25.1, "end_mi": 25.9, "road": "FM 2814", "elev_ft": [323, 323, 319, 320, 320, 320, 315, 315, 312, 311, 308, 306, 304, 304, 302, 302, 292, 290, 291, 289, 289, 287, 287, 293]}}, {"type": "Feature", "geometry": {"type": "LineString", "coordinates": [[-97.2711, 29.60313], [-97.26783, 29.60325], [-97.26783, 29.60325], [-97.26781, 29.60325], [-97.26763, 29.60326], [-97.26742, 29.60327], [-97.26727, 29.60327], [-97.26618, 29.60327], [-97.26603, 29.60327], [-97.26588, 29.60328], [-97.26515, 29.60328], [-97.26496, 29.60328], [-97.2642599, 29.60326], [-97.26411, 29.60326], [-97.26385, 29.60325], [-97.26327, 29.60326], [-97.26266, 29.60329], [-97.26242, 29.6033], [-97.26231, 29.60331], [-97.26101, 29.60336], [-97.2606, 29.60337], [-97.26024, 29.60339], [-97.25986, 29.6034], [-97.25955, 29.60339], [-97.25914, 29.60338], [-97.25886, 29.60337], [-97.25831, 29.60338], [-97.25769, 29.60338], [-97.25659, 29.60338], [-97.25624, 29.60339], [-97.25521, 29.60339]]}, "properties": {"surface": "unknown", "label": "Unverified", "color": "#9A9389", "miles": 0.96, "start_mi": 25.9, "end_mi": 26.86, "road": "County Road 397", "elev_ft": [293, 318, 318, 318, 320, 321, 322, 314, 313, 314, 313, 312, 303, 301, 299, 301, 298, 296, 295, 280, 277, 276, 275, 274, 272, 271, 271, 273, 274, 273, 270]}}, {"type": "Feature", "geometry": {"type": "LineString", "coordinates": [[-97.25516, 29.60339], [-97.255, 29.60339], [-97.25478, 29.6034], [-97.25444, 29.60341], [-97.25429, 29.60341], [-97.25419, 29.6034], [-97.25412, 29.60337], [-97.25409, 29.60334], [-97.25406, 29.6033], [-97.25405, 29.60325], [-97.25405, 29.6032], [-97.25403, 29.60271], [-97.25397, 29.60054], [-97.25395, 29.60045], [-97.25391, 29.60039], [-97.25387, 29.60036], [-97.2538, 29.60033], [-97.25331, 29.60033], [-97.24855, 29.60034], [-97.24718, 29.60035], [-97.24669, 29.60035], [-97.2442, 29.60037], [-97.24296, 29.60038], [-97.24265, 29.60038], [-97.2425, 29.60038], [-97.24236, 29.60033], [-97.24232, 29.6003], [-97.24229, 29.60025], [-97.24227, 29.60021], [-97.24224, 29.60009], [-97.24223, 29.59969], [-97.24221, 29.5991], [-97.2422, 29.59893], [-97.2421899, 29.59812], [-97.24218, 29.59802], [-97.24215, 29.59676], [-97.24214, 29.59661], [-97.24214, 29.59637], [-97.24213, 29.59612], [-97.24211, 29.59607], [-97.24208, 29.59604], [-97.24203, 29.59601], [-97.24196, 29.59599], [-97.24172, 29.59597], [-97.24129, 29.59597], [-97.24079, 29.59597], [-97.24067, 29.59597], [-97.24051, 29.59597], [-97.24006, 29.59597], [-97.23972, 29.59597], [-97.2393, 29.59597], [-97.23905, 29.59598], [-97.2379, 29.59599], [-97.23765, 29.596], [-97.23734, 29.596], [-97.23692, 29.59601], [-97.236, 29.59603], [-97.23565, 29.59604], [-97.2355, 29.59604], [-97.23521, 29.59604], [-97.23393, 29.59606], [-97.23365, 29.59606], [-97.23352, 29.59606], [-97.2330999, 29.59606], [-97.23269, 29.59606], [-97.23165, 29.59607], [-97.23124, 29.59608], [-97.23083, 29.59609], [-97.23063, 29.59609], [-97.22991, 29.59611], [-97.2296, 29.59611], [-97.22941, 29.59611], [-97.22918, 29.5961], [-97.22903, 29.59603], [-97.22899, 29.59598], [-97.22889, 29.59585], [-97.2288, 29.59569], [-97.22866, 29.59548], [-97.22865, 29.59545], [-97.2286, 29.59538], [-97.22856, 29.59531], [-97.22848, 29.59513], [-97.22844, 29.59503], [-97.22837, 29.59483], [-97.22827, 29.59443], [-97.22823, 29.59423], [-97.22819, 29.59402], [-97.22819, 29.59399], [-97.22817, 29.59381], [-97.22817, 29.59358], [-97.22817, 29.59327], [-97.22818, 29.5925], [-97.22818, 29.59214], [-97.22816, 29.59193], [-97.22815, 29.59183], [-97.2281, 29.59137], [-97.2281, 29.59121], [-97.22811, 29.59107], [-97.2282, 29.59058], [-97.22826, 29.59014], [-97.22827, 29.58998], [-97.22828, 29.58973], [-97.22829, 29.58963], [-97.22834, 29.5889], [-97.22835, 29.58873], [-97.22836, 29.58842], [-97.22835, 29.58836], [-97.22836, 29.58819], [-97.22838, 29.58791], [-97.22838, 29.58788], [-97.22838, 29.58784], [-97.2283999, 29.58765], [-97.2283999, 29.58761], [-97.2283999, 29.58759], [-97.2283999, 29.58749], [-97.22835, 29.58724], [-97.22833, 29.58718], [-97.22833, 29.58713], [-97.22825, 29.5867], [-97.2282, 29.58646], [-97.22819, 29.58641], [-97.22817, 29.58623], [-97.22817, 29.58613], [-97.22816, 29.58603], [-97.22815, 29.58584], [-97.22815, 29.5857], [-97.2281299, 29.58535], [-97.2281, 29.58515], [-97.2280399, 29.5848], [-97.22803, 29.58476], [-97.22801, 29.58453], [-97.22801, 29.58444], [-97.22799, 29.58408], [-97.22799, 29.58403], [-97.22798, 29.58372], [-97.22796, 29.58306], [-97.22796, 29.583], [-97.22795, 29.58264], [-97.22793, 29.58187], [-97.22792, 29.58172], [-97.2279, 29.58115], [-97.2279, 29.58102], [-97.2279, 29.58101], [-97.22789, 29.58067], [-97.2279, 29.5803], [-97.22789, 29.58019], [-97.2275499, 29.57926], [-97.2275, 29.57837], [-97.22747, 29.57785], [-97.22744, 29.57693], [-97.2273699, 29.57514], [-97.22734, 29.57442], [-97.2272799, 29.5728], [-97.22727, 29.57244], [-97.22724, 29.57172], [-97.22723, 29.57151], [-97.2272, 29.57144], [-97.2272, 29.57138], [-97.2272, 29.57137], [-97.2272, 29.57128], [-97.2271899, 29.57121], [-97.2271899, 29.57119], [-97.22718, 29.57114], [-97.22715, 29.57109], [-97.2270999, 29.57104], [-97.22704, 29.571], [-97.22697, 29.57098], [-97.22689, 29.57097], [-97.22681, 29.57097], [-97.2266999, 29.57097], [-97.22649, 29.57098], [-97.22525, 29.57101], [-97.22484, 29.57102], [-97.22442, 29.57103], [-97.22422, 29.57104], [-97.2236, 29.57105], [-97.22318, 29.57107], [-97.22277, 29.57108], [-97.22159, 29.57111], [-97.22112, 29.57112], [-97.21988, 29.57116], [-97.21917, 29.57117], [-97.21905, 29.57117], [-97.21807, 29.57117], [-97.21801, 29.57117], [-97.21771, 29.57117], [-97.2176099, 29.57115], [-97.2175199, 29.57114], [-97.2174299, 29.57111], [-97.21735, 29.57107], [-97.21731, 29.57105], [-97.21727, 29.57103], [-97.2172, 29.57098], [-97.21713, 29.57093], [-97.21706, 29.57086], [-97.21701, 29.5708], [-97.21696, 29.57073], [-97.21691, 29.57065], [-97.2168, 29.57041], [-97.21666, 29.57016], [-97.2165799, 29.57001], [-97.21635, 29.56958], [-97.2163, 29.56951], [-97.21621, 29.56935], [-97.21614, 29.56919], [-97.21609, 29.56903], [-97.21608, 29.56894], [-97.21607, 29.56886], [-97.21606, 29.56846], [-97.21606, 29.568], [-97.21606, 29.56788], [-97.21604, 29.56651], [-97.21601, 29.56471], [-97.21601, 29.5647], [-97.2159999, 29.56425], [-97.21599, 29.56381], [-97.21599, 29.56345], [-97.21596, 29.56201], [-97.21595, 29.56156], [-97.21594, 29.56093], [-97.21593, 29.56075], [-97.21593, 29.56057], [-97.21592, 29.56039], [-97.2159099, 29.56016], [-97.21592, 29.55949], [-97.21592, 29.55947], [-97.2159, 29.55933], [-97.21588, 29.55928], [-97.21585, 29.55923], [-97.2158, 29.55919], [-97.21575, 29.55917], [-97.2157, 29.55915], [-97.21557, 29.55914], [-97.21556, 29.55914], [-97.21536, 29.55913], [-97.21516, 29.55912], [-97.21474, 29.5591], [-97.21454, 29.5591], [-97.21433, 29.55909], [-97.21392, 29.55907], [-97.21392, 29.55907]]}, "properties": {"surface": "two_track", "label": "Ranch two-track", "color": "#6B5A45", "miles": 5.35, "start_mi": 26.86, "end_mi": 32.2, "road": "County Road 397", "elev_ft": [271, 273, 275, 275, 275, 275, 275, 275, 275, 275, 275, 274, 273, 273, 273, 273, 273, 273, 275, 276, 276, 275, 276, 277, 278, 279, 279, 279, 279, 279, 280, 280, 280, 285, 286, 294, 296, 298, 298, 298, 298, 299, 299, 301, 308, 309, 309, 309, 309, 308, 307, 307, 313, 316, 318, 321, 327, 329, 330, 332, 342, 343, 343, 340, 338, 329, 323, 319, 316, 308, 308, 308, 306, 306, 306, 305, 306, 307, 307, 307, 308, 311, 311, 312, 314, 316, 318, 319, 320, 320, 320, 329, 330, 330, 332, 338, 338, 339, 339, 339, 339, 338, 338, 324, 322, 314, 313, 312, 313, 312, 312, 310, 310, 310, 310, 311, 312, 312, 313, 314, 315, 315, 316, 315, 316, 316, 316, 316, 317, 317, 318, 319, 320, 320, 320, 324, 324, 325, 327, 327, 329, 329, 329, 329, 331, 332, 339, 340, 339, 342, 353, 355, 355, 353, 345, 341, 340, 340, 339, 338, 338, 337, 337, 336, 335, 334, 334, 334, 333, 333, 333, 332, 332, 334, 335, 341, 344, 346, 353, 356, 361, 364, 364, 363, 363, 362, 362, 362, 362, 362, 362, 363, 363, 362, 363, 364, 365, 368, 371, 372, 373, 377, 378, 381, 381, 381, 382, 383, 384, 390, 390, 400, 405, 405, 404, 403, 410, 428, 437, 448, 449, 452, 454, 456, 459, 460, 462, 463, 464, 464, 464, 465, 465, 465, 467, 469, 476, 480, 483, 486, 486]}}, {"type": "Feature", "geometry": {"type": "LineString", "coordinates": [[-97.21415, 29.55902], [-97.21431, 29.55897], [-97.2144299, 29.55894], [-97.21465, 29.55885], [-97.21469, 29.55883], [-97.21487, 29.55876], [-97.21501, 29.55869], [-97.21519, 29.55859], [-97.21523, 29.55856], [-97.21534, 29.55848], [-97.21539, 29.55845], [-97.21548, 29.55839], [-97.2157, 29.55822], [-97.21651, 29.55757], [-97.21662, 29.55749], [-97.21756, 29.55674], [-97.21772, 29.5566], [-97.21802, 29.5564], [-97.21832, 29.55623]]}, "properties": {"surface": "pavement", "label": "Pavement", "color": "#4A5568", "miles": 0.32, "start_mi": 32.2, "end_mi": 32.52, "road": "FM 532", "elev_ft": [486, 485, 482, 478, 478, 476, 475, 472, 472, 471, 470, 469, 466, 454, 453, 443, 442, 441, 433]}}, {"type": "Feature", "geometry": {"type": "LineString", "coordinates": [[-97.21874, 29.55605], [-97.21912, 29.55593], [-97.21912, 29.55593], [-97.21912, 29.55575], [-97.21912, 29.55545], [-97.21912, 29.55536], [-97.2191, 29.55485], [-97.21911, 29.55478], [-97.21911, 29.55473], [-97.2191, 29.55468], [-97.2191, 29.55464], [-97.2191, 29.55447], [-97.21912, 29.55443], [-97.21911, 29.55431], [-97.21911, 29.55429], [-97.2191, 29.55411], [-97.2191, 29.55393], [-97.2191, 29.55377], [-97.21911, 29.55353], [-97.2191, 29.55321], [-97.2191, 29.55303], [-97.21909, 29.55267], [-97.21909, 29.55245], [-97.2191, 29.55231], [-97.21911, 29.55194], [-97.21915, 29.55105], [-97.21918, 29.55049], [-97.21921, 29.55016], [-97.21924, 29.54998], [-97.21925, 29.54997], [-97.2193, 29.54981], [-97.21948, 29.54939], [-97.21952, 29.54929], [-97.21964, 29.54895], [-97.21964, 29.54893], [-97.21975, 29.54844], [-97.21975, 29.54838], [-97.21977, 29.54824], [-97.2197599, 29.54818], [-97.21979, 29.54808], [-97.21982, 29.54797], [-97.21986, 29.54791], [-97.21996, 29.54776], [-97.21997, 29.54774], [-97.22002, 29.5477], [-97.22009, 29.54763], [-97.22016, 29.54753], [-97.22032, 29.54738], [-97.2204, 29.54733], [-97.22097, 29.54687], [-97.22127, 29.54664], [-97.22148, 29.54647], [-97.22159, 29.54638], [-97.22191, 29.54615], [-97.22201, 29.5461], [-97.22207, 29.54604], [-97.22211, 29.54601], [-97.22253, 29.54571], [-97.22278, 29.5455], [-97.22298, 29.54533], [-97.22328, 29.54508], [-97.22356, 29.54485], [-97.22357, 29.54484], [-97.22404, 29.54448], [-97.22434, 29.54428], [-97.22486, 29.54392], [-97.2252199, 29.54368], [-97.22529, 29.54362], [-97.22548, 29.54346], [-97.22555, 29.54341], [-97.22593, 29.54308], [-97.22608, 29.54256], [-97.22608, 29.54253], [-97.22615, 29.54232], [-97.2262, 29.54196], [-97.2262, 29.54185], [-97.22618, 29.54131], [-97.22617, 29.54113], [-97.22617, 29.54097], [-97.22618, 29.54041], [-97.22619, 29.54001], [-97.2262, 29.53985], [-97.22621, 29.53934], [-97.22622, 29.53861], [-97.22621, 29.53826], [-97.2262, 29.5379]]}, "properties": {"surface": "unknown", "label": "Unverified", "color": "#9A9389", "miles": 1.44, "start_mi": 32.52, "end_mi": 33.96, "road": "County Road 381", "elev_ft": [433, 436, 436, 438, 439, 439, 434, 433, 432, 431, 431, 428, 428, 427, 427, 427, 430, 432, 434, 437, 438, 439, 438, 437, 429, 417, 409, 402, 399, 399, 397, 391, 389, 383, 383, 384, 384, 382, 382, 382, 382, 382, 381, 382, 381, 381, 382, 381, 381, 382, 384, 385, 385, 387, 388, 389, 389, 391, 392, 392, 389, 381, 381, 371, 367, 361, 359, 358, 357, 356, 360, 364, 365, 368, 370, 370, 373, 372, 372, 379, 381, 386, 399, 410, 416, 418]}}, {"type": "Feature", "geometry": {"type": "LineString", "coordinates": [[-97.22619, 29.53736], [-97.22619, 29.53736], [-97.22608, 29.53734], [-97.22562, 29.53733], [-97.22544, 29.53733], [-97.22537, 29.53734], [-97.22527, 29.53734], [-97.22519, 29.53734], [-97.22511, 29.53733], [-97.22499, 29.53728], [-97.22496, 29.5372], [-97.22495, 29.53712], [-97.22495, 29.53709], [-97.22492, 29.53659], [-97.22492, 29.53655], [-97.22491, 29.53634], [-97.22489, 29.53595], [-97.22488, 29.53583], [-97.22486, 29.53556], [-97.22486, 29.53547], [-97.2248199, 29.53476], [-97.2248, 29.53438], [-97.22477, 29.53398], [-97.22475, 29.53368], [-97.2247, 29.53301], [-97.2247, 29.53296], [-97.22468, 29.5326], [-97.22465, 29.53204], [-97.2246399, 29.53197], [-97.22462, 29.53192], [-97.2246, 29.53189], [-97.22459, 29.53186], [-97.22454, 29.53181], [-97.22448, 29.53177], [-97.2244, 29.53175], [-97.22432, 29.53173], [-97.22416, 29.53171], [-97.22406, 29.53171], [-97.22405, 29.53171], [-97.22364, 29.53172], [-97.2232499, 29.53173], [-97.22261, 29.53174], [-97.2226, 29.53174], [-97.22198, 29.53175], [-97.22178, 29.53175], [-97.22151, 29.53175], [-97.22058, 29.53176], [-97.22027, 29.53176], [-97.21996, 29.53176], [-97.21948, 29.53177], [-97.2193, 29.53177], [-97.21916, 29.53177], [-97.2185499, 29.53178], [-97.21847, 29.53178], [-97.21764, 29.5318], [-97.21758, 29.5318], [-97.21702, 29.53181], [-97.217, 29.53181], [-97.21661, 29.53182], [-97.2164899, 29.53182], [-97.21605, 29.53184], [-97.21578, 29.53183], [-97.21538, 29.53183], [-97.2153699, 29.53183], [-97.21496, 29.53183], [-97.21474, 29.53183], [-97.21469, 29.53182], [-97.2146, 29.53176], [-97.21457, 29.53172], [-97.21456, 29.53166], [-97.21456, 29.53138], [-97.21456, 29.53102], [-97.21455, 29.53048], [-97.21455, 29.53012], [-97.21455, 29.53008], [-97.21454, 29.5299], [-97.21453, 29.52959], [-97.21453, 29.52951], [-97.2145199, 29.52931], [-97.21451, 29.52923], [-97.2145, 29.52882], [-97.2145, 29.52857], [-97.2145199, 29.5284], [-97.21453, 29.52833], [-97.21455, 29.52825], [-97.21459, 29.52813], [-97.21468, 29.52796], [-97.21477, 29.52785], [-97.2148, 29.52782], [-97.21494, 29.52774], [-97.21513, 29.52765], [-97.21516, 29.52764], [-97.21519, 29.5276], [-97.2152, 29.52754], [-97.21517, 29.52719], [-97.21514, 29.5266], [-97.21511, 29.5259], [-97.21508, 29.52554], [-97.21507, 29.52519], [-97.21505, 29.52498], [-97.21504, 29.52474], [-97.21503, 29.5246], [-97.21499, 29.52437], [-97.21496, 29.52433], [-97.21493, 29.52431], [-97.2149, 29.5243], [-97.2148799, 29.52429], [-97.21483, 29.52428], [-97.21476, 29.52428], [-97.21393, 29.52429], [-97.21366, 29.52429], [-97.21364, 29.52429], [-97.21325, 29.5243], [-97.21285, 29.5243], [-97.21222, 29.5243], [-97.21182, 29.52431], [-97.2107599, 29.52433], [-97.21001, 29.52434], [-97.20994, 29.52434], [-97.20967, 29.52436], [-97.20948, 29.52436], [-97.20912, 29.52437], [-97.20898, 29.52437], [-97.20837, 29.5244], [-97.20725, 29.52442], [-97.20705, 29.52442], [-97.20581, 29.52444], [-97.20572, 29.52444], [-97.20564, 29.52444], [-97.20549, 29.52444], [-97.20497, 29.52445], [-97.20469, 29.52445], [-97.20463, 29.52444], [-97.20434, 29.52445], [-97.20423, 29.52445], [-97.20417, 29.52446], [-97.20416, 29.52446], [-97.20413, 29.52448], [-97.20411, 29.52449], [-97.20408, 29.52459], [-97.20411, 29.52567], [-97.20412, 29.52587], [-97.20413, 29.52622], [-97.20404, 29.5263], [-97.20374, 29.5263], [-97.20332, 29.52631], [-97.20281, 29.52632], [-97.20281, 29.52632]]}, "properties": {"surface": "two_track", "label": "Ranch two-track", "color": "#6B5A45", "miles": 2.44, "start_mi": 33.96, "end_mi": 36.41, "road": "County Road 393", "elev_ft": [415, 415, 417, 421, 423, 424, 425, 426, 426, 427, 427, 427, 427, 423, 422, 419, 414, 411, 407, 407, 411, 412, 411, 407, 408, 408, 406, 398, 397, 397, 396, 396, 395, 394, 393, 393, 392, 393, 393, 401, 408, 414, 414, 417, 419, 421, 420, 424, 426, 427, 427, 427, 432, 434, 446, 447, 456, 456, 462, 465, 479, 489, 495, 495, 497, 498, 499, 501, 501, 502, 504, 504, 502, 494, 493, 490, 483, 482, 479, 477, 473, 473, 473, 473, 473, 473, 471, 469, 468, 466, 463, 463, 463, 463, 466, 465, 461, 458, 457, 456, 455, 454, 454, 455, 455, 456, 456, 457, 458, 476, 479, 479, 479, 478, 476, 475, 470, 461, 461, 459, 458, 458, 458, 461, 464, 465, 470, 470, 470, 470, 470, 470, 470, 467, 466, 465, 465, 465, 465, 465, 476, 477, 478, 477, 471, 474, 481, 481]}}, {"type": "Feature", "geometry": {"type": "LineString", "coordinates": [[-97.20241, 29.52633], [-97.20199, 29.52634], [-97.20137, 29.52634], [-97.20124, 29.52634], [-97.2003299, 29.52634], [-97.2002, 29.52634], [-97.19961, 29.52635], [-97.199, 29.52637], [-97.19838, 29.52638], [-97.19835, 29.52638], [-97.19687, 29.52639], [-97.1959, 29.52641], [-97.19569, 29.52641], [-97.19487, 29.52642], [-97.19465, 29.52642], [-97.19408, 29.52642], [-97.19376, 29.52643], [-97.19363, 29.52643], [-97.19331, 29.52643], [-97.1932099, 29.52644], [-97.19295, 29.52644], [-97.19239, 29.52644], [-97.19208, 29.52645], [-97.19153, 29.52646], [-97.19126, 29.52646], [-97.1907, 29.52647], [-97.19013, 29.52647], [-97.1898, 29.52648], [-97.18902, 29.52648], [-97.18853, 29.52647], [-97.18853, 29.52647]]}, "properties": {"surface": "unknown", "label": "Unverified", "color": "#9A9389", "miles": 0.83, "start_mi": 36.41, "end_mi": 37.24, "road": "County Road 290", "elev_ft": [489, 494, 498, 499, 504, 505, 505, 503, 492, 492, 472, 459, 454, 443, 441, 437, 438, 438, 439, 440, 443, 448, 450, 455, 456, 458, 460, 463, 469, 471, 471]}}, {"type": "Feature", "geometry": {"type": "LineString", "coordinates": [[-97.18856, 29.52622], [-97.18857, 29.52596], [-97.18857, 29.52591], [-97.18855, 29.52486], [-97.18855, 29.52483], [-97.18853, 29.52439], [-97.18852, 29.52382], [-97.18852, 29.52345], [-97.1885099, 29.52303], [-97.1885099, 29.52299], [-97.1885099, 29.52231], [-97.1885, 29.52188], [-97.1885, 29.52177], [-97.18849, 29.52138], [-97.18847, 29.52123], [-97.18846, 29.52068], [-97.18846, 29.52001], [-97.18845, 29.51985], [-97.18844, 29.51895], [-97.18843, 29.51823], [-97.1884199, 29.51733], [-97.18841, 29.51731], [-97.1884199, 29.51671], [-97.18841, 29.51667], [-97.1884, 29.51662], [-97.18839, 29.51661], [-97.18837, 29.51658], [-97.18834, 29.51654], [-97.1883, 29.51651], [-97.18826, 29.51649], [-97.18821, 29.51646], [-97.18816, 29.51645], [-97.1881, 29.51645], [-97.18765, 29.51646], [-97.18747, 29.51646], [-97.18747, 29.51646], [-97.18746, 29.51633], [-97.18746, 29.51575], [-97.18745, 29.51525], [-97.18745, 29.5151], [-97.18745, 29.5148], [-97.18742, 29.51402], [-97.18741, 29.51368], [-97.18741, 29.51366], [-97.1874, 29.51332], [-97.18737, 29.51252], [-97.18737, 29.51218], [-97.18737, 29.51208], [-97.18736, 29.51127], [-97.18736, 29.51051], [-97.18735, 29.5102], [-97.18735, 29.50974], [-97.18734, 29.50912], [-97.18734, 29.50842], [-97.18734, 29.50786], [-97.18733, 29.50739], [-97.18733, 29.50733], [-97.18734, 29.50728], [-97.18738, 29.50721], [-97.18744, 29.50718], [-97.1874799, 29.50716], [-97.18758, 29.50715], [-97.18826, 29.50714], [-97.18827, 29.50714], [-97.18858, 29.50714], [-97.18923, 29.50712], [-97.1895, 29.50711], [-97.18953, 29.50711], [-97.18977, 29.5071], [-97.18994, 29.5071], [-97.19074, 29.50708], [-97.19137, 29.50707], [-97.1915099, 29.50707], [-97.19155, 29.50706], [-97.19161, 29.50705], [-97.19175, 29.50703], [-97.19184, 29.50704], [-97.19185, 29.50704], [-97.19185, 29.50704], [-97.19185, 29.50688], [-97.19186, 29.50681], [-97.19186, 29.50676], [-97.19186, 29.50673], [-97.19187, 29.50658], [-97.19188, 29.50637], [-97.19187, 29.50602], [-97.19186, 29.50558], [-97.19183, 29.50422], [-97.1918, 29.50388], [-97.1918, 29.50376], [-97.1918, 29.50368], [-97.19179, 29.50353], [-97.19176, 29.5028], [-97.19176, 29.50262], [-97.19174, 29.50226], [-97.19173, 29.50187], [-97.19171, 29.50106], [-97.1917, 29.50023], [-97.19168, 29.4998], [-97.19167, 29.49947], [-97.19166, 29.49913], [-97.19163, 29.49872], [-97.19159, 29.49842], [-97.19157, 29.49824], [-97.19153, 29.49797], [-97.19146, 29.49753], [-97.19123, 29.4961], [-97.19121, 29.49598], [-97.19098, 29.4945], [-97.19096, 29.49433], [-97.19089, 29.49396], [-97.19084, 29.49368], [-97.19083, 29.49357], [-97.19075, 29.49308], [-97.19073, 29.49294], [-97.19069, 29.49261], [-97.19068, 29.49244], [-97.19066, 29.49211], [-97.19066, 29.49201], [-97.19063, 29.4896], [-97.19061, 29.48895], [-97.19061, 29.4886], [-97.19061, 29.48806], [-97.19059, 29.48751], [-97.19059, 29.48743], [-97.19056, 29.48628], [-97.19055, 29.48571], [-97.19052, 29.4846], [-97.19051, 29.484], [-97.19049, 29.48328], [-97.1904799, 29.48298], [-97.19047, 29.48225], [-97.19045, 29.48154], [-97.19044, 29.481], [-97.19042, 29.47992], [-97.19041, 29.47967], [-97.19041, 29.47892], [-97.19041, 29.47871], [-97.19041, 29.47866], [-97.19041, 29.47866]]}, "properties": {"surface": "two_track", "label": "Ranch two-track", "color": "#6B5A45", "miles": 3.6, "start_mi": 37.24, "end_mi": 40.84, "road": "County Road 351", "elev_ft": [469, 467, 466, 456, 456, 452, 449, 446, 442, 442, 435, 430, 429, 427, 426, 422, 421, 421, 423, 424, 423, 423, 419, 419, 419, 419, 419, 419, 418, 418, 418, 418, 417, 414, 412, 412, 412, 414, 413, 413, 411, 402, 397, 397, 401, 403, 403, 403, 412, 415, 418, 422, 428, 435, 440, 447, 448, 448, 448, 447, 447, 447, 442, 442, 440, 435, 436, 436, 439, 441, 451, 457, 459, 460, 461, 462, 462, 462, 462, 462, 462, 462, 462, 464, 468, 474, 484, 505, 506, 507, 507, 508, 514, 515, 515, 514, 504, 493, 489, 485, 481, 476, 473, 473, 474, 474, 475, 476, 497, 499, 503, 505, 504, 504, 504, 503, 503, 503, 503, 496, 494, 493, 491, 490, 490, 484, 483, 482, 483, 483, 484, 482, 481, 478, 468, 465, 456, 453, 453, 453]}}, {"type": "Feature", "geometry": {"type": "LineString", "coordinates": [[-97.19056, 29.47866], [-97.19081, 29.47867], [-97.19103, 29.47867], [-97.19122, 29.47867], [-97.19155, 29.47866], [-97.19185, 29.47867], [-97.1919999, 29.47867], [-97.1924499, 29.47867], [-97.19247, 29.47867], [-97.19287, 29.47867], [-97.19288, 29.47867], [-97.1937, 29.47866], [-97.19389, 29.47866], [-97.19412, 29.47866], [-97.19446, 29.47865], [-97.19488, 29.47865], [-97.19515, 29.47865], [-97.19556, 29.47865], [-97.19581, 29.47864], [-97.1963899, 29.47864], [-97.19681, 29.47864], [-97.1972399, 29.47864], [-97.19759, 29.47864], [-97.19795, 29.47865], [-97.1982699, 29.47865], [-97.19877, 29.47864], [-97.19941, 29.47864], [-97.19982, 29.47863], [-97.2002399, 29.47863], [-97.20038, 29.47863], [-97.20085, 29.47865], [-97.2010899, 29.47864], [-97.20125, 29.47864], [-97.20129, 29.47864], [-97.20219, 29.47864], [-97.20249, 29.47864], [-97.20278, 29.47863], [-97.20352, 29.47864], [-97.20414, 29.47864], [-97.2047599, 29.47864], [-97.20508, 29.47864], [-97.2052, 29.47864], [-97.20573, 29.47864], [-97.20584, 29.47864], [-97.20613, 29.47863], [-97.20683, 29.47864], [-97.20802, 29.47863], [-97.20894, 29.47863], [-97.20895, 29.47863], [-97.20968, 29.47863], [-97.21005, 29.47863], [-97.21015, 29.47862], [-97.21026, 29.47861], [-97.21035, 29.47859], [-97.21042, 29.47857], [-97.21078, 29.47844], [-97.2108499, 29.47843], [-97.2111, 29.47835], [-97.21124, 29.4783], [-97.21124, 29.4783], [-97.2114299, 29.47823], [-97.21186, 29.47809], [-97.2119, 29.47807], [-97.21263, 29.47783], [-97.21283, 29.47776], [-97.2129999, 29.47771], [-97.21322, 29.47763], [-97.2133999, 29.47756], [-97.21383, 29.47742], [-97.21457, 29.47718], [-97.2146099, 29.47716], [-97.21571, 29.47681], [-97.21592, 29.47674], [-97.21596, 29.47672], [-97.21617, 29.47666], [-97.21637, 29.47659], [-97.21679, 29.47645], [-97.2173, 29.47627], [-97.21781, 29.4761], [-97.21791, 29.47607], [-97.21811, 29.476], [-97.21821, 29.47597], [-97.2184599, 29.47588], [-97.21974, 29.47544], [-97.22, 29.47535], [-97.22077, 29.4751], [-97.2208, 29.47509], [-97.2213699, 29.47491], [-97.2219, 29.47475], [-97.22255, 29.47455], [-97.22272, 29.4745], [-97.22306, 29.4744], [-97.22365, 29.47422], [-97.22389, 29.47415], [-97.22459, 29.47394], [-97.22467, 29.47392], [-97.22519, 29.47376], [-97.2254899, 29.47367], [-97.22565, 29.47362], [-97.22573, 29.4736], [-97.22663, 29.47333], [-97.22701, 29.47322], [-97.22733, 29.47312], [-97.2274599, 29.47308], [-97.22754, 29.47307], [-97.22762, 29.47308], [-97.22765, 29.4731], [-97.22768, 29.47312], [-97.22771, 29.47316], [-97.22772, 29.4732], [-97.2277299, 29.47325], [-97.22776, 29.47339], [-97.2279, 29.47403], [-97.2279, 29.47407], [-97.22792, 29.4741], [-97.22795, 29.47413], [-97.22797, 29.47415], [-97.228, 29.47416], [-97.22805, 29.47417], [-97.22808, 29.47417], [-97.22809, 29.47417], [-97.22814, 29.47415], [-97.22847, 29.47395], [-97.2286699, 29.47381], [-97.22896, 29.47365], [-97.22911, 29.47357], [-97.2293, 29.47346], [-97.2293, 29.47346], [-97.22938, 29.47338], [-97.22987, 29.4731], [-97.23057, 29.47271], [-97.23109, 29.47242], [-97.23134, 29.47227], [-97.23143, 29.47222], [-97.23246, 29.47162], [-97.23297, 29.47133], [-97.23298, 29.47132], [-97.23349, 29.47101], [-97.2337, 29.47088], [-97.23463, 29.47033], [-97.23518, 29.46999], [-97.23548, 29.4698], [-97.2355199, 29.46978], [-97.23566, 29.4697], [-97.23587, 29.46958], [-97.23623, 29.46936], [-97.23671, 29.46907], [-97.23696, 29.46892], [-97.23757, 29.46856], [-97.2379, 29.46835], [-97.23804, 29.46827], [-97.23841, 29.46805], [-97.2389199, 29.46774], [-97.23918, 29.46759], [-97.23943, 29.46743], [-97.23984, 29.46719], [-97.2399499, 29.46713], [-97.24097, 29.46652], [-97.24135, 29.46629], [-97.24138, 29.46627], [-97.24149, 29.4662], [-97.24153, 29.46616], [-97.24153, 29.46616], [-97.24165, 29.4662], [-97.24171, 29.46622], [-97.2419199, 29.46629], [-97.24269, 29.46651], [-97.24308, 29.46663], [-97.24334, 29.4667], [-97.24347, 29.46675], [-97.24367, 29.46681], [-97.24375, 29.46683], [-97.24406, 29.46692], [-97.24464, 29.46709], [-97.24484, 29.46715], [-97.24524, 29.46726], [-97.24563, 29.46737], [-97.24641, 29.46759], [-97.24681, 29.46771], [-97.24691, 29.46774], [-97.2473, 29.46786], [-97.24739, 29.46789], [-97.24762, 29.46795], [-97.2480099, 29.46807], [-97.24825, 29.46813], [-97.24846, 29.4682], [-97.2489, 29.46833], [-97.24899, 29.46836], [-97.24977, 29.46858], [-97.2503, 29.46874], [-97.25036, 29.46875], [-97.251, 29.46894], [-97.25115, 29.46898], [-97.25128, 29.46902], [-97.25153, 29.4691], [-97.25164, 29.46915], [-97.25171, 29.4692], [-97.25174, 29.46923], [-97.25178, 29.46928], [-97.25181, 29.46934], [-97.25183, 29.46942], [-97.25184, 29.46956], [-97.2518599, 29.46981], [-97.25188, 29.47005], [-97.25188, 29.47007], [-97.25189, 29.47028], [-97.25191, 29.47043], [-97.25191, 29.47046], [-97.25193, 29.47055], [-97.25194, 29.47057], [-97.2519499, 29.47058], [-97.2519499, 29.4706], [-97.25197, 29.47061], [-97.25198, 29.47063], [-97.25199, 29.47064], [-97.252, 29.47065], [-97.25202, 29.47066], [-97.25203, 29.47067], [-97.25205, 29.47068], [-97.25208, 29.47069], [-97.25212, 29.4707], [-97.25214, 29.47071], [-97.25265, 29.47083], [-97.25272, 29.47085], [-97.25301, 29.47092], [-97.25331, 29.471], [-97.25338, 29.47102], [-97.25387, 29.47113], [-97.25411, 29.47119], [-97.2551, 29.47144], [-97.25584, 29.47163], [-97.25669, 29.47185], [-97.25681, 29.47188], [-97.25718, 29.47197], [-97.25728, 29.472], [-97.25765, 29.4721], [-97.25793, 29.47216], [-97.25838, 29.47227], [-97.25892, 29.47241], [-97.25895, 29.47242], [-97.25952, 29.47256], [-97.25967, 29.4726], [-97.26011, 29.4727], [-97.26051, 29.4728], [-97.26073, 29.47286], [-97.26083, 29.4729], [-97.26089, 29.47294], [-97.26091, 29.47299], [-97.26096, 29.47308], [-97.26099, 29.47321], [-97.261, 29.47345], [-97.26096, 29.47378], [-97.26093, 29.47407], [-97.26091, 29.47418], [-97.26088, 29.47431], [-97.26083, 29.47491], [-97.26083, 29.47497], [-97.26081, 29.47517], [-97.26081, 29.47524], [-97.26081, 29.47535], [-97.26081, 29.47546], [-97.26083, 29.4755], [-97.26085, 29.47555], [-97.26087, 29.4756], [-97.26091, 29.47564], [-97.261, 29.47574], [-97.26132, 29.47608], [-97.2615, 29.47627], [-97.26182, 29.47661], [-97.26204, 29.47684], [-97.26205, 29.47686], [-97.26218, 29.47699], [-97.26224, 29.47708], [-97.26228, 29.47715], [-97.26232, 29.47727], [-97.26235, 29.47739], [-97.26236, 29.47748], [-97.26235, 29.47753], [-97.26233, 29.4776], [-97.2622899, 29.47769], [-97.26224, 29.47778], [-97.26219, 29.47784], [-97.26212, 29.4779], [-97.26204, 29.47796], [-97.26198, 29.478], [-97.26191, 29.47803], [-97.26182, 29.47804], [-97.26168, 29.47804], [-97.26156, 29.47804], [-97.26122, 29.47805], [-97.26111, 29.47805], [-97.26106, 29.47806], [-97.26102, 29.4781], [-97.261, 29.47814], [-97.261, 29.47823], [-97.26102, 29.47856], [-97.26104, 29.47899], [-97.26106, 29.4793], [-97.26106, 29.47933], [-97.26109, 29.47959], [-97.26112, 29.47985], [-97.26118, 29.4802], [-97.26125, 29.48062], [-97.26131, 29.48094], [-97.2614, 29.4814], [-97.26141, 29.48144], [-97.26145, 29.48162], [-97.26145, 29.48175], [-97.2614399, 29.48185], [-97.26141, 29.48198], [-97.26133, 29.48233], [-97.26133, 29.48236], [-97.2612, 29.48285], [-97.26119, 29.48286], [-97.26106, 29.48337], [-97.26096, 29.48373], [-97.26092, 29.4839], [-97.26089, 29.48399], [-97.26085, 29.48419], [-97.26085, 29.48419]]}, "properties": {"surface": "unknown", "label": "Unverified", "color": "#9A9389", "miles": 5.55, "start_mi": 40.84, "end_mi": 46.39, "road": "County Road 363", "elev_ft": [452, 450, 448, 445, 441, 440, 440, 438, 438, 438, 438, 445, 448, 451, 457, 465, 469, 473, 470, 469, 474, 479, 483, 488, 491, 497, 498, 497, 492, 490, 485, 480, 478, 478, 463, 458, 455, 444, 436, 432, 436, 438, 444, 445, 447, 450, 460, 474, 474, 487, 491, 492, 494, 496, 497, 501, 502, 502, 502, 502, 502, 502, 501, 502, 502, 502, 502, 502, 500, 494, 494, 493, 496, 496, 498, 498, 501, 507, 511, 512, 515, 516, 518, 521, 520, 515, 515, 508, 503, 494, 492, 488, 482, 479, 474, 474, 470, 469, 469, 468, 457, 453, 449, 448, 447, 446, 446, 446, 445, 445, 445, 445, 445, 445, 445, 445, 445, 445, 445, 445, 445, 445, 443, 443, 442, 445, 450, 450, 450, 452, 458, 461, 465, 466, 480, 485, 485, 484, 484, 475, 472, 474, 474, 476, 479, 484, 492, 496, 507, 514, 518, 525, 532, 533, 534, 535, 536, 534, 528, 528, 528, 527, 527, 526, 526, 523, 508, 503, 500, 498, 495, 495, 500, 512, 514, 518, 517, 507, 510, 512, 512, 511, 509, 504, 499, 493, 484, 482, 459, 447, 446, 447, 447, 448, 447, 446, 446, 446, 446, 447, 448, 449, 452, 456, 456, 456, 457, 457, 457, 457, 457, 457, 456, 456, 456, 456, 455, 455, 454, 453, 452, 452, 439, 438, 432, 427, 426, 417, 414, 400, 394, 385, 384, 381, 381, 378, 373, 371, 369, 369, 369, 370, 370, 374, 375, 375, 375, 375, 375, 375, 374, 374, 373, 372, 371, 363, 362, 360, 359, 356, 353, 352, 351, 350, 350, 350, 350, 350, 342, 340, 340, 340, 340, 340, 341, 342, 344, 344, 345, 345, 346, 346, 347, 347, 348, 348, 349, 351, 353, 360, 361, 361, 361, 362, 361, 359, 355, 355, 355, 356, 357, 360, 365, 366, 367, 366, 366, 366, 366, 365, 367, 367, 377, 378, 385, 388, 390, 390, 390, 390]}}, {"type": "Feature", "geometry": {"type": "LineString", "coordinates": [[-97.26064, 29.48422], [-97.26058, 29.48423], [-97.26045, 29.48427], [-97.26028, 29.48431], [-97.26008, 29.48435], [-97.25968, 29.48446], [-97.25937, 29.48453], [-97.2588899, 29.48466], [-97.2587999, 29.48468], [-97.25851, 29.48475], [-97.25822, 29.48483], [-97.25794, 29.4849], [-97.25787, 29.48492], [-97.25731, 29.48506], [-97.25708, 29.48513], [-97.25702, 29.48514], [-97.25672, 29.48523], [-97.25669, 29.48524], [-97.25652, 29.48528], [-97.25632, 29.48531], [-97.25615, 29.48533], [-97.25608, 29.48533], [-97.2558899, 29.48533], [-97.25566, 29.48534], [-97.25448, 29.48537], [-97.2536, 29.4854], [-97.25275, 29.48542], [-97.2520399, 29.48544], [-97.25133, 29.48547], [-97.25123, 29.48547], [-97.25108, 29.48549], [-97.251, 29.4855], [-97.25097, 29.48551], [-97.2509199, 29.48553], [-97.2509199, 29.48553], [-97.25094, 29.48599], [-97.25098, 29.48689], [-97.25099, 29.48707], [-97.251, 29.48725], [-97.25102, 29.48772], [-97.25102, 29.48782], [-97.25103, 29.48812], [-97.25107, 29.48897], [-97.25112, 29.48987], [-97.25113, 29.49003], [-97.25115, 29.49065], [-97.25117, 29.49088], [-97.2512, 29.49106], [-97.25122, 29.49113], [-97.25123, 29.49116], [-97.25127, 29.49126], [-97.25136, 29.49142], [-97.25144, 29.49152], [-97.25153, 29.49163], [-97.25174, 29.49186], [-97.25184, 29.49196], [-97.2523, 29.49242], [-97.25311, 29.49324], [-97.2534, 29.49353], [-97.25379, 29.49392], [-97.25379, 29.49392], [-97.25379, 29.49392], [-97.25409, 29.49423], [-97.25489, 29.49503], [-97.255, 29.49515], [-97.25558, 29.49574], [-97.25621, 29.49638], [-97.25667, 29.49683], [-97.25719, 29.49735], [-97.25729, 29.49747], [-97.25737, 29.4976], [-97.2574, 29.49767], [-97.25742, 29.49774], [-97.25743, 29.4978], [-97.25744, 29.49788], [-97.2574999, 29.49848], [-97.25753, 29.49871], [-97.25758, 29.49918], [-97.25761, 29.49942], [-97.2576799, 29.50001], [-97.25771, 29.50028], [-97.25773, 29.5005], [-97.25775, 29.5006], [-97.25778, 29.50091], [-97.25781, 29.50104], [-97.25783, 29.5011], [-97.25788, 29.50116], [-97.25793, 29.50124], [-97.25815, 29.50148], [-97.25833, 29.50167], [-97.25841, 29.50176], [-97.25866, 29.50204], [-97.2589, 29.50224], [-97.25902, 29.50234], [-97.25944, 29.50276], [-97.25967, 29.503], [-97.2599, 29.50324], [-97.26004, 29.50339], [-97.26027, 29.50364], [-97.26046, 29.50383], [-97.26075, 29.50416], [-97.26089, 29.5043], [-97.26101, 29.50444], [-97.26109, 29.50449], [-97.26116, 29.50453], [-97.26124, 29.50457], [-97.26139, 29.50462], [-97.26159, 29.50466], [-97.26182, 29.50469], [-97.26213, 29.50474], [-97.26305, 29.50488], [-97.26378, 29.50498], [-97.26387, 29.50498], [-97.26397, 29.50497], [-97.264, 29.50496], [-97.26406, 29.50494], [-97.26418, 29.50492], [-97.26433, 29.50484], [-97.26448, 29.50473], [-97.2649, 29.50443], [-97.2651999, 29.50419], [-97.26526, 29.50416], [-97.2653, 29.50414], [-97.26533, 29.50413], [-97.2654, 29.5041], [-97.2654699, 29.50409], [-97.26554, 29.50409], [-97.26561, 29.50409], [-97.26577, 29.50412], [-97.26617, 29.50423], [-97.2662, 29.50423], [-97.26653, 29.50432], [-97.26713, 29.50449], [-97.26718, 29.50451], [-97.26777, 29.50467], [-97.26817, 29.50477], [-97.26929, 29.50507], [-97.26955, 29.50514], [-97.26991, 29.50523], [-97.26995, 29.50524], [-97.2701, 29.50529], [-97.27057, 29.5054], [-97.27101, 29.50553], [-97.27126, 29.50561], [-97.27132, 29.50563], [-97.27176, 29.50576], [-97.27189, 29.5058], [-97.27199, 29.50581], [-97.27204, 29.50582], [-97.27217, 29.50583], [-97.2726, 29.50581], [-97.27289, 29.50579], [-97.27322, 29.50576], [-97.27425, 29.50568], [-97.2743, 29.50568], [-97.27561, 29.50561], [-97.27576, 29.5056], [-97.27618, 29.50558], [-97.2765, 29.50556], [-97.277, 29.50554], [-97.27742, 29.50552], [-97.27776, 29.50551], [-97.27792, 29.5055], [-97.2780499, 29.5055], [-97.27815, 29.50551], [-97.27826, 29.50553], [-97.27844, 29.50557], [-97.27863, 29.50565], [-97.27883, 29.50574], [-97.27918, 29.50589], [-97.27951, 29.50604], [-97.27974, 29.50613], [-97.2808, 29.50652], [-97.2809599, 29.50659], [-97.2810499, 29.50663], [-97.28143, 29.5068], [-97.28191, 29.50705], [-97.28215, 29.50717], [-97.28222, 29.50721], [-97.28283, 29.50754], [-97.2831, 29.50768], [-97.28335, 29.50781], [-97.28376, 29.50803], [-97.28397, 29.50813], [-97.28417, 29.5082], [-97.28424, 29.50821], [-97.2843199, 29.50822], [-97.28447, 29.5082], [-97.28456, 29.50819], [-97.2847199, 29.50815], [-97.28511, 29.50804], [-97.2851699, 29.50802], [-97.28539, 29.50795], [-97.28546, 29.50793], [-97.28563, 29.50788], [-97.28604, 29.50776], [-97.28633, 29.50768], [-97.28652, 29.50764], [-97.28671, 29.50762], [-97.28677, 29.50762], [-97.28682, 29.50761], [-97.28721, 29.50761], [-97.28841, 29.50761], [-97.28868, 29.50762], [-97.28939, 29.50762], [-97.29027, 29.50762], [-97.29028, 29.50762], [-97.29036, 29.50762], [-97.29043, 29.50763], [-97.29049, 29.50765], [-97.29055, 29.50768], [-97.29059, 29.50771], [-97.2906299, 29.50776], [-97.29066, 29.50782], [-97.29068, 29.50788], [-97.29069, 29.50795], [-97.29069, 29.50808], [-97.2907, 29.50845], [-97.2907, 29.50864], [-97.29071, 29.50869], [-97.29073, 29.50873], [-97.29076, 29.50876], [-97.2908099, 29.50879], [-97.2908099, 29.50879], [-97.29089, 29.50878], [-97.29096, 29.50877], [-97.29122, 29.50876], [-97.29226, 29.50875], [-97.29333, 29.50875], [-97.29345, 29.50875], [-97.29397, 29.50875], [-97.29432, 29.50875], [-97.2954199, 29.50875], [-97.29693, 29.50875], [-97.29895, 29.50876], [-97.29932, 29.50876], [-97.30017, 29.50876], [-97.3018699, 29.50877], [-97.30197, 29.50876], [-97.30203, 29.50876], [-97.3022699, 29.50876], [-97.30302, 29.50877], [-97.30345, 29.50878], [-97.30369, 29.50878], [-97.30414, 29.50878], [-97.30489, 29.50875], [-97.30493, 29.50875], [-97.30597, 29.50869], [-97.30711, 29.50864], [-97.3072, 29.50863], [-97.30903, 29.50857], [-97.30978, 29.50854], [-97.31009, 29.50852], [-97.31041, 29.50851], [-97.31071, 29.5085], [-97.31108, 29.50848], [-97.31144, 29.50847], [-97.31194, 29.50843], [-97.31195, 29.50843], [-97.31218, 29.50839], [-97.3128, 29.50822], [-97.3132399, 29.5081], [-97.31346, 29.50809], [-97.31367, 29.50816], [-97.31392, 29.50822], [-97.31405, 29.50825], [-97.31425, 29.50827], [-97.31466, 29.50832], [-97.31506, 29.50841], [-97.31511, 29.50842], [-97.3153899, 29.50847], [-97.3158, 29.50854], [-97.31587, 29.50856], [-97.31621, 29.50865], [-97.3165099, 29.50875], [-97.31688, 29.50889], [-97.31704, 29.5089], [-97.31731, 29.50893], [-97.31827, 29.50882], [-97.31859, 29.50879], [-97.31868, 29.50878], [-97.31886, 29.50876], [-97.31941, 29.50872], [-97.31993, 29.5087], [-97.32095, 29.50865], [-97.32176, 29.5086], [-97.32219, 29.50858], [-97.32286, 29.50855], [-97.32322, 29.50853], [-97.32438, 29.50847], [-97.32576, 29.5084], [-97.32625, 29.50838], [-97.32699, 29.50834], [-97.3272099, 29.50833], [-97.32745, 29.50832], [-97.32755, 29.50831], [-97.32793, 29.5083], [-97.32855, 29.50827], [-97.32875, 29.50826], [-97.32881, 29.50826], [-97.32885, 29.50826], [-97.32896, 29.50825], [-97.3295, 29.50822], [-97.33094, 29.50816], [-97.3316399, 29.50813], [-97.33247, 29.5081], [-97.33259, 29.50809], [-97.3335, 29.50808], [-97.33418, 29.50807], [-97.33556, 29.50807], [-97.33578, 29.50807], [-97.33691, 29.50806], [-97.33722, 29.50806], [-97.33778, 29.50807], [-97.33805, 29.50807], [-97.33846, 29.50808], [-97.3385, 29.50808], [-97.33887, 29.50807], [-97.33929, 29.50806], [-97.33941, 29.50805], [-97.34004, 29.50797], [-97.34025, 29.50793], [-97.3404599, 29.5079], [-97.34066, 29.50785], [-97.34108, 29.50776], [-97.34169, 29.50761], [-97.34229, 29.50743], [-97.34244, 29.50738], [-97.34341, 29.50707], [-97.34427, 29.5068], [-97.3445, 29.50675], [-97.3445799, 29.50673], [-97.34496, 29.50666], [-97.34521, 29.50662], [-97.3453399, 29.50659], [-97.34553, 29.50657], [-97.34571, 29.50653], [-97.34581, 29.50651], [-97.3462799, 29.50647], [-97.34674, 29.50642], [-97.34719, 29.50642], [-97.34746, 29.50641], [-97.34756, 29.50643], [-97.34779, 29.50645], [-97.34838, 29.50651], [-97.34841, 29.50652], [-97.34961, 29.50667], [-97.34978, 29.5067], [-97.3504899, 29.50677], [-97.35098, 29.50682], [-97.35104, 29.50683], [-97.35109, 29.50683], [-97.35166, 29.50689], [-97.35186, 29.50691], [-97.35188, 29.50691], [-97.3520999, 29.50695], [-97.35241, 29.50701], [-97.35272, 29.50709], [-97.35283, 29.50711], [-97.35326, 29.50723], [-97.35346, 29.50727], [-97.3538, 29.50736], [-97.3542499, 29.50748], [-97.35431, 29.5075], [-97.3545, 29.50757], [-97.35456, 29.50758], [-97.35456, 29.50758]]}, "properties": {"surface": "two_track", "label": "Ranch two-track", "color": "#6B5A45", "miles": 7.94, "start_mi": 46.39, "end_mi": 54.33, "road": "County Road 354", "elev_ft": [397, 398, 400, 403, 406, 411, 417, 421, 424, 429, 430, 434, 434, 439, 439, 439, 438, 438, 439, 441, 442, 443, 445, 448, 459, 469, 480, 491, 499, 500, 502, 503, 504, 504, 504, 496, 485, 482, 480, 473, 471, 469, 456, 444, 442, 439, 437, 435, 435, 435, 434, 433, 433, 433, 434, 435, 435, 427, 424, 419, 419, 419, 415, 406, 404, 400, 393, 390, 384, 382, 380, 380, 379, 379, 376, 367, 361, 360, 359, 351, 351, 351, 352, 353, 355, 356, 356, 357, 358, 358, 358, 355, 350, 349, 340, 335, 332, 328, 331, 334, 336, 337, 338, 338, 339, 339, 340, 342, 347, 350, 357, 355, 355, 355, 355, 355, 355, 355, 355, 355, 355, 354, 354, 354, 354, 354, 353, 353, 352, 350, 350, 347, 340, 340, 335, 333, 328, 326, 324, 324, 323, 315, 308, 307, 306, 306, 306, 307, 308, 309, 312, 316, 320, 333, 333, 350, 352, 354, 353, 349, 344, 340, 338, 337, 337, 336, 333, 331, 328, 323, 321, 320, 319, 319, 319, 316, 311, 309, 308, 301, 298, 295, 291, 289, 286, 286, 285, 284, 284, 284, 288, 289, 290, 290, 291, 290, 289, 289, 289, 288, 288, 287, 284, 282, 280, 279, 279, 279, 278, 278, 278, 278, 278, 278, 278, 278, 278, 280, 280, 280, 280, 280, 280, 280, 280, 280, 280, 277, 275, 274, 274, 274, 273, 272, 271, 270, 268, 263, 263, 263, 262, 260, 260, 260, 259, 259, 259, 260, 259, 259, 254, 253, 253, 252, 252, 252, 253, 253, 253, 253, 251, 251, 250, 237, 239, 248, 251, 251, 248, 248, 246, 244, 244, 243, 242, 242, 241, 240, 245, 246, 247, 248, 251, 255, 261, 264, 266, 266, 266, 266, 264, 265, 266, 265, 265, 265, 262, 260, 260, 260, 260, 260, 261, 263, 264, 264, 264, 266, 268, 275, 276, 280, 282, 288, 290, 292, 292, 291, 286, 284, 273, 270, 269, 269, 268, 265, 262, 262, 260, 261, 258, 257, 261, 262, 263, 264, 265, 265, 267, 268, 269, 271, 271, 274, 281, 281, 297, 299, 302, 302, 302, 302, 303, 303, 303, 303, 304, 305, 305, 306, 306, 307, 307, 308, 308, 308, 308]}}, {"type": "Feature", "geometry": {"type": "LineString", "coordinates": [[-97.35478, 29.50804], [-97.35489, 29.50831], [-97.35518, 29.50898], [-97.35526, 29.50915], [-97.35526, 29.50915], [-97.35539, 29.50912], [-97.35543, 29.5091], [-97.35548, 29.50909], [-97.35674, 29.50868], [-97.35685, 29.50864], [-97.35693, 29.50862], [-97.35751, 29.50842], [-97.35755, 29.5084], [-97.35826, 29.50816], [-97.35847, 29.50808], [-97.35866, 29.50802], [-97.35936, 29.50778], [-97.35963, 29.50769], [-97.35995, 29.50758], [-97.36059, 29.50738], [-97.36079, 29.50733], [-97.36099, 29.50727], [-97.36216, 29.50693], [-97.36247, 29.50684], [-97.36275, 29.50675], [-97.36294, 29.50668], [-97.36295, 29.50668], [-97.36356, 29.50645], [-97.36384, 29.50635], [-97.36389, 29.50633], [-97.36408, 29.50625], [-97.36434, 29.50614], [-97.3645, 29.50609], [-97.36458, 29.50607], [-97.36465, 29.50606], [-97.36466, 29.50605], [-97.36474, 29.50605], [-97.36482, 29.50606], [-97.3648599, 29.50606], [-97.36491, 29.50607], [-97.3651, 29.50611], [-97.36553, 29.50623], [-97.36766, 29.50681], [-97.36784, 29.50685], [-97.36801, 29.50689], [-97.36825, 29.50691], [-97.36841, 29.50691], [-97.36857, 29.5069], [-97.3689799, 29.50684], [-97.36905, 29.50683], [-97.3692499, 29.5068], [-97.36932, 29.50678], [-97.36964, 29.50671], [-97.36997, 29.50663], [-97.37041, 29.5065], [-97.37044, 29.50649], [-97.37063, 29.50643], [-97.37098, 29.50632], [-97.37102, 29.50631], [-97.37167, 29.50608], [-97.37239, 29.50583], [-97.37275, 29.50571], [-97.37358, 29.50544], [-97.3741, 29.50526], [-97.37414, 29.50524], [-97.37432, 29.5052], [-97.3745, 29.50517], [-97.37469, 29.50517], [-97.37479, 29.50518], [-97.37488, 29.5052], [-97.37508, 29.50524], [-97.37528, 29.50527], [-97.3754, 29.5053], [-97.37593, 29.50537], [-97.3763, 29.50544], [-97.3764999, 29.50547], [-97.37853, 29.50582], [-97.37871, 29.50585], [-97.37958, 29.50598], [-97.3799499, 29.50604], [-97.38016, 29.50607], [-97.38037, 29.50611], [-97.38058, 29.50613], [-97.38078, 29.50614], [-97.38087, 29.50614], [-97.38096, 29.50612], [-97.38117, 29.50607], [-97.38128, 29.50604], [-97.3818299, 29.50586], [-97.3828, 29.50555], [-97.38307, 29.50548], [-97.38334, 29.50542], [-97.38352, 29.50539], [-97.38361, 29.50538], [-97.38391, 29.50537], [-97.38394, 29.50537], [-97.38406, 29.50537], [-97.38443, 29.50538], [-97.38521, 29.50542], [-97.38588, 29.50545], [-97.3864, 29.50544], [-97.38755, 29.5054], [-97.38784, 29.50537], [-97.38784, 29.50537], [-97.38786, 29.50547], [-97.38789, 29.50557], [-97.38811, 29.50621], [-97.38817, 29.50639], [-97.38843, 29.50707], [-97.38848, 29.50719], [-97.38864, 29.50757], [-97.3891, 29.50866], [-97.38943, 29.50943], [-97.38961, 29.50984], [-97.39007, 29.5109], [-97.39025, 29.51133], [-97.39054, 29.512], [-97.39073, 29.51245], [-97.3908299, 29.51268], [-97.39102, 29.51313], [-97.39115, 29.51343], [-97.3912, 29.51358], [-97.39122, 29.51369], [-97.39124, 29.51383], [-97.39127, 29.51459], [-97.39128, 29.51475], [-97.39134, 29.51587], [-97.39136, 29.51603], [-97.39136, 29.51606], [-97.3914, 29.51624], [-97.39142, 29.51633], [-97.3914999, 29.51651], [-97.39188, 29.51739], [-97.39202, 29.5177], [-97.3924, 29.51859], [-97.39276, 29.51941], [-97.39302, 29.51999], [-97.39368, 29.52142], [-97.3938, 29.52166]]}, "properties": {"surface": "unknown", "label": "Unverified", "color": "#9A9389", "miles": 3.31, "start_mi": 54.33, "end_mi": 57.65, "road": "County Road 344", "elev_ft": [308, 308, 309, 309, 309, 308, 309, 309, 311, 310, 309, 306, 306, 303, 302, 301, 296, 299, 302, 308, 309, 310, 311, 310, 310, 311, 311, 318, 321, 321, 322, 323, 323, 323, 323, 323, 323, 323, 323, 323, 323, 323, 323, 323, 323, 324, 324, 325, 327, 327, 328, 328, 329, 332, 334, 334, 334, 334, 334, 333, 332, 333, 332, 332, 332, 332, 332, 331, 330, 330, 330, 329, 329, 329, 329, 329, 320, 320, 320, 320, 321, 322, 323, 324, 325, 326, 327, 328, 330, 334, 336, 338, 339, 339, 340, 340, 340, 341, 341, 342, 342, 343, 343, 343, 343, 343, 344, 344, 344, 344, 345, 346, 347, 346, 340, 339, 341, 343, 344, 346, 348, 348, 348, 349, 349, 350, 351, 351, 351, 352, 352, 352, 352, 352, 355, 356, 357, 358, 359]}}, {"type": "Feature", "geometry": {"type": "LineString", "coordinates": [[-97.39387, 29.52183], [-97.39387, 29.52183], [-97.39413, 29.52173], [-97.3944, 29.52163], [-97.39458, 29.52156], [-97.39463, 29.52153], [-97.39471, 29.5215], [-97.39481, 29.52144], [-97.39493, 29.52138], [-97.39509, 29.52129], [-97.39524, 29.5212], [-97.39539, 29.52109], [-97.3955, 29.52101], [-97.39568, 29.52088], [-97.39597, 29.52067], [-97.39613, 29.52055], [-97.39628, 29.52045], [-97.39644, 29.52035], [-97.39657, 29.52027], [-97.39669, 29.5202], [-97.39683, 29.52012], [-97.39697, 29.52005], [-97.39715, 29.51997], [-97.3974099, 29.51985], [-97.39806, 29.51957], [-97.39822, 29.5195], [-97.39843, 29.51941], [-97.39861, 29.51933], [-97.39869, 29.51929], [-97.39906, 29.51913], [-97.39931, 29.51902], [-97.3995599, 29.51892], [-97.39974, 29.51885], [-97.39985, 29.5188], [-97.3999599, 29.51876], [-97.4001, 29.51871], [-97.40028, 29.51866], [-97.40046, 29.51861], [-97.40067, 29.51856], [-97.40069, 29.51856], [-97.40093, 29.51851], [-97.40121, 29.51845], [-97.40162, 29.51837], [-97.40186, 29.51831], [-97.40204, 29.51827], [-97.40216, 29.51825], [-97.4023, 29.51821], [-97.40235, 29.51819], [-97.40253, 29.51814], [-97.40268, 29.51808], [-97.4028, 29.51803], [-97.40291, 29.51799], [-97.40304, 29.51793], [-97.40317, 29.51786], [-97.4033199, 29.51778], [-97.40346, 29.51769], [-97.40357, 29.51763], [-97.40374, 29.51752], [-97.40402, 29.51735], [-97.40425, 29.51722], [-97.4044, 29.51714], [-97.40447, 29.51709], [-97.40455, 29.51705], [-97.40462, 29.51702], [-97.40477, 29.51696], [-97.40492, 29.5169], [-97.40505, 29.51686], [-97.40517, 29.51682], [-97.40528, 29.5168], [-97.40544, 29.51676], [-97.40558, 29.51674], [-97.40572, 29.51673], [-97.4058699, 29.51672], [-97.40624, 29.51671], [-97.40626, 29.51671], [-97.40671, 29.5167], [-97.40704, 29.51669], [-97.40731, 29.51668], [-97.40758, 29.51666], [-97.40779, 29.51663], [-97.40791, 29.51662], [-97.40803, 29.5166], [-97.40818, 29.51657], [-97.40834, 29.51654], [-97.40847, 29.51651], [-97.40851, 29.5165], [-97.40869, 29.51645], [-97.4088699, 29.51639], [-97.4091, 29.51632], [-97.40931, 29.51625], [-97.40971, 29.51612], [-97.41007, 29.516], [-97.41015, 29.51597], [-97.41059, 29.51583], [-97.41094, 29.51571], [-97.41114, 29.51564], [-97.41135, 29.51556], [-97.41152, 29.5155], [-97.41172, 29.51541], [-97.41183, 29.51536], [-97.41199, 29.51528], [-97.41212, 29.51521], [-97.41225, 29.51513], [-97.41229, 29.51511], [-97.4124, 29.51504], [-97.41259, 29.51491], [-97.41279, 29.51478], [-97.41296, 29.51466], [-97.4132, 29.51448], [-97.4134, 29.51434], [-97.41365, 29.51414], [-97.41373, 29.51409], [-97.41389, 29.51397], [-97.4140199, 29.51387], [-97.41421, 29.51374], [-97.41424, 29.51371], [-97.41427, 29.51369], [-97.41446, 29.51356], [-97.41464, 29.51344], [-97.41471, 29.5134], [-97.4148, 29.51334], [-97.41495, 29.51325], [-97.41517, 29.51313], [-97.41536, 29.51305], [-97.41548, 29.51299], [-97.41562, 29.51293], [-97.41588, 29.51283], [-97.41594, 29.51281], [-97.41638, 29.51266], [-97.41661, 29.51259], [-97.4167499, 29.51255], [-97.41696, 29.51248], [-97.41725, 29.51238], [-97.41747, 29.51227], [-97.41748, 29.51226], [-97.41758, 29.5122], [-97.41767, 29.5121], [-97.41772, 29.51201], [-97.41771, 29.5118], [-97.41771, 29.5118], [-97.41752, 29.51181], [-97.41714, 29.51181], [-97.41676, 29.51177], [-97.41633, 29.51171], [-97.41596, 29.51165], [-97.41552, 29.51156], [-97.41531, 29.51151], [-97.41517, 29.51147], [-97.41499, 29.51142], [-97.41476, 29.51135], [-97.41456, 29.51128], [-97.41404, 29.51108], [-97.4140199, 29.51107], [-97.4140199, 29.51107], [-97.41404, 29.51108], [-97.41456, 29.51128], [-97.41476, 29.51135], [-97.41499, 29.51142], [-97.41517, 29.51147], [-97.41531, 29.51151], [-97.41552, 29.51156], [-97.41596, 29.51165], [-97.41633, 29.51171], [-97.41676, 29.51177], [-97.41714, 29.51181], [-97.41752, 29.51181], [-97.41771, 29.5118], [-97.41833, 29.51177], [-97.41844, 29.51183], [-97.41945, 29.51175], [-97.41956, 29.51174], [-97.421, 29.51164], [-97.42122, 29.51164], [-97.42128, 29.51164], [-97.42176, 29.51167], [-97.42183, 29.51168], [-97.42204, 29.5117], [-97.42204, 29.5117], [-97.42207, 29.51154], [-97.42207, 29.51152], [-97.42209, 29.51142], [-97.42216, 29.51114], [-97.42219, 29.51107], [-97.42224, 29.51099], [-97.42228, 29.51093], [-97.42237, 29.51084], [-97.42246, 29.51075], [-97.4225, 29.51072], [-97.42255, 29.51068], [-97.42263, 29.51064], [-97.42329, 29.51041], [-97.42334, 29.51039], [-97.42366, 29.51028], [-97.42424, 29.51009], [-97.42443, 29.51003], [-97.4256, 29.50964], [-97.42568, 29.50961], [-97.42626, 29.50942], [-97.42631, 29.5094], [-97.42704, 29.50917], [-97.42709, 29.50915], [-97.42723, 29.5091], [-97.42766, 29.50896], [-97.42819, 29.50877], [-97.42881, 29.50855], [-97.42985, 29.50817], [-97.43029, 29.50801], [-97.43083, 29.5078], [-97.43159, 29.50751], [-97.43191, 29.50739], [-97.43272, 29.5071], [-97.43293, 29.50701], [-97.43326, 29.5069]]}, "properties": {"surface": "pavement", "label": "Pavement", "color": "#4A5568", "miles": 3.13, "start_mi": 57.65, "end_mi": 60.77, "road": "FM 532", "elev_ft": [359, 359, 359, 360, 360, 360, 361, 361, 361, 362, 362, 363, 363, 363, 363, 363, 362, 361, 359, 356, 352, 351, 351, 353, 353, 352, 350, 350, 349, 345, 343, 342, 340, 339, 337, 334, 332, 330, 328, 328, 325, 322, 320, 315, 315, 315, 315, 315, 312, 310, 310, 310, 310, 310, 310, 308, 307, 306, 302, 301, 300, 300, 300, 300, 300, 300, 300, 300, 300, 300, 300, 300, 301, 307, 307, 313, 317, 321, 324, 328, 330, 331, 332, 333, 334, 334, 335, 335, 335, 334, 330, 324, 322, 324, 328, 328, 328, 327, 326, 326, 325, 324, 323, 323, 322, 320, 321, 325, 331, 334, 338, 339, 341, 343, 345, 345, 345, 347, 347, 347, 347, 346, 344, 342, 341, 340, 339, 339, 338, 337, 336, 335, 333, 331, 331, 330, 330, 329, 328, 328, 329, 329, 330, 331, 333, 335, 337, 337, 338, 339, 339, 339, 338, 338, 339, 339, 339, 338, 337, 337, 335, 333, 331, 330, 329, 329, 328, 329, 329, 330, 330, 322, 321, 320, 320, 320, 320, 320, 321, 321, 322, 323, 323, 323, 323, 323, 322, 322, 322, 321, 320, 320, 312, 310, 309, 288, 288, 281, 280, 277, 277, 277, 276, 274, 272, 270, 281, 283, 280, 281, 293, 293, 294]}}, {"type": "Feature", "geometry": {"type": "LineString", "coordinates": [[-97.43326, 29.5069], [-97.43357, 29.50755], [-97.4337199, 29.50786], [-97.4337199, 29.50786], [-97.4341, 29.50773], [-97.4350599, 29.5074], [-97.43647, 29.50691], [-97.43763, 29.50652], [-97.43776, 29.50648], [-97.43795, 29.50642], [-97.4382399, 29.50632], [-97.43853, 29.50622], [-97.43892, 29.50609], [-97.43911, 29.50603], [-97.43937, 29.50594], [-97.43968, 29.50583], [-97.43971, 29.50583], [-97.44045, 29.50557], [-97.44158, 29.50518], [-97.44192, 29.50507], [-97.44292, 29.50473], [-97.44356, 29.50452], [-97.44414, 29.50432], [-97.44457, 29.50417], [-97.44534, 29.50392], [-97.44708, 29.50334], [-97.4479, 29.50307], [-97.44814, 29.50298], [-97.44929, 29.5026], [-97.4504, 29.50223], [-97.45106, 29.502]]}, "properties": {"surface": "unknown", "label": "Unverified", "color": "#9A9389", "miles": 1.19, "start_mi": 60.77, "end_mi": 61.96, "road": "Saint Lawrence Street", "elev_ft": [294, 294, 294, 294, 296, 295, 294, 293, 293, 292, 292, 291, 290, 289, 287, 285, 285, 280, 271, 271, 280, 282, 284, 284, 283, 291, 291, 291, 291, 289, 288]}}]}