{"type": "FeatureCollection", "features": [{"type": "Feature", "geometry": {"type": "LineString", "coordinates": [[-97.45171, 29.50204], [-97.45191, 29.5025], [-97.45191, 29.5025], [-97.45206, 29.50284], [-97.45241, 29.50362], [-97.45275, 29.5044], [-97.4531, 29.50517], [-97.45345, 29.50595], [-97.45368, 29.50652], [-97.4539099, 29.50709], [-97.45414, 29.50761], [-97.45437, 29.50812], [-97.45469, 29.50882], [-97.45502, 29.50952], [-97.45534, 29.51022], [-97.45567, 29.51092], [-97.45599, 29.51162], [-97.45633, 29.51238], [-97.45667, 29.51314], [-97.45701, 29.51389], [-97.45729, 29.51453], [-97.45757, 29.51516], [-97.45784, 29.51579]]}, "properties": {"surface": "unknown", "label": "Unverified", "color": "#9A9389", "miles": 1.02, "start_mi": 0.0, "end_mi": 1.02, "road": "Saint Paul Street", "elev_ft": [288, 288, 288, 288, 289, 289, 290, 292, 294, 297, 298, 300, 301, 304, 307, 310, 317, 323, 327, 332, 336, 339, 344]}}, {"type": "Feature", "geometry": {"type": "LineString", "coordinates": [[-97.4581199, 29.51643], [-97.45829, 29.51681], [-97.45833, 29.517], [-97.45833, 29.51711], [-97.45829, 29.51738], [-97.45824, 29.5177], [-97.45813, 29.5182], [-97.4580299, 29.51871], [-97.45787, 29.51951], [-97.45772, 29.52031], [-97.45757, 29.52112]]}, "properties": {"surface": "pavement", "label": "Pavement", "color": "#4A5568", "miles": 0.33, "start_mi": 1.02, "end_mi": 1.35, "road": "Harwood Road", "elev_ft": [351, 355, 357, 358, 361, 364, 366, 367, 369, 371, 372]}}, {"type": "Feature", "geometry": {"type": "LineString", "coordinates": [[-97.45719, 29.52124], [-97.45633, 29.52152], [-97.45546, 29.52181], [-97.4546, 29.52209], [-97.4537299, 29.52238], [-97.45287, 29.52266], [-97.45233, 29.52287], [-97.45173, 29.52308], [-97.45113, 29.52329], [-97.45036, 29.52355], [-97.44958, 29.52381], [-97.44881, 29.52409], [-97.44794, 29.52439], [-97.44708, 29.52468], [-97.44681, 29.52479], [-97.44667, 29.52486], [-97.44658, 29.52493], [-97.44655, 29.52498], [-97.44654, 29.52509], [-97.44662, 29.52565], [-97.4467, 29.52621], [-97.4467, 29.52654], [-97.44655, 29.52731], [-97.4464, 29.52808], [-97.44626, 29.52885], [-97.44611, 29.52962], [-97.446, 29.53024], [-97.44589, 29.53087], [-97.44572, 29.53164], [-97.44551, 29.53242], [-97.44531, 29.5332], [-97.44505, 29.53396], [-97.4448, 29.53473], [-97.44454, 29.53549], [-97.44443, 29.53578], [-97.44423, 29.5362], [-97.44403, 29.53663], [-97.44373, 29.53721], [-97.44331, 29.53799], [-97.44292, 29.53863], [-97.44265, 29.53901], [-97.44211, 29.53966], [-97.44157, 29.54032], [-97.44103, 29.54098], [-97.4405, 29.54164], [-97.43994, 29.54227], [-97.4394, 29.54281], [-97.43929, 29.54296], [-97.43922, 29.54312], [-97.43906, 29.54369], [-97.43894, 29.54409], [-97.43873, 29.54462], [-97.43848, 29.54509], [-97.4380599, 29.54573], [-97.43764, 29.54638], [-97.43747, 29.54667], [-97.43726, 29.54707], [-97.43695, 29.54779], [-97.43664, 29.5485], [-97.43633, 29.54921], [-97.43601, 29.54993], [-97.4357, 29.55064], [-97.43534, 29.55129], [-97.43498, 29.55194], [-97.43464, 29.55247], [-97.43497, 29.55322], [-97.4353, 29.55398], [-97.43562, 29.55474], [-97.43595, 29.5555], [-97.43628, 29.55625], [-97.4366, 29.55696], [-97.43693, 29.55767], [-97.43728, 29.55848], [-97.43764, 29.55929], [-97.43799, 29.56011], [-97.43834, 29.5609], [-97.4387, 29.56169], [-97.43906, 29.56248], [-97.43941, 29.56327], [-97.43977, 29.56406], [-97.4401199, 29.56485], [-97.44044, 29.56557], [-97.44076, 29.56629], [-97.44107, 29.56701], [-97.44136, 29.56766], [-97.44165, 29.56832], [-97.44193, 29.56897], [-97.44229, 29.56973], [-97.44264, 29.57048], [-97.443, 29.57124], [-97.44337, 29.57206], [-97.44374, 29.57288], [-97.44411, 29.57371], [-97.44448, 29.57453], [-97.44485, 29.57535], [-97.44488, 29.57549], [-97.44486, 29.57553], [-97.4448, 29.5756], [-97.44463, 29.57567], [-97.44368, 29.57598], [-97.44273, 29.5763], [-97.44179, 29.57661], [-97.44084, 29.57692], [-97.43993, 29.57723], [-97.43903, 29.57754], [-97.43812, 29.57785], [-97.43798, 29.57786], [-97.43792, 29.57784], [-97.43783, 29.57776], [-97.4376, 29.57721], [-97.43737, 29.57665], [-97.43729, 29.57655], [-97.43717, 29.57651], [-97.4370299, 29.57653], [-97.43689, 29.57657], [-97.43602, 29.57688], [-97.4351499, 29.57718], [-97.43427, 29.57747], [-97.43338, 29.57776], [-97.43248, 29.57806], [-97.43158, 29.57837], [-97.43067, 29.57867], [-97.43095, 29.5793], [-97.43122, 29.57994], [-97.4315, 29.58057], [-97.43178, 29.5812], [-97.43214, 29.58201], [-97.43249, 29.58282], [-97.4326899, 29.58323], [-97.43234, 29.58359], [-97.43158, 29.58417], [-97.43082, 29.58476], [-97.43006, 29.58535], [-97.42937, 29.58587], [-97.42868, 29.58639], [-97.42799, 29.58691], [-97.4273, 29.58744], [-97.42661, 29.58796], [-97.42591, 29.58848], [-97.42522, 29.589], [-97.42486, 29.58929], [-97.4243599, 29.58974], [-97.42386, 29.59018], [-97.42336, 29.59062], [-97.42292, 29.59103], [-97.4224799, 29.59144], [-97.42192, 29.59193], [-97.42136, 29.59242], [-97.42067, 29.59305], [-97.41999, 29.59367], [-97.41942, 29.5942], [-97.41885, 29.59472], [-97.41829, 29.59525], [-97.41772, 29.59577], [-97.41721, 29.59625], [-97.41671, 29.59673], [-97.4162, 29.59721], [-97.41601, 29.59737], [-97.41576, 29.59749], [-97.41571, 29.59833], [-97.41566, 29.59917], [-97.41561, 29.60001], [-97.41556, 29.60085]]}, "properties": {"surface": "unknown", "label": "Unverified", "color": "#9A9389", "miles": 7.43, "start_mi": 1.35, "end_mi": 8.78, "road": "County Road 238", "elev_ft": [369, 359, 349, 339, 329, 320, 311, 312, 314, 314, 313, 312, 312, 311, 310, 310, 310, 310, 310, 310, 311, 312, 316, 319, 323, 328, 332, 336, 343, 348, 356, 363, 367, 367, 367, 366, 366, 366, 366, 366, 365, 363, 356, 351, 351, 333, 324, 324, 323, 317, 312, 316, 322, 329, 336, 339, 344, 352, 361, 365, 367, 365, 362, 359, 359, 367, 367, 363, 355, 351, 359, 363, 366, 374, 382, 387, 387, 379, 375, 374, 371, 365, 370, 379, 383, 390, 398, 402, 404, 404, 405, 405, 401, 391, 391, 391, 392, 392, 393, 396, 394, 393, 397, 400, 408, 412, 412, 412, 412, 413, 412, 412, 411, 410, 409, 401, 398, 396, 393, 392, 390, 384, 381, 379, 382, 390, 399, 405, 408, 413, 420, 421, 424, 424, 422, 421, 421, 419, 415, 412, 407, 398, 389, 381, 376, 372, 370, 370, 372, 379, 385, 390, 391, 384, 379, 375, 371, 370, 370, 370, 371, 379, 383]}}, {"type": "Feature", "geometry": {"type": "LineString", "coordinates": [[-97.4155, 29.60169], [-97.41528, 29.60175], [-97.4151, 29.60201], [-97.41466, 29.60271], [-97.41422, 29.6034], [-97.41378, 29.60409], [-97.41334, 29.60478], [-97.4128999, 29.60548], [-97.41246, 29.60617], [-97.41202, 29.60686], [-97.4116, 29.60752], [-97.41117, 29.60817], [-97.4107499, 29.60883], [-97.41058, 29.60905], [-97.41039, 29.60923], [-97.41011, 29.60941], [-97.40992, 29.6095], [-97.40975, 29.60954], [-97.40927, 29.60954], [-97.4091399, 29.60956], [-97.40902, 29.60961], [-97.40893, 29.60969], [-97.40885, 29.60985], [-97.40847, 29.61066], [-97.4081, 29.61148], [-97.40774, 29.61229], [-97.40737, 29.6131], [-97.407, 29.61391], [-97.40664, 29.61472], [-97.40627, 29.61553], [-97.4059, 29.61634], [-97.40554, 29.61715], [-97.40517, 29.61796]]}, "properties": {"surface": "two_track", "label": "Ranch two-track", "color": "#6B5A45", "miles": 1.32, "start_mi": 8.78, "end_mi": 10.1, "road": "County Road 240", "elev_ft": [388, 389, 390, 397, 403, 411, 414, 408, 404, 398, 394, 388, 382, 381, 380, 380, 380, 380, 380, 379, 377, 375, 372, 364, 372, 383, 395, 402, 405, 407, 410, 412, 414]}}, {"type": "Feature", "geometry": {"type": "LineString", "coordinates": [[-97.40618, 29.61794], [-97.40719, 29.61793], [-97.4081999, 29.61791], [-97.4092, 29.6179], [-97.41021, 29.61788], [-97.41122, 29.61787], [-97.4122299, 29.61785], [-97.41311, 29.61785], [-97.41399, 29.61785], [-97.4148699, 29.61784], [-97.41549, 29.61783], [-97.41611, 29.61782], [-97.4171099, 29.61781], [-97.41811, 29.6178], [-97.41912, 29.61779], [-97.42012, 29.61778], [-97.42112, 29.61777], [-97.42213, 29.61776], [-97.42313, 29.61775], [-97.42413, 29.61774], [-97.42431, 29.61777], [-97.42443, 29.61785], [-97.4245, 29.61797], [-97.42451, 29.61804], [-97.42449, 29.61864], [-97.42447, 29.61924], [-97.42449, 29.61938], [-97.4245399, 29.61948], [-97.4246, 29.61952], [-97.42468, 29.61955], [-97.42486, 29.61956], [-97.42552, 29.61956], [-97.42619, 29.61955], [-97.4269599, 29.61956], [-97.42774, 29.61956], [-97.42851, 29.61957], [-97.42929, 29.61958], [-97.43029, 29.61957], [-97.43129, 29.61957], [-97.43228, 29.61957], [-97.43328, 29.61957], [-97.43428, 29.61957], [-97.4346599, 29.61955], [-97.43488, 29.61952], [-97.43511, 29.61946], [-97.4357, 29.61928], [-97.43593, 29.61924], [-97.43601, 29.61905], [-97.43604, 29.61842], [-97.43604, 29.61783], [-97.43604, 29.61725], [-97.43602, 29.61664], [-97.43601, 29.61604], [-97.43601, 29.61523], [-97.43601, 29.61443], [-97.43601, 29.61362], [-97.43601, 29.61282], [-97.43602, 29.61201], [-97.43602, 29.61121], [-97.43602, 29.6104], [-97.43602, 29.60959], [-97.43601, 29.60879], [-97.43601, 29.60798], [-97.43601, 29.60717], [-97.43601, 29.60636], [-97.43601, 29.60555], [-97.43601, 29.60475], [-97.43603, 29.6046], [-97.43612, 29.60449], [-97.4361799, 29.60446], [-97.43642, 29.60442], [-97.43726, 29.60442], [-97.4381, 29.60442], [-97.43849, 29.60441], [-97.43865, 29.60437], [-97.43876, 29.60428], [-97.43878, 29.60422], [-97.43879, 29.60337], [-97.4388, 29.60253], [-97.43881, 29.60168], [-97.43882, 29.60083], [-97.43883, 29.59999], [-97.43882, 29.59913], [-97.43881, 29.59828], [-97.4388, 29.59742], [-97.43879, 29.59657], [-97.43875, 29.59579], [-97.43871, 29.59563], [-97.43861, 29.59538], [-97.4384, 29.59508], [-97.4382, 29.59489], [-97.43778, 29.59453], [-97.43762, 29.59431], [-97.43734, 29.59371], [-97.4370299, 29.59301], [-97.4367199, 29.59232], [-97.43641, 29.59162], [-97.4361, 29.59093], [-97.43579, 29.59023], [-97.43552, 29.58965], [-97.43526, 29.58906], [-97.43499, 29.58847], [-97.4346599, 29.5877], [-97.43432, 29.58692], [-97.43398, 29.58615], [-97.43365, 29.58538], [-97.4333, 29.58457], [-97.43296, 29.58376], [-97.43273, 29.58329], [-97.43249, 29.58282], [-97.43213, 29.58199], [-97.43177, 29.58116], [-97.4314, 29.58033], [-97.43104, 29.5795], [-97.43067, 29.57867], [-97.43158, 29.57837], [-97.43248, 29.57806], [-97.43338, 29.57776], [-97.43423, 29.57748], [-97.43509, 29.5772], [-97.43574, 29.57698], [-97.43638, 29.57675], [-97.4370299, 29.57653], [-97.43717, 29.57651], [-97.43729, 29.57655], [-97.43737, 29.57665], [-97.4376, 29.57721], [-97.43783, 29.57776], [-97.43792, 29.57784], [-97.43798, 29.57786], [-97.43812, 29.57785], [-97.43908, 29.57753], [-97.4400299, 29.5772], [-97.44098, 29.57688], [-97.44189, 29.57658], [-97.4428, 29.57627], [-97.44372, 29.57597], [-97.44463, 29.57567], [-97.4448, 29.5756], [-97.44486, 29.57553], [-97.44488, 29.57549], [-97.44485, 29.57535], [-97.44448, 29.57453], [-97.44411, 29.57371], [-97.44374, 29.57288], [-97.44337, 29.57206], [-97.443, 29.57124], [-97.44264, 29.57048], [-97.44229, 29.56973], [-97.44193, 29.56897], [-97.44157, 29.56815], [-97.44121, 29.56732], [-97.44085, 29.5665], [-97.4404799, 29.56567], [-97.4401199, 29.56485], [-97.43977, 29.56406], [-97.43941, 29.56327], [-97.43906, 29.56248], [-97.4387, 29.56169], [-97.43834, 29.5609], [-97.43799, 29.56011], [-97.43764, 29.55929], [-97.43728, 29.55848], [-97.43693, 29.55767], [-97.4366, 29.55696], [-97.43628, 29.55625], [-97.43595, 29.5555], [-97.43562, 29.55474], [-97.4353, 29.55398], [-97.43497, 29.55322], [-97.43464, 29.55247], [-97.43498, 29.55194], [-97.43534, 29.55129], [-97.4357, 29.55064], [-97.43601, 29.54993], [-97.43633, 29.54921], [-97.43664, 29.5485], [-97.43695, 29.54779], [-97.43726, 29.54707], [-97.43747, 29.54667], [-97.43764, 29.54638], [-97.4380599, 29.54573], [-97.43848, 29.54509], [-97.43873, 29.54462], [-97.43894, 29.54409], [-97.43906, 29.54369], [-97.43922, 29.54312], [-97.43929, 29.54296], [-97.4394, 29.54281], [-97.43994, 29.54227], [-97.4405, 29.54164], [-97.44095, 29.54109], [-97.44139, 29.54054], [-97.44184, 29.53999], [-97.44229, 29.53944], [-97.44265, 29.53901], [-97.44292, 29.53863], [-97.44331, 29.53799], [-97.44373, 29.53721], [-97.44403, 29.53663], [-97.44423, 29.5362], [-97.44443, 29.53578], [-97.44454, 29.53549], [-97.4448, 29.53473], [-97.44505, 29.53396], [-97.44531, 29.5332], [-97.44551, 29.53242], [-97.44572, 29.53164], [-97.44589, 29.53087], [-97.44605, 29.52999], [-97.4462, 29.52911], [-97.44636, 29.52831], [-97.44651, 29.52751], [-97.44667, 29.52671], [-97.4467, 29.52654], [-97.4467, 29.52621], [-97.44662, 29.52565], [-97.44654, 29.52509], [-97.44655, 29.52498], [-97.44658, 29.52493], [-97.44667, 29.52486], [-97.44681, 29.52479], [-97.44708, 29.52468], [-97.44794, 29.52439], [-97.44881, 29.52409], [-97.44958, 29.52381], [-97.45036, 29.52355], [-97.45113, 29.52329], [-97.45173, 29.52308], [-97.45233, 29.52287], [-97.45287, 29.52266], [-97.45357, 29.52243], [-97.45437, 29.52217], [-97.45517, 29.52191], [-97.4559699, 29.52164], [-97.45677, 29.52138]]}, "properties": {"surface": "unknown", "label": "Unverified", "color": "#9A9389", "miles": 10.37, "start_mi": 10.1, "end_mi": 20.46, "road": "County Road 239", "elev_ft": [412, 406, 395, 386, 383, 387, 390, 392, 401, 411, 413, 416, 421, 424, 427, 428, 424, 414, 406, 403, 402, 402, 403, 403, 406, 408, 408, 408, 408, 408, 407, 405, 403, 401, 405, 409, 411, 415, 419, 421, 421, 421, 420, 420, 419, 419, 419, 419, 420, 421, 421, 421, 420, 419, 419, 418, 418, 418, 418, 417, 416, 415, 413, 411, 409, 411, 417, 418, 419, 420, 421, 421, 421, 421, 421, 421, 421, 424, 429, 431, 430, 428, 427, 425, 423, 423, 421, 421, 420, 419, 419, 418, 417, 415, 412, 413, 416, 418, 418, 417, 414, 411, 421, 428, 433, 430, 424, 415, 409, 405, 399, 390, 380, 379, 384, 390, 392, 393, 396, 398, 400, 405, 410, 411, 412, 412, 413, 412, 412, 412, 412, 408, 400, 397, 392, 394, 396, 393, 392, 392, 391, 391, 391, 401, 405, 405, 404, 404, 402, 398, 390, 380, 371, 365, 371, 374, 375, 379, 387, 387, 382, 374, 366, 363, 359, 351, 355, 363, 367, 367, 359, 359, 362, 365, 367, 365, 361, 352, 344, 339, 336, 329, 322, 316, 312, 317, 323, 324, 324, 333, 351, 351, 354, 360, 364, 365, 366, 366, 366, 366, 366, 367, 367, 367, 363, 356, 348, 343, 336, 330, 324, 320, 317, 313, 312, 311, 310, 310, 310, 310, 310, 310, 311, 312, 312, 313, 314, 314, 312, 311, 320, 327, 336, 347, 356, 364]}}, {"type": "Feature", "geometry": {"type": "LineString", "coordinates": [[-97.45757, 29.52112], [-97.45771, 29.52037], [-97.45786, 29.51961], [-97.4579399, 29.51916], [-97.4580299, 29.51871], [-97.45813, 29.5182], [-97.45824, 29.5177], [-97.45833, 29.51711], [-97.45833, 29.517], [-97.45829, 29.51681], [-97.4581199, 29.51643]]}, "properties": {"surface": "pavement", "label": "Pavement", "color": "#4A5568", "miles": 0.33, "start_mi": 20.46, "end_mi": 20.79, "road": "Harwood Road", "elev_ft": [372, 371, 370, 369, 367, 366, 364, 358, 357, 355, 351]}}, {"type": "Feature", "geometry": {"type": "LineString", "coordinates": [[-97.45784, 29.51579], [-97.45757, 29.51516], [-97.45729, 29.51453], [-97.45701, 29.51389], [-97.45667, 29.51314], [-97.45633, 29.51238], [-97.45599, 29.51162], [-97.45562, 29.51081], [-97.45524, 29.50999], [-97.45495, 29.50937], [-97.45466, 29.50874], [-97.45437, 29.50812], [-97.45414, 29.50761], [-97.4539099, 29.50709], [-97.45368, 29.50652], [-97.45345, 29.50595], [-97.45314, 29.50527], [-97.45282, 29.50455], [-97.4525, 29.50383], [-97.45166, 29.50411], [-97.4508199, 29.50439], [-97.45019, 29.5046], [-97.44991, 29.50396], [-97.44963, 29.50333], [-97.44932, 29.50259], [-97.45013, 29.50231], [-97.45096, 29.50203]]}, "properties": {"surface": "unknown", "label": "Unverified", "color": "#9A9389", "miles": 1.29, "start_mi": 20.79, "end_mi": 22.08, "road": "Saint Paul Street", "elev_ft": [344, 339, 336, 332, 327, 323, 317, 309, 306, 303, 301, 300, 298, 297, 294, 292, 290, 289, 289, 290, 292, 292, 292, 291, 291, 289, 289]}}]}