{"type": "FeatureCollection", "features": [{"type": "Feature", "geometry": {"type": "LineString", "coordinates": [[-97.736385, 29.406962], [-97.737028, 29.407305], [-97.737028, 29.407305], [-97.737692, 29.407332], [-97.73785, 29.40702], [-97.73793, 29.40689], [-97.73803, 29.40677], [-97.73809, 29.40672], [-97.73809, 29.40672], [-97.73835, 29.4065], [-97.73875, 29.40624], [-97.73892, 29.40614], [-97.73908, 29.40606], [-97.73938, 29.40587], [-97.73945, 29.40581], [-97.7395, 29.40575], [-97.73954, 29.40569], [-97.73961, 29.40555], [-97.73964, 29.40543], [-97.73964, 29.40543], [-97.73966, 29.40534], [-97.73967, 29.4048], [-97.73968, 29.40426], [-97.73968, 29.4039], [-97.73964, 29.40321], [-97.73959, 29.40255], [-97.73954, 29.40188], [-97.73954, 29.40172], [-97.73955, 29.40155], [-97.73954, 29.40146], [-97.73952, 29.40132], [-97.73953, 29.40127], [-97.73958, 29.40127], [-97.7397, 29.40133], [-97.73978, 29.40134], [-97.73983, 29.40134], [-97.74053, 29.4012], [-97.74053, 29.4012], [-97.74129, 29.40107], [-97.74184, 29.40097], [-97.74228, 29.40088], [-97.74239, 29.40083], [-97.74243, 29.40079], [-97.74248, 29.40071], [-97.7425, 29.40064], [-97.74253, 29.40051], [-97.74262, 29.39969], [-97.74271, 29.39888], [-97.74281, 29.39807], [-97.7429, 29.39725], [-97.74299, 29.39656], [-97.74303, 29.39637], [-97.74309, 29.39618], [-97.74323, 29.3959], [-97.74356, 29.39523], [-97.7439, 29.39457], [-97.74393, 29.39449], [-97.74396, 29.39433], [-97.74397, 29.39417], [-97.74396, 29.39382], [-97.7439, 29.39295], [-97.74384, 29.39208], [-97.74379, 29.39165], [-97.74446, 29.39165], [-97.74446, 29.39165], [-97.74449, 29.39165], [-97.7446, 29.39164], [-97.7446, 29.39164]]}, "properties": {"surface": "unknown", "label": "Unverified", "color": "#9A9389", "miles": 1.43, "start_mi": 0.0, "end_mi": 1.43, "road": "County Road 157", "elev_ft": [351, 344, 344, 347, 347, 346, 346, 346, 346, 348, 351, 351, 351, 348, 346, 345, 344, 348, 350, 350, 351, 353, 354, 355, 359, 360, 363, 363, 363, 363, 363, 363, 363, 364, 364, 364, 369, 369, 372, 372, 373, 373, 373, 374, 375, 375, 376, 378, 382, 386, 380, 378, 378, 377, 375, 377, 377, 378, 378, 378, 376, 376, 377, 383, 383, 384, 385, 385]}}, {"type": "Feature", "geometry": {"type": "LineString", "coordinates": [[-97.74501, 29.39162], [-97.74513, 29.39162], [-97.74522, 29.39162], [-97.74646, 29.39159], [-97.74687, 29.39158], [-97.74728, 29.39157], [-97.74742, 29.39157], [-97.74753, 29.39157], [-97.74753, 29.39157], [-97.74784, 29.39157], [-97.74792, 29.39157], [-97.74797, 29.39157], [-97.74802, 29.39158], [-97.74813, 29.39161], [-97.74814, 29.39161], [-97.74814, 29.39161], [-97.74819, 29.39162], [-97.74829, 29.39165], [-97.74839, 29.39167], [-97.74948, 29.39195], [-97.74951, 29.39195], [-97.74956, 29.39197], [-97.74958, 29.39197], [-97.74968, 29.392], [-97.74989, 29.39205], [-97.7505, 29.3922], [-97.75065, 29.39223], [-97.75074, 29.39225], [-97.75077, 29.39226], [-97.75083, 29.39226], [-97.7509, 29.39227], [-97.75098, 29.39227], [-97.75101, 29.39227], [-97.75107, 29.39226], [-97.7511, 29.39226], [-97.75115, 29.39225], [-97.75118, 29.39225], [-97.75122, 29.39224], [-97.7513, 29.39222], [-97.7514, 29.39219], [-97.75148, 29.39216], [-97.75153, 29.39215], [-97.75157, 29.39213], [-97.75185, 29.39201], [-97.75194, 29.39198], [-97.7523, 29.39183], [-97.75251, 29.39175], [-97.7526, 29.39172], [-97.75289, 29.39161], [-97.75298, 29.39158], [-97.75308, 29.39154], [-97.75312, 29.39152], [-97.7532, 29.3915], [-97.75328, 29.39148], [-97.75337, 29.39146], [-97.75342, 29.39145], [-97.75351, 29.39144], [-97.75372, 29.39143], [-97.75418, 29.3914], [-97.75439, 29.39139], [-97.75442, 29.39139], [-97.75445, 29.39139], [-97.75451, 29.39138], [-97.75456, 29.39136], [-97.75461, 29.39134], [-97.75466, 29.39132], [-97.7547, 29.39128], [-97.75473, 29.39126], [-97.75474, 29.39124], [-97.75475, 29.39123], [-97.75476, 29.39122], [-97.75477, 29.39119], [-97.75477, 29.39117], [-97.75478, 29.39113], [-97.75478, 29.39082], [-97.75479, 29.39053], [-97.75479, 29.39044], [-97.75479, 29.39034], [-97.7548, 29.3902], [-97.75481, 29.39012], [-97.75482, 29.39005], [-97.75483, 29.38993], [-97.75486, 29.38978], [-97.75488, 29.38967], [-97.75489, 29.38964], [-97.75491, 29.38958], [-97.75494, 29.38948], [-97.75498, 29.38938], [-97.75502, 29.3893], [-97.75504, 29.38928], [-97.75507, 29.38925], [-97.75512, 29.38918], [-97.75515, 29.38915], [-97.75515, 29.38915], [-97.75515, 29.38914], [-97.75519, 29.38909], [-97.75527, 29.38901], [-97.75571, 29.3885], [-97.75577, 29.38844], [-97.75584, 29.38836], [-97.75596, 29.38823], [-97.75613, 29.38802], [-97.75616, 29.38799], [-97.75629, 29.38781], [-97.75634, 29.38772], [-97.75638, 29.38765], [-97.75648, 29.38746], [-97.75653, 29.38735], [-97.75669, 29.38702], [-97.75685, 29.38669], [-97.75692, 29.38654], [-97.75701, 29.38636], [-97.75709, 29.38619], [-97.7572, 29.38597], [-97.75766, 29.38504], [-97.75774, 29.38488], [-97.75786, 29.38463], [-97.75806, 29.38421], [-97.75809, 29.38415], [-97.75814, 29.38404], [-97.75818, 29.38398], [-97.75822, 29.38389], [-97.75823, 29.38388], [-97.75826, 29.38382], [-97.75829, 29.38378], [-97.75832, 29.38375], [-97.75834, 29.38373], [-97.75837, 29.38371], [-97.7584, 29.38369], [-97.75845, 29.38366], [-97.7585, 29.38364], [-97.75853, 29.38363], [-97.75856, 29.38362], [-97.75893, 29.3835], [-97.759, 29.38347], [-97.75922, 29.3834], [-97.7593, 29.38337], [-97.75932, 29.38336], [-97.75936, 29.38334], [-97.75944, 29.3833], [-97.75948, 29.38328], [-97.75949, 29.38327], [-97.75952, 29.38325], [-97.75958, 29.38319], [-97.75963, 29.38314], [-97.75968, 29.38309], [-97.75975, 29.38299], [-97.75977, 29.38297], [-97.75995, 29.38274], [-97.75998, 29.38269], [-97.76003, 29.38264], [-97.76003, 29.38264], [-97.7601, 29.38254], [-97.76026, 29.38234], [-97.76048, 29.38206], [-97.76057, 29.38195], [-97.76069, 29.38181], [-97.7608, 29.38168], [-97.76082, 29.38166], [-97.76132, 29.38109], [-97.76194, 29.38038], [-97.76202, 29.38029], [-97.76207, 29.38023], [-97.7622, 29.38009], [-97.76245, 29.37981], [-97.76251, 29.37974], [-97.76264, 29.37962], [-97.7627, 29.37956], [-97.76273, 29.37954], [-97.76276, 29.37952], [-97.76283, 29.37949], [-97.76287, 29.37947], [-97.76291, 29.37945], [-97.76297, 29.37944], [-97.76303, 29.37942], [-97.76309, 29.37941], [-97.76311, 29.37941], [-97.76316, 29.37941], [-97.76331, 29.37941], [-97.76342, 29.37941], [-97.76364, 29.37941], [-97.76393, 29.37941], [-97.76414, 29.37941], [-97.76438, 29.37942], [-97.76455, 29.37942], [-97.76476, 29.37942], [-97.76517, 29.37942], [-97.76581, 29.37942], [-97.76618, 29.37942], [-97.76636, 29.37941], [-97.76675, 29.3794], [-97.76719, 29.37939], [-97.76745, 29.37938], [-97.76798, 29.37937], [-97.76822, 29.37937], [-97.76867, 29.37935], [-97.76893, 29.37935], [-97.76921, 29.37933], [-97.76946, 29.37932], [-97.76957, 29.37932], [-97.76989, 29.3793], [-97.77023, 29.37928], [-97.77028, 29.37928], [-97.77072, 29.37926], [-97.77078, 29.37925], [-97.77084, 29.37924], [-97.77088, 29.37924], [-97.77092, 29.37923], [-97.77097, 29.37922], [-97.77106, 29.37918], [-97.77112, 29.37915], [-97.77119, 29.37911], [-97.77127, 29.37905], [-97.7714, 29.37892], [-97.77153, 29.37879], [-97.77167, 29.37866], [-97.77194, 29.37839], [-97.77208, 29.37825], [-97.77225, 29.37808], [-97.77232, 29.37801], [-97.77237, 29.37797], [-97.77247, 29.37788], [-97.77249, 29.37785], [-97.77261, 29.37775], [-97.77273, 29.37766], [-97.77279, 29.37761], [-97.773, 29.37745], [-97.77311, 29.37738], [-97.7736, 29.37705], [-97.77376, 29.37694], [-97.77387, 29.37686], [-97.77409, 29.37671], [-97.77459, 29.37639], [-97.77469, 29.37633], [-97.77475, 29.37629], [-97.7751, 29.37609], [-97.77523, 29.37601], [-97.77562, 29.3758], [-97.77592, 29.37564], [-97.77614, 29.37551], [-97.77655, 29.37528], [-97.77666, 29.37522], [-97.77701, 29.37502], [-97.77715, 29.37494], [-97.77715, 29.37494], [-97.77728, 29.37484], [-97.77729, 29.37484], [-97.7774, 29.37475], [-97.77752, 29.37464], [-97.77764, 29.37452], [-97.77783, 29.3743], [-97.77813, 29.3739], [-97.7785, 29.37339], [-97.77852, 29.37336], [-97.7787, 29.37314], [-97.77886, 29.37297], [-97.77902, 29.3728], [-97.77918, 29.37265], [-97.77934, 29.37251], [-97.77966, 29.37229], [-97.77977, 29.37222], [-97.77999, 29.37207], [-97.78009, 29.37199], [-97.78028, 29.37185], [-97.78056, 29.37164], [-97.78069, 29.37154], [-97.78096, 29.37134], [-97.78113, 29.3712], [-97.78131, 29.37103], [-97.78138, 29.37097], [-97.78145, 29.3709], [-97.78159, 29.37076], [-97.78159, 29.37075], [-97.78171, 29.37062], [-97.78174, 29.37058], [-97.78184, 29.37047], [-97.78194, 29.37034], [-97.78231, 29.36989], [-97.78233, 29.36986], [-97.78244, 29.36974], [-97.78256, 29.3696], [-97.78262, 29.36953], [-97.7828, 29.3693], [-97.78282, 29.36928], [-97.78291, 29.36915], [-97.78295, 29.36911], [-97.78302, 29.369], [-97.78303, 29.36898], [-97.7831, 29.36886], [-97.78319, 29.36867], [-97.78323, 29.36858], [-97.78327, 29.36851], [-97.78338, 29.36825], [-97.78349, 29.36801], [-97.78349, 29.368], [-97.78361, 29.36776], [-97.7837, 29.36761], [-97.78379, 29.3675], [-97.78392, 29.36739], [-97.78405, 29.3673], [-97.78408, 29.36728], [-97.78433, 29.36714], [-97.78442, 29.36709], [-97.78448, 29.36705], [-97.78463, 29.36697], [-97.78478, 29.36685], [-97.78493, 29.36671], [-97.7851, 29.36653], [-97.78511, 29.36652], [-97.78546, 29.36612], [-97.78572, 29.36581], [-97.78585, 29.36567], [-97.78621, 29.36525], [-97.78632, 29.36511], [-97.78649, 29.3649], [-97.78688, 29.36448], [-97.78694, 29.36441], [-97.78713, 29.36421], [-97.78714, 29.3642], [-97.78728, 29.36406], [-97.78887, 29.36241], [-97.79024, 29.361], [-97.79039, 29.36084], [-97.79066, 29.36056], [-97.79066, 29.36056], [-97.79079, 29.36042], [-97.79103, 29.36017], [-97.79144, 29.35974], [-97.79169, 29.35948], [-97.79177, 29.35939], [-97.7921, 29.35902], [-97.79216, 29.35896], [-97.79251, 29.35857], [-97.79268, 29.35838], [-97.79308, 29.35791], [-97.7931, 29.35788], [-97.7932, 29.35777], [-97.79326, 29.3577], [-97.79418, 29.35661], [-97.7942, 29.35657], [-97.7943, 29.35646], [-97.79442, 29.35631], [-97.7947, 29.356], [-97.79482, 29.35586], [-97.79484, 29.35584], [-97.79491, 29.35578], [-97.79498, 29.35572], [-97.79512, 29.35565], [-97.79519, 29.35562], [-97.79525, 29.35561], [-97.7953, 29.3556], [-97.79533, 29.35559], [-97.79536, 29.35559], [-97.79545, 29.35558], [-97.7955, 29.35557], [-97.79559, 29.35556], [-97.7957, 29.35555], [-97.79576, 29.35554], [-97.79587, 29.35551], [-97.7959, 29.35551], [-97.79602, 29.35548], [-97.79615, 29.35545], [-97.7963, 29.3554], [-97.79631, 29.3554], [-97.79636, 29.35538], [-97.79643, 29.35536], [-97.79649, 29.35534], [-97.79665, 29.35529], [-97.79699, 29.35518], [-97.7972, 29.3551], [-97.79732, 29.35506], [-97.79741, 29.35503], [-97.79746, 29.35501], [-97.79747, 29.35501], [-97.79769, 29.35494], [-97.79776, 29.35492], [-97.79782, 29.35491], [-97.79786, 29.35491], [-97.79801, 29.35489], [-97.79838, 29.35486], [-97.79867, 29.35485], [-97.79873, 29.35484], [-97.79883, 29.35483], [-97.79888, 29.35483], [-97.79891, 29.35483], [-97.79906, 29.35482], [-97.79914, 29.35482], [-97.79924, 29.35482], [-97.7993, 29.35482], [-97.79934, 29.35482], [-97.79943, 29.35483], [-97.79952, 29.35484], [-97.79961, 29.35487], [-97.79979, 29.35492], [-97.79998, 29.355], [-97.80008, 29.35503], [-97.80013, 29.35505], [-97.80026, 29.3551], [-97.80039, 29.35515], [-97.80045, 29.35517], [-97.80052, 29.3552], [-97.80061, 29.35523], [-97.80065, 29.35524], [-97.80066, 29.35524], [-97.8007, 29.35525], [-97.80071, 29.35525], [-97.80078, 29.35525], [-97.80086, 29.35526], [-97.80086, 29.35526], [-97.80092, 29.35539], [-97.80092, 29.35539], [-97.80105, 29.35537], [-97.80112, 29.35537], [-97.80116, 29.35537], [-97.80119, 29.35537], [-97.80121, 29.35537], [-97.80132, 29.3554], [-97.80193, 29.35554], [-97.80199, 29.35556], [-97.80203, 29.35556], [-97.80229, 29.35562], [-97.80254, 29.35568], [-97.80279, 29.35574], [-97.80293, 29.35576], [-97.80304, 29.35578], [-97.80316, 29.35579], [-97.80328, 29.3558], [-97.80339, 29.3558], [-97.8035, 29.35579], [-97.80369, 29.35576], [-97.80374, 29.35576], [-97.80386, 29.35573], [-97.80419, 29.35566], [-97.80436, 29.35561], [-97.80446, 29.35558], [-97.80449, 29.35556], [-97.80449, 29.35556], [-97.80451, 29.35555], [-97.80455, 29.35553], [-97.80477, 29.35541], [-97.80486, 29.35536], [-97.80503, 29.35526], [-97.80537, 29.35506], [-97.80571, 29.35486], [-97.80576, 29.35484], [-97.80585, 29.35478], [-97.80588, 29.35476], [-97.8059, 29.35475], [-97.80604, 29.35464], [-97.80615, 29.35456], [-97.80638, 29.35437], [-97.8065, 29.35427], [-97.80661, 29.35416], [-97.80672, 29.35405], [-97.80676, 29.354], [-97.80682, 29.35392], [-97.80692, 29.3538], [-97.80744, 29.3531], [-97.80769, 29.35277], [-97.80779, 29.35265], [-97.80802, 29.35236], [-97.80829, 29.35201], [-97.80836, 29.35191], [-97.8084, 29.35186], [-97.80847, 29.35175], [-97.8085, 29.35171], [-97.80856, 29.35159], [-97.80858, 29.35156], [-97.80865, 29.35143], [-97.80866, 29.3514], [-97.80913, 29.35044], [-97.80923, 29.35023], [-97.80938, 29.34994], [-97.80946, 29.34978], [-97.80955, 29.34961], [-97.80962, 29.34947], [-97.8097, 29.34933], [-97.80973, 29.34929], [-97.80979, 29.34919], [-97.80998, 29.34894], [-97.81018, 29.34869], [-97.81093, 29.34784], [-97.8113, 29.3474], [-97.81154, 29.34711], [-97.81161, 29.34702], [-97.81184, 29.34677], [-97.81206, 29.34655], [-97.81208, 29.34653], [-97.81232, 29.34631], [-97.81234, 29.34628], [-97.81248, 29.34615], [-97.81261, 29.34601], [-97.81267, 29.34596], [-97.81278, 29.34583], [-97.81322, 29.34533], [-97.81337, 29.34516], [-97.81363, 29.34488], [-97.81376, 29.34474], [-97.81448, 29.34393], [-97.81452, 29.34389], [-97.81465, 29.34375], [-97.81509, 29.34326], [-97.81561, 29.34269], [-97.81573, 29.34255], [-97.8158, 29.34247], [-97.81586, 29.34241], [-97.81612, 29.34213], [-97.81639, 29.34185], [-97.81665, 29.34158], [-97.81665, 29.34157], [-97.81704, 29.34116], [-97.81743, 29.34074], [-97.81764, 29.3405], [-97.81807, 29.34003], [-97.81845, 29.33961], [-97.81857, 29.33946], [-97.8187, 29.33932], [-97.81921, 29.33876], [-97.81925, 29.33871], [-97.81934, 29.33862], [-97.81973, 29.3382], [-97.81986, 29.33805], [-97.8201, 29.33779], [-97.82024, 29.33763], [-97.82061, 29.33723], [-97.82075, 29.33706], [-97.82087, 29.33692], [-97.82088, 29.33691], [-97.821, 29.33678], [-97.82106, 29.33671], [-97.82113, 29.33664], [-97.82117, 29.3366], [-97.82122, 29.33656], [-97.82128, 29.33652], [-97.82136, 29.33648], [-97.82144, 29.33644], [-97.82165, 29.33635], [-97.8219, 29.33625], [-97.8219, 29.33625], [-97.82202, 29.3362], [-97.82213, 29.33616], [-97.82219, 29.33613], [-97.82221, 29.33612], [-97.82237, 29.33603], [-97.82237, 29.33603]]}, "properties": {"surface": "caliche", "label": "Caliche / gravel", "color": "#C98A24", "miles": 6.63, "start_mi": 1.43, "end_mi": 8.06, "road": "County Road 114", "elev_ft": [390, 391, 391, 378, 375, 376, 376, 377, 377, 378, 378, 378, 378, 378, 378, 378, 378, 378, 378, 368, 368, 368, 368, 367, 366, 364, 363, 363, 363, 363, 362, 362, 362, 361, 361, 361, 361, 361, 360, 358, 357, 357, 357, 360, 360, 361, 362, 362, 362, 362, 362, 362, 362, 362, 362, 362, 362, 362, 362, 362, 362, 362, 362, 362, 362, 362, 362, 362, 362, 362, 362, 362, 362, 362, 362, 363, 363, 363, 364, 364, 364, 364, 364, 365, 365, 365, 365, 365, 365, 365, 366, 367, 367, 367, 367, 369, 370, 372, 372, 373, 374, 376, 376, 377, 377, 378, 378, 378, 379, 379, 380, 381, 383, 386, 392, 394, 396, 397, 397, 398, 397, 398, 398, 398, 398, 397, 397, 397, 397, 396, 396, 396, 395, 391, 390, 389, 389, 389, 389, 389, 390, 390, 390, 391, 392, 392, 393, 393, 396, 396, 397, 397, 398, 399, 405, 407, 408, 408, 408, 413, 419, 419, 420, 421, 427, 427, 429, 430, 431, 431, 431, 432, 432, 432, 431, 431, 431, 430, 429, 429, 427, 422, 420, 418, 415, 412, 411, 416, 419, 421, 425, 428, 428, 428, 428, 429, 431, 433, 433, 433, 433, 432, 432, 432, 432, 432, 432, 432, 432, 432, 432, 432, 432, 431, 430, 430, 428, 428, 428, 428, 428, 429, 430, 430, 431, 431, 432, 432, 434, 435, 435, 435, 434, 434, 434, 435, 435, 434, 433, 431, 428, 428, 428, 427, 427, 427, 427, 427, 427, 427, 426, 424, 426, 426, 427, 427, 428, 429, 430, 431, 432, 433, 433, 435, 436, 437, 437, 438, 439, 440, 440, 440, 440, 439, 439, 439, 439, 437, 437, 437, 436, 436, 435, 435, 435, 435, 435, 434, 434, 434, 433, 433, 433, 432, 432, 432, 432, 432, 432, 432, 433, 433, 433, 432, 432, 432, 432, 431, 431, 431, 431, 431, 430, 430, 429, 426, 425, 425, 425, 425, 424, 424, 424, 425, 425, 426, 427, 430, 430, 430, 431, 431, 433, 436, 439, 440, 440, 440, 448, 449, 449, 449, 449, 448, 448, 448, 448, 448, 449, 449, 449, 449, 449, 449, 450, 450, 450, 450, 451, 451, 452, 452, 454, 454, 454, 455, 456, 457, 461, 464, 466, 468, 469, 469, 471, 471, 472, 472, 473, 474, 475, 475, 475, 475, 474, 474, 474, 473, 473, 472, 472, 471, 470, 468, 465, 464, 463, 462, 461, 461, 460, 461, 461, 461, 461, 461, 462, 463, 463, 463, 463, 464, 465, 465, 465, 466, 467, 472, 473, 474, 477, 480, 481, 482, 482, 483, 483, 483, 484, 485, 485, 486, 487, 488, 488, 488, 488, 488, 488, 487, 486, 484, 480, 479, 479, 479, 479, 479, 479, 478, 477, 476, 476, 476, 476, 476, 476, 478, 478, 479, 479, 479, 479, 479, 479, 479, 479, 479, 479, 478, 473, 472, 471, 471, 470, 469, 469, 469, 468, 465, 463, 459, 457, 458, 458, 460, 461, 461, 462, 462, 463, 464, 465, 466, 470, 471, 471, 471, 463, 463, 462, 459, 454, 454, 454, 454, 455, 456, 457, 457, 460, 464, 468, 471, 472, 472, 472, 470, 470, 469, 467, 466, 466, 466, 469, 471, 471, 471, 471, 471, 471, 471, 471, 470, 470, 469, 464, 459, 459, 456, 453, 452, 451, 448, 448]}}, {"type": "Feature", "geometry": {"type": "LineString", "coordinates": [[-97.82221, 29.33592], [-97.82209, 29.33583], [-97.82209, 29.33583], [-97.82205, 29.3358], [-97.82142, 29.33534], [-97.82133, 29.33527], [-97.82126, 29.33523], [-97.82108, 29.33511], [-97.82098, 29.33503], [-97.82082, 29.33492], [-97.82049, 29.3347], [-97.82033, 29.33458], [-97.82017, 29.33447], [-97.82007, 29.3344], [-97.81995, 29.33431], [-97.81985, 29.33424], [-97.81969, 29.33413], [-97.81953, 29.33402], [-97.81947, 29.33398], [-97.81937, 29.33391], [-97.81904, 29.33368], [-97.81888, 29.33357], [-97.81856, 29.33335], [-97.8184, 29.33324], [-97.81823, 29.33313], [-97.81804, 29.33299], [-97.8177, 29.33277], [-97.81742, 29.33258], [-97.81725, 29.33247], [-97.81709, 29.33236], [-97.81696, 29.33227], [-97.81693, 29.33225], [-97.81663, 29.33206], [-97.81658, 29.33201], [-97.81654, 29.33197], [-97.81653, 29.33192], [-97.81652, 29.33191], [-97.81653, 29.33187], [-97.81656, 29.3318], [-97.81661, 29.33174], [-97.81683, 29.33152], [-97.81683, 29.33152], [-97.81687, 29.33147], [-97.81701, 29.33134], [-97.81709, 29.33124], [-97.81726, 29.33107], [-97.81768, 29.3306], [-97.81779, 29.33048], [-97.81784, 29.33043], [-97.81788, 29.33038], [-97.81791, 29.33033], [-97.81792, 29.33028], [-97.81791, 29.33024], [-97.81791, 29.33023], [-97.81788, 29.33018], [-97.81783, 29.33013], [-97.81763, 29.32999], [-97.81747, 29.32987], [-97.8174, 29.32982], [-97.81731, 29.32976], [-97.81728, 29.32975], [-97.81715, 29.32965], [-97.81699, 29.32954], [-97.81682, 29.32943], [-97.81666, 29.32932], [-97.81634, 29.32909], [-97.81618, 29.32898], [-97.81604, 29.32889], [-97.81602, 29.32887], [-97.81553, 29.32853], [-97.81537, 29.32842], [-97.81527, 29.32835], [-97.81521, 29.32831], [-97.81505, 29.3282], [-97.81502, 29.32818], [-97.81457, 29.32786], [-97.8144, 29.32775], [-97.81408, 29.32752], [-97.81392, 29.32741], [-97.8136, 29.32719], [-97.81344, 29.32708], [-97.81295, 29.32674], [-97.81266, 29.32654], [-97.81247, 29.3264], [-97.81214, 29.32618], [-97.81133, 29.32563], [-97.811, 29.32541], [-97.81094, 29.32536], [-97.81078, 29.32525], [-97.81073, 29.3252], [-97.8107, 29.32515], [-97.81068, 29.32509], [-97.81068, 29.32503], [-97.81069, 29.32496], [-97.81074, 29.3248], [-97.81083, 29.32446], [-97.81088, 29.32429], [-97.81094, 29.3241], [-97.81113, 29.32342], [-97.81115, 29.32336], [-97.81125, 29.32307], [-97.81131, 29.3229], [-97.81131, 29.32288], [-97.81166, 29.32185], [-97.81166, 29.32184], [-97.81171, 29.32169], [-97.81177, 29.32149], [-97.81181, 29.32134], [-97.81182, 29.32128], [-97.81184, 29.3212], [-97.81185, 29.32115], [-97.81187, 29.32099], [-97.81189, 29.3209], [-97.81189, 29.32089], [-97.81189, 29.32089], [-97.81192, 29.32081], [-97.81196, 29.32072], [-97.81201, 29.32063], [-97.81207, 29.32054], [-97.81221, 29.32037], [-97.81229, 29.32026], [-97.81245, 29.32008], [-97.81257, 29.31993], [-97.81273, 29.31975], [-97.81282, 29.31965], [-97.81295, 29.3195], [-97.81303, 29.31941], [-97.81307, 29.31936], [-97.81319, 29.31921], [-97.81332, 29.31907], [-97.81348, 29.31888], [-97.81369, 29.31864], [-97.81372, 29.31859], [-97.81375, 29.31856], [-97.8138, 29.31849], [-97.81384, 29.31842], [-97.81385, 29.31836], [-97.81385, 29.31829], [-97.81381, 29.31823], [-97.81376, 29.31817], [-97.81375, 29.31816], [-97.81368, 29.31811], [-97.81354, 29.31802], [-97.81335, 29.31789], [-97.81326, 29.31783], [-97.81321, 29.3178], [-97.81306, 29.31769], [-97.81291, 29.31758], [-97.81262, 29.31738], [-97.81226, 29.31711], [-97.81086, 29.31613], [-97.81069, 29.31601], [-97.81065, 29.31598], [-97.81017, 29.31564], [-97.80974, 29.31534], [-97.80947, 29.31515], [-97.80891, 29.31476], [-97.80888, 29.31474], [-97.80861, 29.31456], [-97.80844, 29.31445], [-97.80839, 29.31441], [-97.80779, 29.31401], [-97.80774, 29.31397], [-97.80763, 29.3139], [-97.80738, 29.31373], [-97.8073, 29.31368], [-97.80677, 29.3133], [-97.80666, 29.31323], [-97.80655, 29.31315], [-97.80628, 29.31297], [-97.80525, 29.31225], [-97.8035, 29.31104], [-97.80328, 29.31089], [-97.80234, 29.31024], [-97.80215, 29.31011], [-97.8018, 29.30986], [-97.80159, 29.30972], [-97.8015, 29.30967], [-97.8014, 29.30963], [-97.8013, 29.30962], [-97.80127, 29.30963], [-97.80122, 29.30964], [-97.80114, 29.30967], [-97.80106, 29.30971], [-97.80099, 29.30976], [-97.80096, 29.30978], [-97.80092, 29.30982], [-97.80079, 29.30995], [-97.8006, 29.31018], [-97.80053, 29.31025], [-97.80044, 29.31032], [-97.80035, 29.31036], [-97.80025, 29.31038], [-97.80016, 29.31037], [-97.80007, 29.31034], [-97.79998, 29.31029], [-97.79988, 29.31023], [-97.79967, 29.31007], [-97.79953, 29.30997], [-97.79948, 29.30994], [-97.79948, 29.30994], [-97.79941, 29.30989], [-97.79937, 29.30986], [-97.79909, 29.30966], [-97.7978, 29.30877], [-97.79776, 29.30874], [-97.79732, 29.30844], [-97.79711, 29.30829], [-97.797, 29.30821], [-97.79677, 29.30805], [-97.79631, 29.30773], [-97.79618, 29.30765], [-97.79582, 29.3074], [-97.79556, 29.30722], [-97.79537, 29.30709], [-97.79533, 29.30706], [-97.79517, 29.30695], [-97.79489, 29.30675], [-97.79485, 29.30672], [-97.79469, 29.30661], [-97.79425, 29.3063], [-97.79374, 29.30595], [-97.79313, 29.30553], [-97.79291, 29.30538], [-97.79279, 29.3053], [-97.79275, 29.30527], [-97.79199, 29.30473], [-97.79195, 29.3047], [-97.79146, 29.30437], [-97.79118, 29.30417], [-97.79088, 29.30396], [-97.79033, 29.30358], [-97.79021, 29.3035], [-97.78975, 29.30318], [-97.78933, 29.3029], [-97.7882, 29.30211], [-97.78746, 29.3016], [-97.78741, 29.30157], [-97.78737, 29.30154], [-97.78733, 29.30151], [-97.78715, 29.30138], [-97.78715, 29.30138], [-97.78743, 29.30106], [-97.78753, 29.30096], [-97.78753, 29.30096], [-97.78769, 29.30078], [-97.78787, 29.30059], [-97.78805, 29.30039], [-97.78827, 29.30014], [-97.78837, 29.30002], [-97.78858, 29.29979], [-97.7889, 29.29942], [-97.78892, 29.29939], [-97.78946, 29.29879], [-97.78993, 29.29827], [-97.79007, 29.29812], [-97.79021, 29.29795], [-97.7905, 29.29762], [-97.79073, 29.29737], [-97.79077, 29.29732], [-97.79143, 29.29659], [-97.79146, 29.29655], [-97.79176, 29.29621], [-97.79224, 29.29568], [-97.79227, 29.29565], [-97.79246, 29.29544], [-97.79273, 29.29514], [-97.79278, 29.29509], [-97.79291, 29.29495], [-97.79343, 29.29437], [-97.79373, 29.29405], [-97.79393, 29.29382], [-97.79421, 29.29352], [-97.79427, 29.29345], [-97.79446, 29.29325], [-97.79472, 29.29295], [-97.79519, 29.29244], [-97.79555, 29.29204], [-97.79573, 29.29185], [-97.79593, 29.29162], [-97.79616, 29.29136], [-97.79616, 29.29136], [-97.79674, 29.29071], [-97.79674, 29.29071], [-97.79707, 29.29034], [-97.79749, 29.28986], [-97.79749, 29.28986], [-97.7975, 29.28985], [-97.7976, 29.28973], [-97.7976, 29.28973], [-97.79738, 29.28955], [-97.79732, 29.2895], [-97.7971, 29.28932], [-97.79684, 29.28909], [-97.79666, 29.28893], [-97.79666, 29.28893]]}, "properties": {"surface": "unknown", "label": "Unverified", "color": "#9A9389", "miles": 4.83, "start_mi": 8.06, "end_mi": 12.88, "road": "County Road 117", "elev_ft": [450, 450, 450, 450, 462, 462, 463, 465, 466, 468, 476, 483, 492, 498, 502, 500, 495, 491, 490, 489, 488, 490, 492, 490, 488, 484, 476, 469, 466, 462, 460, 459, 455, 454, 454, 454, 453, 453, 452, 452, 451, 451, 451, 451, 451, 451, 448, 448, 448, 448, 448, 448, 448, 448, 447, 446, 441, 439, 438, 437, 437, 437, 438, 440, 442, 449, 452, 457, 458, 459, 459, 458, 458, 457, 456, 452, 450, 443, 442, 443, 444, 446, 446, 447, 448, 456, 458, 458, 457, 457, 457, 457, 457, 457, 458, 460, 460, 461, 459, 459, 456, 455, 454, 451, 451, 451, 451, 451, 451, 451, 451, 451, 450, 450, 450, 450, 449, 448, 447, 443, 442, 440, 438, 435, 433, 431, 429, 429, 427, 424, 421, 420, 421, 421, 421, 421, 421, 422, 423, 424, 424, 425, 427, 429, 430, 430, 431, 432, 429, 425, 411, 410, 409, 404, 400, 400, 401, 402, 403, 404, 405, 409, 410, 410, 416, 418, 424, 426, 427, 430, 430, 425, 424, 421, 421, 419, 417, 416, 416, 415, 415, 415, 414, 414, 414, 414, 414, 414, 414, 414, 414, 414, 414, 413, 413, 413, 412, 412, 411, 411, 411, 411, 411, 411, 401, 400, 398, 397, 396, 395, 393, 391, 392, 393, 394, 394, 395, 396, 397, 397, 396, 393, 390, 389, 389, 388, 385, 385, 383, 382, 382, 381, 381, 381, 381, 379, 374, 374, 374, 374, 374, 374, 375, 376, 376, 376, 376, 375, 374, 374, 374, 374, 374, 375, 378, 379, 379, 380, 381, 381, 382, 383, 383, 383, 383, 383, 383, 383, 383, 382, 381, 380, 378, 377, 375, 372, 370, 366, 365, 363, 361, 361, 359, 359, 358, 355, 355, 355, 354, 354, 355, 355, 358, 360, 360, 360]}}, {"type": "Feature", "geometry": {"type": "LineString", "coordinates": [[-97.79677, 29.28881], [-97.79677, 29.28881], [-97.79689, 29.28867], [-97.79695, 29.2886], [-97.797, 29.28854], [-97.79704, 29.2885], [-97.79714, 29.28839], [-97.79727, 29.28825], [-97.79751, 29.28798], [-97.79768, 29.28782], [-97.79774, 29.28775], [-97.79777, 29.28773], [-97.79781, 29.2877], [-97.79786, 29.28762], [-97.79838, 29.28711], [-97.7986, 29.28688], [-97.79872, 29.28674], [-97.79898, 29.28645], [-97.79962, 29.28575], [-97.79988, 29.28546], [-97.8, 29.28532], [-97.80031, 29.28498], [-97.80038, 29.2849], [-97.80099, 29.28421], [-97.80126, 29.2839], [-97.80184, 29.28325], [-97.80185, 29.28324], [-97.80189, 29.28317], [-97.80197, 29.28308], [-97.80209, 29.28296], [-97.80222, 29.28282], [-97.80234, 29.28268], [-97.80247, 29.28254], [-97.80259, 29.28239], [-97.80334, 29.28154], [-97.80422, 29.28054], [-97.8046, 29.28011], [-97.80477, 29.27991], [-97.80485, 29.27982], [-97.80536, 29.27926], [-97.80552, 29.27908], [-97.806, 29.27855], [-97.80606, 29.27848], [-97.80606, 29.27848], [-97.80647, 29.27803], [-97.80687, 29.27758], [-97.80711, 29.27731], [-97.80776, 29.27657], [-97.80848, 29.27574], [-97.80862, 29.27557], [-97.80872, 29.27546], [-97.80947, 29.2746], [-97.80959, 29.27445], [-97.80984, 29.27417], [-97.80989, 29.27411], [-97.80998, 29.27401], [-97.81024, 29.27372], [-97.81035, 29.2736], [-97.81043, 29.2735], [-97.81059, 29.27331], [-97.81077, 29.2731], [-97.81105, 29.27278], [-97.81147, 29.2723], [-97.81159, 29.27216], [-97.81184, 29.27187], [-97.81192, 29.27177], [-97.81209, 29.27158], [-97.81258, 29.27101], [-97.81271, 29.27086], [-97.81293, 29.27061], [-97.81301, 29.27051], [-97.81309, 29.27042], [-97.81316, 29.27034], [-97.8132, 29.27025], [-97.81324, 29.27016], [-97.81325, 29.27007], [-97.81326, 29.26993], [-97.81327, 29.26974], [-97.81328, 29.26957], [-97.81329, 29.26939], [-97.81329, 29.26937], [-97.81329, 29.26932], [-97.8133, 29.26922], [-97.81331, 29.26917], [-97.81333, 29.26904], [-97.81337, 29.26885], [-97.81345, 29.2685], [-97.81353, 29.26815], [-97.81354, 29.26809], [-97.81357, 29.26798], [-97.81365, 29.26762], [-97.81367, 29.26754], [-97.8137, 29.2674], [-97.81381, 29.26683], [-97.81403, 29.26585], [-97.81403, 29.26583], [-97.81405, 29.26574], [-97.81411, 29.26551], [-97.81414, 29.26542], [-97.81418, 29.26537], [-97.8142, 29.26533], [-97.81424, 29.26529], [-97.81425, 29.26528], [-97.81432, 29.26522], [-97.81442, 29.26517], [-97.81453, 29.26513], [-97.81479, 29.26506], [-97.81512, 29.26496], [-97.81516, 29.26495], [-97.8154, 29.26488], [-97.8154, 29.26488], [-97.81639, 29.26458], [-97.81687, 29.26443], [-97.81716, 29.26434], [-97.81732, 29.26429], [-97.81751, 29.26422], [-97.81764, 29.26417], [-97.81783, 29.26409], [-97.81826, 29.26392], [-97.81933, 29.26351], [-97.81967, 29.26338], [-97.81986, 29.2633], [-97.82005, 29.26322], [-97.82017, 29.26317], [-97.82023, 29.26314], [-97.8204, 29.26305], [-97.82044, 29.26303], [-97.82112, 29.2627], [-97.82124, 29.26264], [-97.82166, 29.26244], [-97.82188, 29.26233], [-97.82217, 29.2622], [-97.82231, 29.26212], [-97.82238, 29.26208], [-97.82244, 29.26204], [-97.82257, 29.26196], [-97.82258, 29.26195], [-97.82283, 29.26177], [-97.8232, 29.26149], [-97.82334, 29.2614], [-97.82345, 29.26132], [-97.8235, 29.2613], [-97.8235, 29.26129], [-97.82358, 29.26125], [-97.82371, 29.26119], [-97.82384, 29.26115], [-97.82392, 29.26114], [-97.82398, 29.26113], [-97.82428, 29.26109], [-97.82429, 29.26109], [-97.825, 29.26103], [-97.82536, 29.26099], [-97.82554, 29.26096], [-97.82576, 29.26091], [-97.82591, 29.26088], [-97.82605, 29.26085], [-97.82609, 29.26084], [-97.82625, 29.26079], [-97.82671, 29.26066], [-97.82683, 29.26063], [-97.8273, 29.2605], [-97.82754, 29.26043], [-97.82762, 29.2604], [-97.8277, 29.26037], [-97.82785, 29.26032], [-97.82799, 29.26025], [-97.82803, 29.26023], [-97.82812, 29.26018], [-97.82825, 29.2601], [-97.82837, 29.26002], [-97.8285, 29.25993], [-97.82855, 29.25988], [-97.82863, 29.25983], [-97.82919, 29.25935], [-97.82929, 29.25927], [-97.82931, 29.25924], [-97.82978, 29.25885], [-97.82984, 29.2588], [-97.82992, 29.25872], [-97.83005, 29.25861], [-97.83007, 29.2586], [-97.83065, 29.25809], [-97.83092, 29.25785], [-97.83103, 29.25776], [-97.83116, 29.25765], [-97.83125, 29.25759], [-97.8313, 29.25756], [-97.83145, 29.25746], [-97.83161, 29.25738], [-97.83209, 29.25711], [-97.83226, 29.25702], [-97.83229, 29.257], [-97.83243, 29.25692], [-97.83295, 29.25662], [-97.83312, 29.25652], [-97.83312, 29.25652], [-97.83359, 29.25625], [-97.83376, 29.25616], [-97.83391, 29.25607], [-97.83395, 29.25605], [-97.83398, 29.25603], [-97.83444, 29.25576], [-97.83467, 29.25563], [-97.83491, 29.25549], [-97.83514, 29.25537], [-97.83531, 29.25527], [-97.83547, 29.25518], [-97.83549, 29.25517], [-97.83566, 29.25509], [-97.83608, 29.25489], [-97.83693, 29.25448], [-97.83747, 29.25422], [-97.83766, 29.25414], [-97.83771, 29.25411], [-97.83774, 29.2541], [-97.83802, 29.25397], [-97.83811, 29.25395], [-97.8382, 29.25392], [-97.83839, 29.2539], [-97.83862, 29.25388], [-97.83873, 29.25387], [-97.83878, 29.25387], [-97.83878, 29.25386], [-97.83883, 29.25386], [-97.83921, 29.25383], [-97.83921, 29.25383], [-97.83927, 29.25383], [-97.83944, 29.2538], [-97.83944, 29.2538], [-97.83936, 29.25354], [-97.83923, 29.25313], [-97.83895, 29.25225], [-97.83893, 29.25218], [-97.83893, 29.25218]]}, "properties": {"surface": "unknown", "label": "Unverified", "color": "#9A9389", "miles": 3.83, "start_mi": 12.88, "end_mi": 16.72, "road": "County Road 477", "elev_ft": [360, 360, 359, 358, 357, 356, 354, 352, 351, 348, 346, 345, 345, 344, 352, 354, 355, 356, 359, 359, 359, 359, 359, 358, 356, 350, 350, 350, 350, 350, 351, 351, 352, 352, 358, 361, 361, 361, 361, 364, 365, 367, 367, 367, 369, 370, 370, 374, 380, 381, 381, 384, 385, 388, 389, 389, 394, 398, 400, 403, 406, 412, 417, 418, 416, 414, 411, 415, 418, 420, 420, 420, 420, 420, 421, 422, 424, 425, 427, 427, 427, 427, 427, 427, 428, 429, 430, 436, 437, 439, 441, 441, 441, 439, 431, 431, 430, 429, 428, 428, 428, 428, 427, 428, 429, 430, 430, 432, 432, 434, 434, 442, 446, 448, 450, 451, 451, 451, 452, 452, 452, 451, 450, 449, 449, 448, 448, 443, 442, 439, 436, 432, 431, 430, 430, 430, 430, 433, 438, 440, 441, 442, 442, 442, 443, 444, 445, 446, 449, 449, 452, 453, 455, 456, 458, 458, 459, 460, 461, 461, 463, 463, 463, 464, 464, 464, 463, 463, 463, 462, 462, 461, 461, 453, 452, 452, 449, 449, 449, 450, 450, 453, 455, 456, 458, 459, 459, 460, 461, 462, 462, 462, 463, 464, 465, 465, 466, 466, 466, 466, 466, 467, 467, 467, 466, 466, 465, 465, 464, 461, 458, 458, 458, 458, 458, 458, 458, 459, 459, 460, 460, 460, 460, 461, 463, 463, 464, 465, 465, 464, 462, 459, 459, 459]}}, {"type": "Feature", "geometry": {"type": "LineString", "coordinates": [[-97.83887, 29.252], [-97.83887, 29.252], [-97.8391, 29.25192], [-97.8391, 29.25192], [-97.83912, 29.25191], [-97.8393, 29.25188], [-97.83941, 29.25185], [-97.84002, 29.2517], [-97.8402, 29.25166], [-97.84066, 29.25157], [-97.84071, 29.25156], [-97.84114, 29.25146], [-97.84224, 29.25122], [-97.84231, 29.2512], [-97.84241, 29.25116], [-97.84242, 29.25116], [-97.84258, 29.25113], [-97.84259, 29.25113], [-97.84266, 29.25112], [-97.84276, 29.2511], [-97.84288, 29.25108], [-97.84305, 29.25104], [-97.84319, 29.251], [-97.84326, 29.25095], [-97.8433, 29.25087], [-97.84331, 29.25074], [-97.84331, 29.25066], [-97.84331, 29.25066], [-97.84329, 29.2505], [-97.84327, 29.25035], [-97.84324, 29.25014], [-97.84321, 29.24999], [-97.84321, 29.24999], [-97.84437, 29.24969], [-97.84446, 29.2497], [-97.84453, 29.24972], [-97.84459, 29.24976], [-97.84467, 29.24979], [-97.84467, 29.24979], [-97.84467, 29.2498], [-97.84475, 29.24989], [-97.84482, 29.24994], [-97.84482, 29.24994], [-97.84517, 29.2502], [-97.84527, 29.25028], [-97.84568, 29.25057], [-97.84606, 29.25086], [-97.84611, 29.2509], [-97.84643, 29.25113], [-97.84683, 29.25143], [-97.84684, 29.25144], [-97.8469, 29.25148], [-97.84706, 29.2516], [-97.84731, 29.25179], [-97.84737, 29.25183], [-97.84766, 29.25205], [-97.84779, 29.25214], [-97.84792, 29.25223], [-97.84829, 29.25251], [-97.84842, 29.2526], [-97.84848, 29.25264], [-97.84886, 29.25292], [-97.84895, 29.25299], [-97.8501, 29.25385], [-97.85019, 29.25392], [-97.85037, 29.25403], [-97.8505, 29.2541], [-97.85125, 29.25449], [-97.85147, 29.25461], [-97.85159, 29.25467], [-97.8519, 29.25483], [-97.85231, 29.25504], [-97.85261, 29.2552], [-97.85274, 29.25526], [-97.8532, 29.25551], [-97.85326, 29.25554], [-97.85364, 29.25573], [-97.85402, 29.25594], [-97.85402, 29.25594], [-97.85415, 29.256], [-97.85455, 29.25621], [-97.85473, 29.2563], [-97.85479, 29.25634], [-97.85501, 29.25645], [-97.85514, 29.25652], [-97.85572, 29.25682], [-97.85621, 29.25707], [-97.85639, 29.25716], [-97.85647, 29.25721], [-97.8565, 29.25722], [-97.85657, 29.25725], [-97.85679, 29.25736], [-97.85686, 29.2574], [-97.85692, 29.25744], [-97.85791, 29.25796], [-97.85851, 29.25827], [-97.8586, 29.25832], [-97.85869, 29.25837], [-97.85879, 29.2584], [-97.85898, 29.25847], [-97.85975, 29.25863], [-97.8598, 29.25863], [-97.85988, 29.25865], [-97.86003, 29.25867], [-97.86016, 29.25868], [-97.86021, 29.25868], [-97.86029, 29.25868], [-97.86081, 29.25869], [-97.86102, 29.25868], [-97.86111, 29.25868], [-97.86124, 29.25867], [-97.86125, 29.25867], [-97.86132, 29.25867], [-97.86152, 29.25866], [-97.8617, 29.25865], [-97.86193, 29.25866], [-97.86217, 29.25868], [-97.8626, 29.25875], [-97.86275, 29.25878], [-97.86287, 29.2588], [-97.86295, 29.25881], [-97.86308, 29.25884], [-97.86315, 29.25885], [-97.86339, 29.25889], [-97.86396, 29.25899], [-97.86416, 29.25903], [-97.86469, 29.25912], [-97.86476, 29.25914], [-97.86477, 29.25914], [-97.86482, 29.25915], [-97.86495, 29.25918], [-97.86514, 29.25918], [-97.8653, 29.25915], [-97.86533, 29.25914], [-97.86537, 29.25913], [-97.86577, 29.25904], [-97.86613, 29.25896], [-97.86634, 29.25891], [-97.86637, 29.2589], [-97.86674, 29.25881], [-97.86676, 29.2588], [-97.86694, 29.25876], [-97.86754, 29.25861], [-97.86763, 29.25859], [-97.8677, 29.25859], [-97.86774, 29.25859], [-97.86778, 29.25859], [-97.86787, 29.2586], [-97.86835, 29.25867], [-97.86837, 29.25868], [-97.86855, 29.25871], [-97.86886, 29.25876], [-97.86898, 29.25877], [-97.86904, 29.25878], [-97.86916, 29.2588], [-97.86997, 29.25892], [-97.87052, 29.259], [-97.87058, 29.25901], [-97.87104, 29.25908], [-97.87139, 29.25914], [-97.8716, 29.25917], [-97.87162, 29.25917], [-97.8718, 29.2592], [-97.8719, 29.25921], [-97.872, 29.25923], [-97.87202, 29.25923], [-97.87282, 29.25934], [-97.87318, 29.2594], [-97.87322, 29.2594], [-97.87325, 29.2594], [-97.87363, 29.25946], [-97.87365, 29.25947], [-97.87464, 29.25962], [-97.87476, 29.25963], [-97.87476, 29.25963], [-97.87478, 29.25964], [-97.87487, 29.25965], [-97.875, 29.25965], [-97.87508, 29.25963], [-97.87508, 29.25963], [-97.87519, 29.25981], [-97.87548, 29.26037], [-97.87548, 29.26037], [-97.8756, 29.26061], [-97.87568, 29.26074], [-97.87597, 29.26128], [-97.87614, 29.26161], [-97.8762, 29.2617], [-97.87623, 29.26177], [-97.87631, 29.26192], [-97.87637, 29.26205], [-97.8764, 29.2621], [-97.87644, 29.2622], [-97.87648, 29.26227], [-97.87652, 29.26237], [-97.87653, 29.26238], [-97.87659, 29.26253], [-97.87665, 29.26269], [-97.87676, 29.26304], [-97.87687, 29.2634], [-97.87689, 29.26347], [-97.87698, 29.26376], [-97.87698, 29.26378], [-97.87709, 29.26409], [-97.87711, 29.26417], [-97.87717, 29.26434], [-97.87735, 29.26487], [-97.87738, 29.26497], [-97.87754, 29.26548], [-97.87768, 29.26587], [-97.87772, 29.26599], [-97.87772, 29.26602], [-97.87774, 29.26607], [-97.87775, 29.26611], [-97.87778, 29.26618], [-97.87795, 29.26669], [-97.87797, 29.26676], [-97.87804, 29.26697], [-97.87817, 29.26738], [-97.87819, 29.26745], [-97.87825, 29.26762], [-97.87839, 29.26807], [-97.8784, 29.2681], [-97.87842, 29.26814], [-97.87868, 29.26895], [-97.8788, 29.26936], [-97.87884, 29.26946], [-97.87918, 29.27053], [-97.87923, 29.27067], [-97.87924, 29.2707], [-97.87925, 29.27074], [-97.87927, 29.27079], [-97.8794, 29.27121], [-97.87959, 29.27184], [-97.87972, 29.27225], [-97.87979, 29.27248], [-97.87983, 29.27259], [-97.87987, 29.27271], [-97.87988, 29.27275], [-97.87996, 29.273], [-97.87999, 29.27307], [-97.88, 29.2731], [-97.88, 29.2731], [-97.88002, 29.27312], [-97.88002, 29.27314], [-97.88012, 29.27327], [-97.88012, 29.27327]]}, "properties": {"surface": "unknown", "label": "Unverified", "color": "#9A9389", "miles": 3.47, "start_mi": 16.72, "end_mi": 20.19, "road": "County Road 473", "elev_ft": [458, 458, 458, 458, 458, 458, 458, 459, 459, 460, 460, 461, 460, 460, 460, 460, 460, 460, 460, 460, 460, 460, 460, 460, 459, 458, 458, 458, 457, 456, 456, 457, 457, 454, 454, 453, 453, 453, 453, 453, 454, 454, 454, 456, 456, 458, 459, 459, 459, 457, 457, 457, 456, 454, 454, 452, 451, 450, 448, 447, 447, 445, 445, 440, 440, 439, 439, 438, 437, 437, 436, 436, 435, 435, 434, 434, 434, 434, 434, 434, 434, 434, 434, 434, 434, 434, 433, 433, 432, 432, 432, 432, 432, 431, 427, 420, 419, 419, 418, 417, 410, 410, 410, 410, 410, 410, 410, 410, 410, 410, 410, 410, 410, 410, 410, 410, 410, 411, 412, 412, 413, 413, 414, 415, 420, 421, 425, 425, 425, 426, 427, 428, 430, 430, 430, 431, 430, 429, 429, 428, 427, 427, 424, 424, 424, 424, 424, 423, 422, 421, 421, 421, 421, 421, 421, 423, 425, 426, 428, 431, 433, 433, 435, 436, 437, 438, 450, 450, 450, 450, 448, 448, 446, 446, 446, 446, 447, 447, 448, 448, 446, 442, 442, 441, 441, 439, 440, 440, 441, 442, 442, 442, 442, 441, 441, 441, 439, 437, 433, 429, 429, 427, 427, 424, 423, 422, 421, 421, 421, 421, 421, 421, 421, 421, 421, 422, 422, 423, 424, 425, 425, 426, 426, 426, 426, 425, 425, 421, 420, 420, 421, 421, 424, 429, 431, 433, 434, 436, 436, 438, 438, 438, 438, 439, 439, 440, 440]}}, {"type": "Feature", "geometry": {"type": "LineString", "coordinates": [[-97.8798, 29.27344], [-97.87962, 29.27354], [-97.87955, 29.27357], [-97.87944, 29.27362], [-97.87941, 29.27364], [-97.87939, 29.27365], [-97.87929, 29.27371], [-97.87901, 29.27385], [-97.87856, 29.27408], [-97.87849, 29.27412], [-97.87837, 29.27418], [-97.87833, 29.2742], [-97.87798, 29.27438], [-97.87797, 29.27438], [-97.87766, 29.27454], [-97.87755, 29.2746], [-97.87678, 29.275], [-97.87678, 29.275]]}, "properties": {"surface": "pavement", "label": "Pavement", "color": "#4A5568", "miles": 0.21, "start_mi": 20.19, "end_mi": 20.4, "road": "FM 1107", "elev_ft": [438, 438, 437, 437, 437, 437, 437, 437, 438, 438, 438, 437, 436, 436, 435, 434, 431, 431]}}, {"type": "Feature", "geometry": {"type": "LineString", "coordinates": [[-97.87628, 29.27475], [-97.87624, 29.27473], [-97.87623, 29.27473], [-97.87619, 29.27471], [-97.8757, 29.27447], [-97.87567, 29.27445], [-97.87562, 29.27443], [-97.87516, 29.2742], [-97.87508, 29.27416], [-97.87505, 29.27415], [-97.87454, 29.2739], [-97.87451, 29.27388], [-97.87444, 29.27385], [-97.87346, 29.27338], [-97.87336, 29.27333], [-97.87286, 29.27309], [-97.87274, 29.27303], [-97.87219, 29.27277], [-97.87175, 29.27257], [-97.87146, 29.27243], [-97.8711, 29.27227], [-97.87054, 29.27201], [-97.87037, 29.27193], [-97.86928, 29.27141], [-97.86925, 29.2714], [-97.86908, 29.27132], [-97.86895, 29.27126], [-97.86892, 29.27125], [-97.8688, 29.2712], [-97.86855, 29.27108], [-97.86849, 29.27105], [-97.86834, 29.27099], [-97.86815, 29.27091], [-97.868, 29.27084], [-97.86719, 29.27048], [-97.86708, 29.27043], [-97.86692, 29.27035], [-97.86679, 29.27027], [-97.86674, 29.27023], [-97.86671, 29.27021], [-97.86668, 29.27019], [-97.86659, 29.27011], [-97.86647, 29.27001], [-97.86636, 29.26993], [-97.86625, 29.26986], [-97.86614, 29.2698], [-97.86557, 29.2695], [-97.86534, 29.26939], [-97.86534, 29.26939], [-97.86533, 29.26938], [-97.86455, 29.26899], [-97.86422, 29.26883], [-97.86413, 29.2688], [-97.86404, 29.26878], [-97.86399, 29.26877], [-97.86396, 29.26877], [-97.86381, 29.26881], [-97.86375, 29.26886], [-97.86369, 29.26891], [-97.86364, 29.26898], [-97.86359, 29.26907], [-97.86337, 29.26944], [-97.8633, 29.26954], [-97.86327, 29.2696], [-97.86307, 29.26996], [-97.863, 29.27008], [-97.86291, 29.27024], [-97.86247, 29.271], [-97.86223, 29.27142], [-97.86207, 29.2717], [-97.86181, 29.27218], [-97.86181, 29.27218]]}, "properties": {"surface": "unknown", "label": "Unverified", "color": "#9A9389", "miles": 1.12, "start_mi": 20.4, "end_mi": 21.52, "road": "County Road 474", "elev_ft": [428, 428, 428, 428, 425, 425, 425, 424, 424, 424, 423, 424, 424, 428, 429, 430, 430, 433, 436, 438, 439, 440, 439, 430, 430, 429, 429, 429, 429, 429, 429, 429, 429, 430, 440, 441, 443, 444, 445, 445, 445, 446, 446, 447, 447, 447, 447, 447, 447, 447, 441, 438, 437, 437, 436, 436, 436, 436, 436, 437, 437, 439, 439, 440, 444, 445, 447, 453, 458, 460, 465, 465]}}, {"type": "Feature", "geometry": {"type": "LineString", "coordinates": [[-97.86187, 29.2726], [-97.86197, 29.27324], [-97.86197, 29.27324], [-97.862, 29.27343], [-97.8621, 29.27411], [-97.8621, 29.27414], [-97.86212, 29.27423], [-97.86214, 29.27431], [-97.86217, 29.27445], [-97.86219, 29.27452], [-97.86222, 29.27459], [-97.86229, 29.27477], [-97.86236, 29.27492], [-97.86244, 29.27506], [-97.86252, 29.27519], [-97.8626, 29.27531], [-97.86261, 29.27534], [-97.86268, 29.27543], [-97.86271, 29.27546], [-97.86275, 29.27551], [-97.86282, 29.2756], [-97.86283, 29.27561], [-97.86285, 29.27563], [-97.86291, 29.2757], [-97.86298, 29.27577], [-97.86307, 29.27586], [-97.86314, 29.27592], [-97.86321, 29.27598], [-97.86325, 29.27601], [-97.86335, 29.27609], [-97.86344, 29.27615], [-97.86352, 29.2762], [-97.86359, 29.27624], [-97.86366, 29.27628], [-97.86374, 29.27633], [-97.86383, 29.27637], [-97.86398, 29.27645], [-97.86418, 29.27654], [-97.86419, 29.27655], [-97.86441, 29.27665], [-97.86458, 29.27673], [-97.86463, 29.27675], [-97.86473, 29.27679], [-97.86478, 29.27681], [-97.86499, 29.27691], [-97.8651, 29.27695], [-97.86515, 29.27697], [-97.86528, 29.27702], [-97.86533, 29.27704], [-97.86541, 29.27707], [-97.8655, 29.2771], [-97.86553, 29.27711], [-97.86558, 29.27713], [-97.86573, 29.27717], [-97.86573, 29.27717], [-97.86565, 29.27753], [-97.86564, 29.27762], [-97.86564, 29.27771], [-97.86565, 29.27784], [-97.86566, 29.2779], [-97.86571, 29.278], [-97.86575, 29.27807], [-97.86582, 29.27816], [-97.86589, 29.27823], [-97.86595, 29.27827], [-97.86603, 29.27833], [-97.86653, 29.27857], [-97.86671, 29.27865], [-97.86686, 29.27872], [-97.86708, 29.27882], [-97.86744, 29.27898], [-97.86762, 29.27907]]}, "properties": {"surface": "pavement", "label": "Pavement", "color": "#4A5568", "miles": 0.62, "start_mi": 21.52, "end_mi": 22.15, "road": "FM 1107", "elev_ft": [468, 470, 470, 472, 472, 471, 471, 471, 471, 471, 471, 471, 471, 472, 472, 471, 470, 470, 469, 469, 469, 469, 469, 468, 468, 467, 466, 465, 464, 463, 461, 460, 460, 459, 459, 458, 457, 454, 454, 452, 451, 450, 450, 449, 448, 448, 448, 448, 448, 448, 449, 449, 449, 450, 450, 452, 453, 453, 454, 454, 455, 456, 457, 458, 458, 459, 466, 468, 470, 471, 468, 465]}}, {"type": "Feature", "geometry": {"type": "LineString", "coordinates": [[-97.86817, 29.27932], [-97.86817, 29.27932], [-97.86796, 29.27983], [-97.86789, 29.28], [-97.86788, 29.28004], [-97.86785, 29.28011], [-97.86777, 29.28031], [-97.86777, 29.28032], [-97.86773, 29.28041], [-97.86773, 29.28041], [-97.86759, 29.28077], [-97.86756, 29.28086], [-97.86714, 29.2819], [-97.86702, 29.28222], [-97.86695, 29.28239], [-97.86695, 29.2824], [-97.86692, 29.28246], [-97.86688, 29.28256], [-97.8668, 29.28275], [-97.8666, 29.28324], [-97.86653, 29.28343], [-97.86647, 29.28358], [-97.86644, 29.28366], [-97.86641, 29.28375], [-97.86636, 29.28386], [-97.86633, 29.28394], [-97.86631, 29.28398], [-97.86619, 29.28428], [-97.86608, 29.28455], [-97.86599, 29.28479], [-97.86595, 29.28491], [-97.86571, 29.28564], [-97.8656, 29.28603], [-97.86555, 29.2862], [-97.8655, 29.28635], [-97.86534, 29.2869], [-97.86529, 29.28706], [-97.86527, 29.28719], [-97.86526, 29.28723], [-97.86525, 29.28733], [-97.86524, 29.28748], [-97.86524, 29.28756], [-97.86524, 29.28763], [-97.86527, 29.2881], [-97.86529, 29.28839], [-97.86529, 29.28871], [-97.86528, 29.28879], [-97.86527, 29.28884], [-97.86527, 29.28885], [-97.86527, 29.28887], [-97.86524, 29.28894], [-97.86522, 29.28899], [-97.86516, 29.2891], [-97.86503, 29.28931], [-97.86415, 29.29077], [-97.86385, 29.29126], [-97.86376, 29.2914], [-97.86376, 29.29141], [-97.86366, 29.2915], [-97.86361, 29.29151], [-97.86355, 29.29152], [-97.86345, 29.29148], [-97.86341, 29.29147], [-97.8631, 29.29129], [-97.86301, 29.29125], [-97.86274, 29.29111], [-97.86259, 29.29104], [-97.86245, 29.29098], [-97.86237, 29.29095], [-97.86224, 29.29091], [-97.86219, 29.29089], [-97.86216, 29.29088], [-97.86189, 29.29077], [-97.86146, 29.29057], [-97.86138, 29.29054], [-97.86124, 29.29055], [-97.8611, 29.29063], [-97.86104, 29.2907], [-97.8603, 29.29192], [-97.86027, 29.29198], [-97.86021, 29.29208], [-97.86001, 29.2924], [-97.85967, 29.29296], [-97.85967, 29.29296], [-97.85886, 29.29427], [-97.85871, 29.29451], [-97.85847, 29.2949], [-97.85845, 29.29494], [-97.85828, 29.29522], [-97.85784, 29.29593], [-97.85772, 29.29611], [-97.85759, 29.29633], [-97.85747, 29.29652], [-97.857, 29.29728], [-97.85676, 29.29767], [-97.85672, 29.29774], [-97.85671, 29.2978], [-97.85669, 29.29786], [-97.85674, 29.29797], [-97.85679, 29.29802], [-97.85684, 29.29808], [-97.85688, 29.29811], [-97.85708, 29.29828], [-97.85717, 29.29835], [-97.85718, 29.29835], [-97.85726, 29.29841], [-97.85729, 29.29843], [-97.85741, 29.2985], [-97.85752, 29.29856], [-97.85755, 29.29857], [-97.85761, 29.2986], [-97.8577, 29.29864], [-97.85773, 29.29866], [-97.85779, 29.29868], [-97.85788, 29.29873], [-97.85797, 29.29877], [-97.85808, 29.29881], [-97.85815, 29.29885], [-97.8583, 29.29892], [-97.8588, 29.29914], [-97.85889, 29.29918], [-97.85899, 29.29923], [-97.85925, 29.29935], [-97.85935, 29.29939], [-97.85937, 29.2994], [-97.85939, 29.29941], [-97.85944, 29.29943], [-97.85953, 29.29947], [-97.85998, 29.29968], [-97.86008, 29.29972], [-97.86026, 29.29981], [-97.86033, 29.29984], [-97.86045, 29.29989], [-97.86053, 29.29994], [-97.86059, 29.29998], [-97.86064, 29.30004], [-97.86067, 29.30007], [-97.86066, 29.30014], [-97.86066, 29.30017], [-97.86056, 29.30033], [-97.86053, 29.30039], [-97.86033, 29.30072], [-97.86028, 29.3008], [-97.85999, 29.30129], [-97.8599, 29.30144], [-97.85952, 29.30208], [-97.85933, 29.3024], [-97.85923, 29.30257], [-97.85914, 29.30271], [-97.85904, 29.30287], [-97.859, 29.30294], [-97.85894, 29.30304], [-97.8587, 29.30347], [-97.85867, 29.30352], [-97.85857, 29.30369], [-97.85848, 29.30385], [-97.85838, 29.30401], [-97.85832, 29.30411], [-97.85829, 29.30417], [-97.85819, 29.30433], [-97.8581, 29.30449], [-97.85793, 29.30477], [-97.8578, 29.30496], [-97.85763, 29.30524], [-97.85761, 29.30528], [-97.85732, 29.30575], [-97.85713, 29.30607], [-97.85703, 29.30623], [-97.85674, 29.30671], [-97.85673, 29.30673], [-97.85664, 29.30687], [-97.85645, 29.30718], [-97.85625, 29.3075], [-97.85623, 29.30755], [-97.85616, 29.30766], [-97.8559, 29.30811], [-97.85587, 29.30814], [-97.85577, 29.3083], [-97.85572, 29.30839], [-97.85567, 29.30845], [-97.85557, 29.30854], [-97.85544, 29.30855], [-97.85521, 29.30847], [-97.85513, 29.30843], [-97.85502, 29.30837], [-97.85494, 29.30834], [-97.85442, 29.30811], [-97.85421, 29.30801], [-97.85403, 29.30792], [-97.85376, 29.30779], [-97.85344, 29.30764], [-97.85336, 29.30761], [-97.85323, 29.30761], [-97.8531, 29.30766], [-97.85304, 29.30771], [-97.85297, 29.30777], [-97.85283, 29.30792], [-97.85269, 29.30811], [-97.85269, 29.30812], [-97.8526, 29.30827], [-97.8525, 29.30843], [-97.85241, 29.30859], [-97.85172, 29.3097], [-97.85162, 29.30986], [-97.8516, 29.30988], [-97.85148, 29.31008], [-97.85132, 29.31033], [-97.85122, 29.31049], [-97.85112, 29.31064], [-97.85111, 29.31067], [-97.85108, 29.31072], [-97.85071, 29.3113], [-97.85063, 29.31143], [-97.85032, 29.31194], [-97.85028, 29.312], [-97.85002, 29.31241], [-97.84975, 29.31284], [-97.84964, 29.313], [-97.84933, 29.31348], [-97.84933, 29.31349], [-97.84923, 29.31364], [-97.84875, 29.31436], [-97.84861, 29.31457], [-97.84856, 29.31467], [-97.8484, 29.31492], [-97.84826, 29.31515], [-97.84822, 29.31521], [-97.8482, 29.31523], [-97.84792, 29.31566], [-97.8479, 29.3157], [-97.8477, 29.31602], [-97.84766, 29.31606], [-97.84765, 29.31609], [-97.8476, 29.31617], [-97.8471, 29.31696], [-97.8469, 29.31728], [-97.84688, 29.3173], [-97.84685, 29.31735], [-97.8468, 29.31743], [-97.8467, 29.31759], [-97.84623, 29.31831], [-97.84619, 29.31837], [-97.84577, 29.31899], [-97.84536, 29.31961], [-97.84534, 29.31965], [-97.84533, 29.31965], [-97.84526, 29.31977], [-97.84515, 29.31992], [-97.84489, 29.32029], [-97.84483, 29.32038], [-97.84483, 29.32038], [-97.84467, 29.3203], [-97.8443, 29.32011], [-97.84403, 29.31996], [-97.84384, 29.31986], [-97.8436, 29.31974]]}, "properties": {"surface": "unknown", "label": "Unverified", "color": "#9A9389", "miles": 3.85, "start_mi": 22.15, "end_mi": 26.0, "road": "County Road 448", "elev_ft": [460, 460, 459, 459, 459, 459, 460, 460, 460, 460, 460, 460, 462, 462, 462, 462, 461, 461, 460, 455, 453, 453, 452, 452, 453, 454, 454, 459, 462, 464, 464, 470, 470, 470, 471, 472, 474, 475, 475, 476, 477, 478, 478, 481, 483, 483, 484, 484, 484, 484, 483, 483, 483, 484, 490, 490, 490, 490, 490, 490, 490, 491, 492, 495, 496, 499, 500, 501, 502, 502, 503, 503, 504, 504, 504, 504, 504, 504, 503, 503, 503, 503, 501, 501, 496, 496, 499, 499, 498, 490, 490, 492, 494, 501, 503, 503, 504, 504, 506, 506, 507, 508, 510, 510, 510, 511, 511, 511, 510, 510, 509, 508, 507, 506, 505, 503, 502, 501, 498, 492, 491, 490, 487, 486, 486, 486, 486, 486, 489, 490, 491, 492, 494, 496, 497, 498, 499, 499, 499, 498, 498, 497, 497, 494, 493, 487, 485, 484, 483, 481, 481, 479, 470, 470, 468, 466, 463, 462, 461, 462, 463, 465, 466, 467, 467, 467, 467, 467, 467, 467, 467, 467, 466, 466, 466, 466, 467, 467, 468, 468, 468, 470, 476, 479, 481, 481, 484, 485, 485, 485, 486, 486, 487, 489, 490, 490, 491, 490, 490, 489, 487, 485, 470, 468, 467, 465, 463, 461, 459, 459, 459, 451, 449, 447, 447, 442, 443, 443, 444, 444, 444, 443, 443, 443, 442, 442, 442, 442, 439, 439, 437, 436, 435, 434, 429, 426, 426, 426, 425, 424, 421, 421, 420, 420, 420, 420, 419, 419, 417, 416, 416, 419, 421, 422, 423, 422]}}, {"type": "Feature", "geometry": {"type": "LineString", "coordinates": [[-97.84287, 29.31936], [-97.84287, 29.31936], [-97.8428, 29.31944], [-97.84276, 29.31949], [-97.84267, 29.31959], [-97.84263, 29.31963], [-97.84257, 29.3197], [-97.8425, 29.31977], [-97.84246, 29.31982], [-97.84238, 29.31991], [-97.84225, 29.32006], [-97.84213, 29.3202], [-97.84171, 29.32067], [-97.84162, 29.32077], [-97.84149, 29.32091], [-97.84143, 29.32099], [-97.84137, 29.32105], [-97.84124, 29.32119], [-97.84105, 29.3214], [-97.84092, 29.32155], [-97.84085, 29.32162], [-97.84066, 29.32183], [-97.8404, 29.32211], [-97.84037, 29.32214], [-97.84028, 29.32225], [-97.84015, 29.32239], [-97.83993, 29.32264], [-97.83977, 29.32282], [-97.83939, 29.32324], [-97.83913, 29.32352], [-97.839, 29.32366], [-97.839, 29.32367], [-97.83866, 29.32405], [-97.83855, 29.32417], [-97.83837, 29.32437], [-97.83786, 29.32494], [-97.83779, 29.32501], [-97.83722, 29.32565], [-97.83671, 29.32621], [-97.83633, 29.32663], [-97.83633, 29.32664], [-97.8362, 29.32678], [-97.83607, 29.32691], [-97.83581, 29.32719], [-97.83568, 29.32733], [-97.83567, 29.32734], [-97.83541, 29.32761], [-97.83535, 29.32766], [-97.8353, 29.32772], [-97.83527, 29.32774], [-97.83519, 29.32782], [-97.83502, 29.32802], [-97.83478, 29.32829], [-97.83468, 29.32843], [-97.83457, 29.32862], [-97.83457, 29.32862], [-97.83448, 29.32879], [-97.83443, 29.32889], [-97.83439, 29.32899], [-97.83435, 29.32908], [-97.83434, 29.32912], [-97.83422, 29.32944], [-97.83411, 29.32972], [-97.83404, 29.32985], [-97.83401, 29.3299], [-97.83396, 29.33], [-97.83389, 29.33009], [-97.83387, 29.33012], [-97.8338, 29.3302], [-97.83373, 29.33028], [-97.83341, 29.33063], [-97.83322, 29.33082], [-97.83308, 29.33098], [-97.83269, 29.33139], [-97.83245, 29.33164], [-97.83245, 29.33164], [-97.83228, 29.33182], [-97.83179, 29.33235], [-97.83177, 29.33237], [-97.8314, 29.33277], [-97.83111, 29.33308], [-97.83098, 29.33322], [-97.83077, 29.33345], [-97.83059, 29.33365], [-97.83049, 29.33375], [-97.83037, 29.33389], [-97.83018, 29.33412], [-97.83012, 29.33419], [-97.82975, 29.33464], [-97.82964, 29.33477], [-97.82921, 29.33529], [-97.82916, 29.33535], [-97.82915, 29.33536], [-97.82896, 29.33557], [-97.82858, 29.336], [-97.82846, 29.33615], [-97.82787, 29.33681], [-97.82778, 29.33692], [-97.82771, 29.337], [-97.82758, 29.33714], [-97.8274, 29.33735], [-97.82695, 29.33785], [-97.82676, 29.33806], [-97.82669, 29.33814], [-97.82657, 29.33828], [-97.82653, 29.33832], [-97.82625, 29.33864], [-97.82612, 29.33882], [-97.82612, 29.33882]]}, "properties": {"surface": "caliche", "label": "Caliche / gravel", "color": "#C98A24", "miles": 1.69, "start_mi": 26.0, "end_mi": 27.68, "road": "County Road 115", "elev_ft": [418, 418, 417, 416, 415, 414, 414, 413, 413, 412, 411, 410, 409, 409, 408, 408, 408, 407, 407, 406, 407, 407, 407, 407, 407, 407, 407, 408, 407, 407, 407, 408, 408, 409, 409, 407, 406, 404, 402, 401, 400, 400, 400, 400, 400, 400, 400, 400, 400, 400, 400, 400, 400, 400, 400, 400, 400, 400, 400, 400, 400, 400, 400, 401, 401, 401, 402, 402, 403, 403, 406, 408, 410, 416, 419, 419, 421, 422, 422, 422, 422, 422, 422, 422, 422, 423, 425, 425, 429, 431, 433, 432, 432, 432, 432, 432, 435, 435, 436, 436, 438, 442, 443, 444, 445, 445, 447, 448, 448]}}, {"type": "Feature", "geometry": {"type": "LineString", "coordinates": [[-97.82595, 29.33872], [-97.82585, 29.33866], [-97.82578, 29.33861], [-97.82557, 29.33846], [-97.82531, 29.33827], [-97.82499, 29.33803], [-97.82492, 29.33797], [-97.82484, 29.33791], [-97.82425, 29.33744], [-97.82423, 29.33743], [-97.82407, 29.33731], [-97.8233, 29.33672], [-97.82314, 29.3366], [-97.82306, 29.33653], [-97.82283, 29.33636], [-97.82267, 29.33624], [-97.82263, 29.33621]]}, "properties": {"surface": "unknown", "label": "Unverified", "color": "#9A9389", "miles": 0.26, "start_mi": 27.68, "end_mi": 27.95, "road": "County Road 117", "elev_ft": [449, 450, 450, 449, 448, 443, 442, 441, 431, 431, 430, 434, 436, 437, 439, 441, 442]}}, {"type": "Feature", "geometry": {"type": "LineString", "coordinates": [[-97.82237, 29.33603], [-97.82237, 29.33603], [-97.82221, 29.33612], [-97.82219, 29.33613], [-97.82213, 29.33616], [-97.82202, 29.3362], [-97.82165, 29.33635], [-97.82144, 29.33644], [-97.82136, 29.33648], [-97.82128, 29.33652], [-97.82122, 29.33656], [-97.82117, 29.3366], [-97.82113, 29.33664], [-97.82106, 29.33671], [-97.821, 29.33678], [-97.82088, 29.33691], [-97.82087, 29.33692], [-97.82075, 29.33706], [-97.82061, 29.33723], [-97.82028, 29.33759], [-97.82028, 29.33759], [-97.82024, 29.33763], [-97.8201, 29.33779], [-97.81986, 29.33805], [-97.81973, 29.3382], [-97.81934, 29.33862], [-97.81925, 29.33871], [-97.81921, 29.33876], [-97.8187, 29.33932], [-97.81857, 29.33946], [-97.81845, 29.33961], [-97.81807, 29.34003], [-97.81764, 29.3405], [-97.81743, 29.34074], [-97.81704, 29.34116], [-97.81665, 29.34157], [-97.81665, 29.34158], [-97.81639, 29.34185], [-97.81612, 29.34213], [-97.81586, 29.34241], [-97.8158, 29.34247], [-97.81573, 29.34255], [-97.81561, 29.34269], [-97.81509, 29.34326], [-97.81465, 29.34375], [-97.81452, 29.34389], [-97.81448, 29.34393], [-97.81376, 29.34474], [-97.81363, 29.34488], [-97.81337, 29.34516], [-97.81322, 29.34533], [-97.81278, 29.34583], [-97.81267, 29.34596], [-97.81261, 29.34601], [-97.81248, 29.34615], [-97.81234, 29.34628], [-97.81232, 29.34631], [-97.81208, 29.34653], [-97.81206, 29.34655], [-97.81184, 29.34677], [-97.81161, 29.34702], [-97.81154, 29.34711], [-97.8113, 29.3474], [-97.81093, 29.34784], [-97.81018, 29.34869], [-97.80998, 29.34894], [-97.80979, 29.34919], [-97.80973, 29.34929], [-97.8097, 29.34933], [-97.80962, 29.34947], [-97.80955, 29.34961], [-97.80946, 29.34978], [-97.80938, 29.34994], [-97.80923, 29.35023], [-97.80913, 29.35044], [-97.80866, 29.3514], [-97.80865, 29.35143], [-97.80858, 29.35156], [-97.80856, 29.35159], [-97.8085, 29.35171], [-97.80847, 29.35175], [-97.8084, 29.35186], [-97.80836, 29.35191], [-97.80829, 29.35201], [-97.80802, 29.35236], [-97.80779, 29.35265], [-97.80769, 29.35277], [-97.80744, 29.3531], [-97.80692, 29.3538], [-97.80682, 29.35392], [-97.80676, 29.354], [-97.80672, 29.35405], [-97.80661, 29.35416], [-97.8065, 29.35427], [-97.80638, 29.35437], [-97.80615, 29.35456], [-97.80604, 29.35464], [-97.8059, 29.35475], [-97.80588, 29.35476], [-97.80585, 29.35478], [-97.80576, 29.35484], [-97.80571, 29.35486], [-97.80537, 29.35506], [-97.80503, 29.35526], [-97.80486, 29.35536], [-97.80477, 29.35541], [-97.80455, 29.35553], [-97.80451, 29.35555], [-97.80446, 29.35558], [-97.80436, 29.35561], [-97.80419, 29.35566], [-97.80386, 29.35573], [-97.80374, 29.35576], [-97.80369, 29.35576], [-97.8035, 29.35579], [-97.80339, 29.3558], [-97.80328, 29.3558], [-97.80316, 29.35579], [-97.80304, 29.35578], [-97.80293, 29.35576], [-97.80279, 29.35574], [-97.80254, 29.35568], [-97.80229, 29.35562], [-97.80203, 29.35556], [-97.80203, 29.35556], [-97.80199, 29.35556], [-97.80193, 29.35554], [-97.80132, 29.3554], [-97.80121, 29.35537], [-97.80119, 29.35537], [-97.80116, 29.35537], [-97.80112, 29.35537], [-97.80105, 29.35537], [-97.80092, 29.35539], [-97.80092, 29.35539], [-97.80086, 29.35526], [-97.80086, 29.35526], [-97.80078, 29.35525], [-97.80071, 29.35525], [-97.8007, 29.35525], [-97.80066, 29.35524], [-97.80065, 29.35524], [-97.80061, 29.35523], [-97.80052, 29.3552], [-97.80045, 29.35517], [-97.80039, 29.35515], [-97.80026, 29.3551], [-97.80013, 29.35505], [-97.80008, 29.35503], [-97.79998, 29.355], [-97.79988, 29.35496], [-97.79988, 29.35496], [-97.79979, 29.35492], [-97.79961, 29.35487], [-97.79952, 29.35484], [-97.79943, 29.35483], [-97.79934, 29.35482], [-97.7993, 29.35482], [-97.79924, 29.35482], [-97.79914, 29.35482], [-97.79906, 29.35482], [-97.79891, 29.35483], [-97.79888, 29.35483], [-97.79883, 29.35483], [-97.79873, 29.35484], [-97.79867, 29.35485], [-97.79838, 29.35486], [-97.79801, 29.35489], [-97.79786, 29.35491], [-97.79782, 29.35491], [-97.79776, 29.35492], [-97.79769, 29.35494], [-97.79747, 29.35501], [-97.79746, 29.35501], [-97.79741, 29.35503], [-97.79732, 29.35506], [-97.7972, 29.3551], [-97.79699, 29.35518], [-97.79665, 29.35529], [-97.79649, 29.35534], [-97.79643, 29.35536], [-97.79636, 29.35538], [-97.79631, 29.3554], [-97.7963, 29.3554], [-97.79615, 29.35545], [-97.79602, 29.35548], [-97.7959, 29.35551], [-97.79587, 29.35551], [-97.79576, 29.35554], [-97.7957, 29.35555], [-97.79559, 29.35556], [-97.7955, 29.35557], [-97.79545, 29.35558], [-97.79536, 29.35559], [-97.79533, 29.35559], [-97.7953, 29.3556], [-97.79525, 29.35561], [-97.79519, 29.35562], [-97.79512, 29.35565], [-97.79498, 29.35572], [-97.79491, 29.35578], [-97.79484, 29.35584], [-97.79482, 29.35586], [-97.7947, 29.356], [-97.79442, 29.35631], [-97.7943, 29.35646], [-97.79429, 29.35647], [-97.79429, 29.35647], [-97.7942, 29.35657], [-97.79418, 29.35661], [-97.79326, 29.3577], [-97.7932, 29.35777], [-97.7931, 29.35788], [-97.79308, 29.35791], [-97.79268, 29.35838], [-97.79251, 29.35857], [-97.79216, 29.35896], [-97.7921, 29.35902], [-97.79177, 29.35939], [-97.79169, 29.35948], [-97.79144, 29.35974], [-97.79103, 29.36017], [-97.79079, 29.36042], [-97.79039, 29.36084], [-97.79024, 29.361], [-97.78887, 29.36241], [-97.78728, 29.36406], [-97.78714, 29.3642], [-97.78713, 29.36421], [-97.78694, 29.36441], [-97.78688, 29.36448], [-97.78649, 29.3649], [-97.78632, 29.36511], [-97.78621, 29.36525], [-97.78585, 29.36567], [-97.78572, 29.36581], [-97.78546, 29.36612], [-97.78511, 29.36652], [-97.7851, 29.36653], [-97.78493, 29.36671], [-97.78478, 29.36685], [-97.78463, 29.36697], [-97.78448, 29.36705], [-97.78442, 29.36709], [-97.78433, 29.36714], [-97.78408, 29.36728], [-97.78405, 29.3673], [-97.78392, 29.36739], [-97.78379, 29.3675], [-97.7837, 29.36761], [-97.78361, 29.36776], [-97.78349, 29.368], [-97.78349, 29.36801], [-97.78338, 29.36825], [-97.78327, 29.36851], [-97.78323, 29.36858], [-97.78319, 29.36867], [-97.7831, 29.36886], [-97.78303, 29.36898], [-97.78302, 29.369], [-97.78295, 29.36911], [-97.78291, 29.36915], [-97.78282, 29.36928], [-97.7828, 29.3693], [-97.78262, 29.36953], [-97.78256, 29.3696], [-97.78244, 29.36974], [-97.78233, 29.36986], [-97.78231, 29.36989], [-97.78194, 29.37034], [-97.78184, 29.37047], [-97.78174, 29.37058], [-97.78171, 29.37062], [-97.78159, 29.37075], [-97.78159, 29.37076], [-97.78145, 29.3709], [-97.78138, 29.37097], [-97.78131, 29.37103], [-97.78113, 29.3712], [-97.78096, 29.37134], [-97.78069, 29.37154], [-97.78056, 29.37164], [-97.78028, 29.37185], [-97.78009, 29.37199], [-97.78003, 29.37204], [-97.78003, 29.37204], [-97.77999, 29.37207], [-97.77977, 29.37222], [-97.77966, 29.37229], [-97.77934, 29.37251], [-97.77918, 29.37265], [-97.77902, 29.3728], [-97.77886, 29.37297], [-97.7787, 29.37314], [-97.77852, 29.37336], [-97.7785, 29.37339], [-97.77813, 29.3739], [-97.77783, 29.3743], [-97.77764, 29.37452], [-97.77752, 29.37464], [-97.7774, 29.37475], [-97.77729, 29.37484], [-97.77728, 29.37484], [-97.77715, 29.37494], [-97.77701, 29.37502], [-97.77666, 29.37522], [-97.77655, 29.37528], [-97.77614, 29.37551], [-97.77592, 29.37564], [-97.77562, 29.3758], [-97.77523, 29.37601], [-97.7751, 29.37609], [-97.77475, 29.37629], [-97.77469, 29.37633], [-97.77459, 29.37639], [-97.77409, 29.37671], [-97.77387, 29.37686], [-97.77376, 29.37694], [-97.7736, 29.37705], [-97.77311, 29.37738], [-97.773, 29.37745], [-97.77279, 29.37761], [-97.77273, 29.37766], [-97.77261, 29.37775], [-97.77249, 29.37785], [-97.77247, 29.37788], [-97.77237, 29.37797], [-97.77232, 29.37801], [-97.77225, 29.37808], [-97.77208, 29.37825], [-97.77194, 29.37839], [-97.77167, 29.37866], [-97.77153, 29.37879], [-97.7714, 29.37892], [-97.77127, 29.37905], [-97.77119, 29.37911], [-97.77112, 29.37915], [-97.77106, 29.37918], [-97.77097, 29.37922], [-97.77092, 29.37923], [-97.77088, 29.37924], [-97.77084, 29.37924], [-97.77078, 29.37925], [-97.77072, 29.37926], [-97.77028, 29.37928], [-97.77023, 29.37928], [-97.76989, 29.3793], [-97.76957, 29.37932], [-97.76946, 29.37932], [-97.76921, 29.37933], [-97.76893, 29.37935], [-97.76867, 29.37935], [-97.76822, 29.37937], [-97.76798, 29.37937], [-97.76745, 29.37938], [-97.76719, 29.37939], [-97.76675, 29.3794], [-97.76636, 29.37941], [-97.76618, 29.37942], [-97.76581, 29.37942], [-97.76517, 29.37942], [-97.76476, 29.37942], [-97.76455, 29.37942], [-97.76438, 29.37942], [-97.76414, 29.37941], [-97.76393, 29.37941], [-97.76364, 29.37941], [-97.76342, 29.37941], [-97.76331, 29.37941], [-97.76316, 29.37941], [-97.76311, 29.37941], [-97.76309, 29.37941], [-97.76303, 29.37942], [-97.76297, 29.37944], [-97.76291, 29.37945], [-97.76287, 29.37947], [-97.76283, 29.37949], [-97.76276, 29.37952], [-97.76273, 29.37954], [-97.7627, 29.37956], [-97.76264, 29.37962], [-97.76251, 29.37974], [-97.76245, 29.37981], [-97.7622, 29.38009], [-97.76207, 29.38023], [-97.76202, 29.38029], [-97.76194, 29.38038], [-97.76132, 29.38109], [-97.76082, 29.38166], [-97.7608, 29.38168], [-97.76076, 29.38173], [-97.76076, 29.38173], [-97.76069, 29.38181], [-97.76057, 29.38195], [-97.76048, 29.38206], [-97.76026, 29.38234], [-97.7601, 29.38254], [-97.75998, 29.38269], [-97.75995, 29.38274], [-97.75977, 29.38297], [-97.75975, 29.38299], [-97.75968, 29.38309], [-97.75963, 29.38314], [-97.75958, 29.38319], [-97.75952, 29.38325], [-97.75949, 29.38327], [-97.75948, 29.38328], [-97.75944, 29.3833], [-97.75936, 29.38334], [-97.75932, 29.38336], [-97.7593, 29.38337], [-97.75922, 29.3834], [-97.759, 29.38347], [-97.75893, 29.3835], [-97.75856, 29.38362], [-97.75853, 29.38363], [-97.7585, 29.38364], [-97.75845, 29.38366], [-97.7584, 29.38369], [-97.75837, 29.38371], [-97.75834, 29.38373], [-97.75832, 29.38375], [-97.75829, 29.38378], [-97.75826, 29.38382], [-97.75823, 29.38388], [-97.75822, 29.38389], [-97.75818, 29.38398], [-97.75814, 29.38404], [-97.75809, 29.38415], [-97.75806, 29.38421], [-97.75786, 29.38463], [-97.75774, 29.38488], [-97.75766, 29.38504], [-97.7572, 29.38597], [-97.75709, 29.38619], [-97.75701, 29.38636], [-97.75692, 29.38654], [-97.75685, 29.38669], [-97.75669, 29.38702], [-97.75653, 29.38735], [-97.75648, 29.38746], [-97.75638, 29.38765], [-97.75634, 29.38772], [-97.75629, 29.38781], [-97.75616, 29.38799], [-97.75613, 29.38802], [-97.75596, 29.38823], [-97.75584, 29.38836], [-97.75577, 29.38844], [-97.75571, 29.3885], [-97.75527, 29.38901], [-97.75519, 29.38909], [-97.75515, 29.38914], [-97.75512, 29.38918], [-97.75507, 29.38925], [-97.75504, 29.38928], [-97.75502, 29.3893], [-97.75498, 29.38938], [-97.75494, 29.38948], [-97.75491, 29.38958], [-97.75489, 29.38964], [-97.75488, 29.38967], [-97.75486, 29.38978], [-97.75483, 29.38993], [-97.75482, 29.39005], [-97.75481, 29.39012], [-97.7548, 29.3902], [-97.75479, 29.39034], [-97.75479, 29.39044], [-97.75479, 29.39053], [-97.75478, 29.39082], [-97.75478, 29.39113], [-97.75477, 29.39117], [-97.75477, 29.39119], [-97.75476, 29.39122], [-97.75475, 29.39123], [-97.75474, 29.39124], [-97.75473, 29.39126], [-97.7547, 29.39128], [-97.75466, 29.39132], [-97.75461, 29.39134], [-97.75456, 29.39136], [-97.75451, 29.39138], [-97.75445, 29.39139], [-97.75442, 29.39139], [-97.75439, 29.39139], [-97.75418, 29.3914], [-97.75372, 29.39143], [-97.75351, 29.39144], [-97.75342, 29.39145], [-97.75337, 29.39146], [-97.75328, 29.39148], [-97.7532, 29.3915], [-97.75312, 29.39152], [-97.75308, 29.39154], [-97.75298, 29.39158], [-97.75289, 29.39161], [-97.7526, 29.39172], [-97.75251, 29.39175], [-97.7523, 29.39183], [-97.75194, 29.39198], [-97.75185, 29.39201], [-97.75157, 29.39213], [-97.75153, 29.39215], [-97.75148, 29.39216], [-97.7514, 29.39219], [-97.7513, 29.39222], [-97.75122, 29.39224], [-97.75118, 29.39225], [-97.75115, 29.39225], [-97.7511, 29.39226], [-97.75107, 29.39226], [-97.75101, 29.39227], [-97.75098, 29.39227], [-97.75096, 29.39227], [-97.75096, 29.39227], [-97.7509, 29.39227], [-97.75083, 29.39226], [-97.75077, 29.39226], [-97.75074, 29.39225], [-97.75065, 29.39223], [-97.7505, 29.3922], [-97.74989, 29.39205], [-97.74968, 29.392], [-97.74958, 29.39197], [-97.74956, 29.39197], [-97.74951, 29.39195], [-97.74948, 29.39195], [-97.74839, 29.39167], [-97.74829, 29.39165], [-97.74819, 29.39162], [-97.74813, 29.39161], [-97.74802, 29.39158], [-97.74797, 29.39157], [-97.74792, 29.39157], [-97.74784, 29.39157], [-97.74742, 29.39157], [-97.74728, 29.39157], [-97.74687, 29.39158], [-97.74646, 29.39159], [-97.74522, 29.39162], [-97.74513, 29.39162], [-97.74501, 29.39162]]}, "properties": {"surface": "caliche", "label": "Caliche / gravel", "color": "#C98A24", "miles": 6.63, "start_mi": 27.95, "end_mi": 34.57, "road": "County Road 114", "elev_ft": [448, 448, 451, 452, 453, 456, 464, 469, 470, 470, 471, 471, 471, 471, 471, 471, 471, 471, 469, 466, 466, 466, 466, 466, 467, 469, 470, 470, 472, 472, 472, 471, 468, 464, 460, 457, 457, 456, 455, 454, 454, 454, 454, 459, 462, 463, 463, 471, 471, 471, 470, 466, 465, 464, 463, 462, 462, 461, 461, 460, 458, 458, 457, 459, 463, 465, 468, 469, 469, 469, 470, 471, 471, 472, 473, 478, 479, 479, 479, 479, 479, 479, 479, 479, 479, 479, 478, 478, 476, 476, 476, 476, 476, 476, 477, 478, 479, 479, 479, 479, 479, 479, 480, 484, 486, 487, 488, 488, 488, 488, 487, 486, 485, 485, 484, 483, 483, 483, 482, 482, 481, 480, 477, 474, 474, 473, 472, 467, 466, 465, 465, 465, 464, 463, 463, 463, 463, 462, 461, 461, 461, 461, 461, 460, 461, 461, 462, 463, 464, 465, 466, 466, 468, 470, 471, 472, 472, 473, 473, 474, 474, 474, 475, 475, 475, 475, 474, 473, 472, 472, 471, 471, 469, 469, 468, 466, 464, 461, 457, 456, 455, 454, 454, 454, 452, 452, 451, 451, 450, 450, 450, 450, 449, 449, 449, 449, 449, 449, 448, 448, 448, 448, 448, 449, 449, 449, 449, 449, 449, 448, 440, 440, 440, 439, 436, 433, 431, 431, 430, 430, 430, 427, 426, 424, 424, 424, 425, 425, 425, 425, 426, 429, 430, 430, 431, 431, 431, 431, 431, 432, 432, 432, 432, 433, 433, 433, 432, 432, 432, 432, 432, 432, 432, 433, 433, 433, 434, 434, 434, 435, 435, 435, 435, 435, 436, 436, 437, 437, 437, 439, 439, 439, 439, 440, 440, 440, 440, 439, 438, 437, 437, 436, 435, 433, 433, 433, 433, 432, 431, 430, 429, 428, 427, 427, 426, 426, 424, 426, 427, 427, 427, 427, 427, 427, 428, 428, 428, 431, 433, 434, 435, 435, 434, 434, 434, 435, 435, 435, 434, 432, 432, 431, 431, 430, 430, 429, 428, 428, 428, 428, 428, 430, 430, 431, 432, 432, 432, 432, 432, 432, 432, 432, 432, 432, 432, 432, 433, 433, 433, 433, 431, 429, 428, 428, 428, 428, 425, 421, 419, 416, 411, 412, 415, 418, 420, 422, 427, 429, 429, 430, 431, 431, 431, 432, 432, 432, 431, 431, 431, 430, 429, 427, 427, 421, 420, 419, 419, 413, 408, 408, 408, 408, 408, 407, 405, 399, 398, 396, 396, 393, 393, 392, 392, 391, 390, 390, 390, 389, 389, 389, 389, 389, 390, 391, 395, 396, 396, 396, 397, 397, 397, 397, 398, 398, 398, 398, 397, 398, 397, 397, 396, 394, 392, 386, 383, 381, 380, 379, 379, 378, 378, 378, 377, 377, 376, 376, 374, 373, 372, 372, 370, 369, 367, 367, 366, 365, 365, 365, 365, 365, 365, 365, 364, 364, 364, 364, 364, 363, 363, 363, 362, 362, 362, 362, 362, 362, 362, 362, 362, 362, 362, 362, 362, 362, 362, 362, 362, 362, 362, 362, 362, 362, 362, 362, 362, 362, 362, 362, 362, 361, 360, 360, 357, 357, 357, 358, 360, 361, 361, 361, 361, 361, 362, 362, 362, 362, 362, 363, 363, 363, 363, 364, 366, 367, 368, 368, 368, 368, 378, 378, 378, 378, 378, 378, 378, 378, 376, 376, 375, 378, 391, 391, 390]}}, {"type": "Feature", "geometry": {"type": "LineString", "coordinates": [[-97.7446, 29.39164], [-97.74449, 29.39165], [-97.74418, 29.39165], [-97.74405, 29.39167], [-97.74382, 29.3917], [-97.74382, 29.3917], [-97.74384, 29.39183], [-97.74387, 29.39213], [-97.74389, 29.39242], [-97.7439, 29.39256], [-97.7439, 29.3926], [-97.74392, 29.39296], [-97.74399, 29.39386], [-97.744, 29.3942], [-97.744, 29.39422], [-97.74399, 29.39436], [-97.74398, 29.39439], [-97.74397, 29.39444], [-97.74396, 29.39452], [-97.74394, 29.39457], [-97.74393, 29.3946], [-97.74389, 29.39468], [-97.74352, 29.39539], [-97.74339, 29.39565], [-97.74339, 29.39565], [-97.74336, 29.39572], [-97.74327, 29.39589], [-97.74326, 29.39592], [-97.74312, 29.3962], [-97.74311, 29.39622], [-97.74309, 29.39629], [-97.74306, 29.39638], [-97.74306, 29.39639], [-97.74302, 29.39657], [-97.74295, 29.3971], [-97.74293, 29.39727], [-97.74291, 29.39746], [-97.7429, 29.39755], [-97.7428, 29.39836], [-97.74278, 29.39854], [-97.7427, 29.39928], [-97.74261, 29.40006], [-97.74261, 29.40009], [-97.74259, 29.40027], [-97.74256, 29.40051], [-97.74254, 29.40063], [-97.74254, 29.40065], [-97.74251, 29.40072], [-97.74249, 29.40076], [-97.74246, 29.4008], [-97.74244, 29.40082], [-97.74242, 29.40083], [-97.74238, 29.40086], [-97.74232, 29.40089], [-97.7423, 29.4009], [-97.74225, 29.40091], [-97.74209, 29.40093], [-97.74183, 29.40097], [-97.74169, 29.40099], [-97.7414, 29.40104], [-97.74084, 29.40115], [-97.74043, 29.40123], [-97.74012, 29.40128], [-97.73992, 29.40132], [-97.73974, 29.40138], [-97.73968, 29.40141], [-97.73962, 29.4015], [-97.73957, 29.40161], [-97.73957, 29.40173], [-97.73956, 29.40183], [-97.73957, 29.40196], [-97.7396, 29.4023], [-97.73963, 29.40266], [-97.73968, 29.40322], [-97.73971, 29.4039], [-97.73971, 29.40392], [-97.73971, 29.4041], [-97.73971, 29.40426], [-97.73971, 29.40428], [-97.7397, 29.40434], [-97.7397, 29.40434], [-97.73969, 29.40502], [-97.73967, 29.40533], [-97.73964, 29.40546], [-97.73962, 29.40553], [-97.73962, 29.40555], [-97.73959, 29.40562], [-97.73955, 29.40568], [-97.73951, 29.40574], [-97.73946, 29.4058], [-97.73938, 29.40586], [-97.73926, 29.40594], [-97.7391, 29.40604], [-97.73908, 29.40605], [-97.73908, 29.40605], [-97.73893, 29.40614], [-97.73876, 29.40623], [-97.73863, 29.40632], [-97.73836, 29.4065], [-97.7383, 29.40655], [-97.73829, 29.40656], [-97.73829, 29.40656], [-97.73826, 29.40658], [-97.73819, 29.40664], [-97.73811, 29.40671], [-97.73804, 29.40677], [-97.73794, 29.40689], [-97.73786, 29.40702], [-97.7378, 29.40714], [-97.73779, 29.40716], [-97.73773, 29.40732], [-97.73773, 29.40732], [-97.737054, 29.407315], [-97.737054, 29.407315], [-97.73639, 29.406964]]}, "properties": {"surface": "unknown", "label": "Unverified", "color": "#9A9389", "miles": 1.41, "start_mi": 34.57, "end_mi": 35.99, "road": "County Road 157", "elev_ft": [385, 384, 381, 380, 377, 377, 377, 376, 376, 376, 376, 376, 378, 378, 378, 378, 378, 378, 378, 378, 377, 377, 375, 376, 376, 376, 377, 377, 378, 378, 378, 378, 378, 380, 386, 387, 387, 386, 381, 380, 377, 376, 376, 376, 375, 375, 375, 374, 374, 373, 373, 373, 373, 373, 373, 373, 372, 372, 372, 372, 371, 369, 366, 365, 364, 364, 363, 363, 363, 363, 363, 362, 360, 358, 355, 355, 354, 354, 354, 354, 354, 352, 351, 350, 348, 348, 345, 344, 344, 346, 348, 350, 351, 351, 351, 351, 351, 351, 349, 347, 347, 347, 347, 346, 346, 346, 346, 347, 347, 347, 347, 347, 344, 344, 351]}}]}