{"type": "FeatureCollection", "features": [{"type": "Feature", "geometry": {"type": "LineString", "coordinates": [[-97.73651, 29.407084], [-97.737121, 29.407238], [-97.737121, 29.407238], [-97.737715, 29.407252], [-97.73785, 29.40702], [-97.73793, 29.40689], [-97.73803, 29.40677], [-97.73835, 29.4065], [-97.73864, 29.40631], [-97.73864, 29.40631], [-97.73892, 29.40614], [-97.73908, 29.40606], [-97.73938, 29.40587], [-97.73945, 29.40581], [-97.7395, 29.40575], [-97.73954, 29.40569], [-97.73961, 29.40555], [-97.73963, 29.40547], [-97.73966, 29.40534], [-97.73967, 29.4048], [-97.73968, 29.40426], [-97.73968, 29.4039], [-97.73964, 29.40321], [-97.73959, 29.40255], [-97.73954, 29.40188], [-97.73954, 29.40172], [-97.73955, 29.40162], [-97.73955, 29.40162], [-97.73955, 29.40155], [-97.73954, 29.40146], [-97.73952, 29.40132], [-97.73953, 29.40127], [-97.73958, 29.40127], [-97.7397, 29.40133], [-97.73978, 29.40134], [-97.73983, 29.40134], [-97.74037, 29.40123], [-97.74129, 29.40107], [-97.74184, 29.40097], [-97.74222, 29.4009], [-97.74228, 29.40088], [-97.74239, 29.40083], [-97.74243, 29.40079], [-97.74248, 29.40071], [-97.7425, 29.40064], [-97.74253, 29.40051], [-97.74262, 29.39969], [-97.74271, 29.39888], [-97.74281, 29.39807], [-97.7429, 29.39725], [-97.74299, 29.39656], [-97.74303, 29.39637], [-97.74309, 29.39618], [-97.7434, 29.39555], [-97.7434, 29.39555], [-97.74365, 29.39506], [-97.7439, 29.39457], [-97.74393, 29.39449], [-97.74396, 29.39433], [-97.74397, 29.39417], [-97.74396, 29.39382], [-97.7439, 29.39295], [-97.74384, 29.39208], [-97.74379, 29.39165], [-97.74418, 29.39165], [-97.7446, 29.39164]]}, "properties": {"surface": "unknown", "label": "Unverified", "color": "#9A9389", "miles": 1.41, "start_mi": 0.0, "end_mi": 1.41, "road": "County Road 157", "elev_ft": [349, 344, 344, 347, 347, 346, 346, 348, 351, 351, 351, 351, 348, 346, 345, 344, 348, 350, 351, 353, 354, 355, 359, 360, 363, 363, 363, 363, 363, 363, 363, 363, 363, 364, 364, 364, 368, 372, 372, 373, 373, 373, 373, 374, 375, 375, 376, 378, 382, 386, 380, 378, 378, 375, 375, 375, 377, 377, 378, 378, 378, 376, 376, 377, 381, 385]}}, {"type": "Feature", "geometry": {"type": "LineString", "coordinates": [[-97.74513, 29.39162], [-97.74574, 29.39161], [-97.74574, 29.39161], [-97.74645, 29.3916], [-97.74716, 29.39159], [-97.74787, 29.39157], [-97.74863, 29.39176], [-97.74939, 29.39194], [-97.75016, 29.39213], [-97.75016, 29.39213], [-97.7505, 29.39221], [-97.75076, 29.39226], [-97.7509, 29.39228], [-97.75106, 29.39227], [-97.75122, 29.39225], [-97.7514, 29.3922], [-97.75219, 29.39189], [-97.75298, 29.39157], [-97.75322, 29.3915], [-97.75344, 29.39146], [-97.75356, 29.39144], [-97.75436, 29.3914], [-97.75453, 29.39137], [-97.75463, 29.39133], [-97.75468, 29.39129], [-97.75474, 29.3912], [-97.75478, 29.39034], [-97.7548, 29.39002], [-97.75483, 29.3898], [-97.75488, 29.38959], [-97.75496, 29.38938], [-97.75502, 29.38929], [-97.75509, 29.38919], [-97.75552, 29.38871], [-97.75594, 29.38823], [-97.7562, 29.38792], [-97.75632, 29.38773], [-97.75647, 29.38744], [-97.75669, 29.38699], [-97.75691, 29.38653], [-97.75722, 29.38589], [-97.75754, 29.38525], [-97.75785, 29.38462], [-97.75816, 29.38398], [-97.75825, 29.38383], [-97.75835, 29.38373], [-97.75844, 29.38367], [-97.75856, 29.38362], [-97.759, 29.38348], [-97.7593, 29.38336], [-97.75941, 29.38331], [-97.75951, 29.38324], [-97.7596, 29.38316], [-97.75977, 29.38297], [-97.76012, 29.38251], [-97.76047, 29.38206], [-97.76078, 29.38169], [-97.76139, 29.38099], [-97.76199, 29.38029], [-97.76243, 29.3798], [-97.76255, 29.37968], [-97.76267, 29.37958], [-97.7628, 29.37949], [-97.76287, 29.37946], [-97.76296, 29.37943], [-97.76305, 29.37942], [-97.76327, 29.3794], [-97.7638, 29.37941], [-97.76434, 29.37943], [-97.76505, 29.37943], [-97.76576, 29.37943], [-97.76652, 29.37941], [-97.76728, 29.37939], [-97.76803, 29.37937], [-97.76803, 29.37938], [-97.76855, 29.37936], [-97.76907, 29.37935], [-97.76967, 29.37931], [-97.77061, 29.37926], [-97.77081, 29.37924], [-97.7709, 29.37922], [-97.77108, 29.37916], [-97.77117, 29.37911], [-97.77127, 29.37903], [-97.77148, 29.37884], [-97.77186, 29.37847], [-97.77224, 29.37811], [-97.77262, 29.37775], [-97.77276, 29.37764], [-97.77303, 29.37744], [-97.77355, 29.37708], [-97.77407, 29.37673], [-97.77461, 29.37637], [-97.77495, 29.37617], [-97.77551, 29.37588], [-97.7762, 29.37548], [-97.77653, 29.37531], [-97.77666, 29.37523], [-97.77682, 29.37515], [-97.77715, 29.37495], [-97.77741, 29.37476], [-97.77753, 29.37466], [-97.77772, 29.37445], [-97.77803, 29.37407], [-97.77833, 29.37364], [-97.77862, 29.37321], [-97.77882, 29.37299], [-97.77892, 29.37289], [-97.77914, 29.37268], [-97.77936, 29.37252], [-97.77979, 29.37221], [-97.78031, 29.37183], [-97.78082, 29.37144], [-97.78097, 29.37133], [-97.78125, 29.37108], [-97.7815, 29.37083], [-97.78162, 29.3707], [-97.78209, 29.37015], [-97.78255, 29.3696], [-97.78276, 29.36934], [-97.78295, 29.36908], [-97.78303, 29.36896], [-97.78316, 29.36871], [-97.78342, 29.36813], [-97.78358, 29.3678], [-97.78364, 29.36769], [-97.78371, 29.36759], [-97.78379, 29.3675], [-97.78389, 29.36742], [-97.7841, 29.36726], [-97.78449, 29.36704], [-97.78462, 29.36696], [-97.78475, 29.36687], [-97.78487, 29.36676], [-97.78498, 29.36665], [-97.78545, 29.36612], [-97.78582, 29.36568], [-97.78619, 29.36525], [-97.78664, 29.3647], [-97.78687, 29.36445], [-97.7871, 29.36421], [-97.78768, 29.36364], [-97.7883, 29.363], [-97.78892, 29.36235], [-97.78954, 29.36171], [-97.79016, 29.36107], [-97.79078, 29.36043], [-97.79112, 29.36008], [-97.79146, 29.35974], [-97.79182, 29.35935], [-97.79218, 29.35896], [-97.79276, 29.35831], [-97.79322, 29.35776], [-97.79369, 29.3572], [-97.79416, 29.35664], [-97.79449, 29.35626], [-97.79482, 29.35587], [-97.79482, 29.35587], [-97.79488, 29.3558], [-97.79495, 29.35574], [-97.79513, 29.35565], [-97.7952, 29.35562], [-97.79537, 29.35558], [-97.79573, 29.35554], [-97.79598, 29.35548], [-97.79642, 29.35536], [-97.79695, 29.35518], [-97.79748, 29.355], [-97.79772, 29.35493], [-97.79786, 29.35491], [-97.79822, 29.35487], [-97.79913, 29.35482], [-97.79933, 29.35482], [-97.79945, 29.35482], [-97.79953, 29.35484], [-97.79953, 29.35484], [-97.79953, 29.35484], [-97.79966, 29.35487], [-97.80015, 29.35505], [-97.80064, 29.35523], [-97.80077, 29.35526], [-97.8009, 29.3553], [-97.80102, 29.35535], [-97.80137, 29.35541], [-97.80231, 29.35562], [-97.80254, 29.35569], [-97.80279, 29.35574], [-97.80306, 29.35579], [-97.80306, 29.35579], [-97.80328, 29.3558], [-97.80339, 29.3558], [-97.80369, 29.35577], [-97.80386, 29.35573], [-97.80419, 29.35566], [-97.80436, 29.35561], [-97.80446, 29.35558], [-97.80477, 29.35541], [-97.80527, 29.35513], [-97.80576, 29.35484], [-97.8059, 29.35475], [-97.80615, 29.35456], [-97.80638, 29.35438], [-97.80661, 29.35416], [-97.80682, 29.35393], [-97.80722, 29.3534], [-97.80762, 29.35287], [-97.80796, 29.35244], [-97.80829, 29.35201], [-97.8085, 29.35171], [-97.80867, 29.3514], [-97.80895, 29.35082], [-97.80923, 29.35023], [-97.80962, 29.34947], [-97.80979, 29.34919], [-97.80998, 29.34894], [-97.81051, 29.34832], [-97.81105, 29.3477], [-97.81161, 29.34702], [-97.81184, 29.34677], [-97.81207, 29.34653], [-97.81267, 29.34595], [-97.81313, 29.34543], [-97.8136, 29.3449], [-97.81407, 29.34437], [-97.81407, 29.34437], [-97.81447, 29.34393], [-97.81507, 29.34331], [-97.8152, 29.34314], [-97.81579, 29.34247], [-97.81634, 29.34189], [-97.81688, 29.34132], [-97.81742, 29.34074], [-97.81803, 29.34006], [-97.81864, 29.33939], [-97.81925, 29.33871], [-97.81967, 29.33825], [-97.82009, 29.33779], [-97.82061, 29.33722], [-97.82106, 29.33671], [-97.82117, 29.3366], [-97.82122, 29.33656], [-97.82136, 29.33648], [-97.82144, 29.33644], [-97.82213, 29.33616], [-97.8222, 29.33612], [-97.8222, 29.33612], [-97.82213, 29.33616], [-97.82144, 29.33644], [-97.82136, 29.33648], [-97.82122, 29.33656], [-97.82117, 29.3366], [-97.82106, 29.33671], [-97.82088, 29.33691], [-97.82061, 29.33722], [-97.82015, 29.33772], [-97.8197, 29.33822], [-97.81925, 29.33871], [-97.81864, 29.33939], [-97.81803, 29.34006], [-97.81742, 29.34074], [-97.81684, 29.34136], [-97.81632, 29.34191], [-97.81579, 29.34247], [-97.8152, 29.34314], [-97.81507, 29.34331], [-97.81447, 29.34393], [-97.81387, 29.3446], [-97.81327, 29.34528], [-97.81267, 29.34595], [-97.81207, 29.34653], [-97.81184, 29.34677], [-97.81161, 29.34702], [-97.81105, 29.3477], [-97.81051, 29.34832], [-97.80998, 29.34894], [-97.80979, 29.34919], [-97.80962, 29.34947], [-97.80923, 29.35023], [-97.80884, 29.35105], [-97.80884, 29.35105], [-97.80867, 29.3514], [-97.8085, 29.35171], [-97.80829, 29.35201], [-97.80796, 29.35244], [-97.80762, 29.35287], [-97.80722, 29.3534], [-97.80682, 29.35393], [-97.80661, 29.35416], [-97.80638, 29.35438], [-97.80615, 29.35456], [-97.8059, 29.35475], [-97.80576, 29.35484], [-97.80527, 29.35513], [-97.80477, 29.35541], [-97.80446, 29.35558], [-97.80436, 29.35561], [-97.80419, 29.35566], [-97.80386, 29.35573], [-97.80369, 29.35577], [-97.80339, 29.3558], [-97.80328, 29.3558], [-97.80304, 29.35579], [-97.80279, 29.35574], [-97.80254, 29.35569], [-97.80231, 29.35562], [-97.80156, 29.35545], [-97.80156, 29.35545], [-97.80137, 29.35541], [-97.80102, 29.35535], [-97.80077, 29.35526], [-97.80064, 29.35523], [-97.80025, 29.35509], [-97.80025, 29.35509], [-97.79966, 29.35487], [-97.79945, 29.35482], [-97.79933, 29.35482], [-97.79913, 29.35482], [-97.79822, 29.35487], [-97.79786, 29.35491], [-97.79772, 29.35493], [-97.79748, 29.355], [-97.79695, 29.35518], [-97.79642, 29.35536], [-97.79598, 29.35548], [-97.79573, 29.35554], [-97.79537, 29.35558], [-97.7952, 29.35562], [-97.79513, 29.35565], [-97.79495, 29.35574], [-97.79488, 29.3558], [-97.79438, 29.35639], [-97.79388, 29.35698], [-97.79338, 29.35757], [-97.79338, 29.35757], [-97.79307, 29.35794], [-97.79276, 29.35831], [-97.79218, 29.35896], [-97.79182, 29.35935], [-97.79146, 29.35974], [-97.79112, 29.36008], [-97.79078, 29.36043], [-97.79016, 29.36107], [-97.78954, 29.36171], [-97.78892, 29.36235], [-97.7883, 29.363], [-97.78768, 29.36364], [-97.7871, 29.36421], [-97.78687, 29.36445], [-97.78664, 29.3647], [-97.78619, 29.36525], [-97.78582, 29.36568], [-97.78545, 29.36612], [-97.78498, 29.36665], [-97.78487, 29.36676], [-97.78475, 29.36687], [-97.78462, 29.36696], [-97.78449, 29.36704], [-97.7841, 29.36726], [-97.78389, 29.36742], [-97.78379, 29.3675], [-97.78371, 29.36759], [-97.78364, 29.36769], [-97.78358, 29.3678], [-97.78342, 29.36813], [-97.78316, 29.36871], [-97.78303, 29.36896], [-97.78295, 29.36908], [-97.78276, 29.36934], [-97.78255, 29.3696], [-97.78209, 29.37015], [-97.78162, 29.3707], [-97.7815, 29.37083], [-97.78125, 29.37108], [-97.78097, 29.37133], [-97.78082, 29.37144], [-97.78031, 29.37183], [-97.77979, 29.37221], [-97.77936, 29.37252], [-97.77914, 29.37268], [-97.77892, 29.37289], [-97.77882, 29.37299], [-97.77862, 29.37321], [-97.77833, 29.37364], [-97.77803, 29.37407], [-97.77772, 29.37445], [-97.77753, 29.37466], [-97.77741, 29.37476], [-97.77715, 29.37495], [-97.77682, 29.37515], [-97.77666, 29.37523], [-97.77653, 29.37531], [-97.7762, 29.37548], [-97.77551, 29.37588], [-97.77495, 29.37617], [-97.77461, 29.37637], [-97.77411, 29.37671], [-97.77411, 29.37671], [-97.77357, 29.37707], [-97.77303, 29.37744], [-97.77276, 29.37764], [-97.77262, 29.37775], [-97.77224, 29.37811], [-97.77186, 29.37847], [-97.77148, 29.37884], [-97.77127, 29.37903], [-97.77117, 29.37911], [-97.77108, 29.37916], [-97.7709, 29.37922], [-97.77081, 29.37924], [-97.77061, 29.37926], [-97.76967, 29.37931], [-97.76907, 29.37935], [-97.76825, 29.37937], [-97.76742, 29.37939], [-97.76659, 29.37941], [-97.76576, 29.37943], [-97.76505, 29.37943], [-97.76434, 29.37943], [-97.7638, 29.37941], [-97.76327, 29.3794], [-97.76305, 29.37942], [-97.76296, 29.37943], [-97.76287, 29.37946], [-97.7628, 29.37949], [-97.76267, 29.37958], [-97.76255, 29.37968], [-97.76243, 29.3798], [-97.76199, 29.38029], [-97.76139, 29.38099], [-97.76078, 29.38169], [-97.76047, 29.38206], [-97.76012, 29.38251], [-97.75977, 29.38297], [-97.7596, 29.38316], [-97.75951, 29.38324], [-97.75941, 29.38331], [-97.7593, 29.38336], [-97.75913, 29.38343], [-97.75913, 29.38343], [-97.759, 29.38348], [-97.75856, 29.38362], [-97.75844, 29.38367], [-97.75835, 29.38373], [-97.75825, 29.38383], [-97.75816, 29.38398], [-97.75785, 29.38462], [-97.75754, 29.38525], [-97.75722, 29.38589], [-97.75691, 29.38653], [-97.75669, 29.38699], [-97.75647, 29.38744], [-97.75632, 29.38773], [-97.7562, 29.38792], [-97.75594, 29.38823], [-97.75552, 29.38871], [-97.75509, 29.38919], [-97.75502, 29.38929], [-97.75496, 29.38938], [-97.75488, 29.38959], [-97.75483, 29.3898], [-97.7548, 29.39002], [-97.75478, 29.39034], [-97.75474, 29.3912], [-97.75468, 29.39129], [-97.75463, 29.39133], [-97.75453, 29.39137], [-97.75436, 29.3914], [-97.75356, 29.39144], [-97.75344, 29.39146], [-97.75322, 29.3915], [-97.75298, 29.39157], [-97.75219, 29.39189], [-97.7514, 29.3922], [-97.75122, 29.39225], [-97.75106, 29.39227], [-97.7509, 29.39228], [-97.75076, 29.39226], [-97.7505, 29.39221], [-97.74963, 29.392], [-97.74877, 29.39179], [-97.74877, 29.39179], [-97.74787, 29.39157], [-97.74694, 29.39159], [-97.74603, 29.39161], [-97.74513, 29.39162]]}, "properties": {"surface": "caliche", "label": "Caliche / gravel", "color": "#C98A24", "miles": 13.2, "start_mi": 1.41, "end_mi": 14.61, "road": "County Road 114", "elev_ft": [391, 384, 384, 378, 375, 378, 377, 369, 365, 365, 364, 363, 362, 362, 361, 358, 361, 362, 362, 362, 362, 362, 362, 362, 362, 362, 363, 364, 364, 365, 365, 365, 366, 372, 374, 377, 377, 378, 379, 380, 387, 389, 396, 398, 398, 397, 397, 395, 390, 389, 389, 390, 391, 393, 398, 405, 408, 413, 419, 426, 428, 430, 431, 432, 432, 431, 430, 424, 418, 411, 415, 423, 428, 428, 428, 429, 432, 433, 432, 432, 432, 432, 432, 432, 431, 429, 428, 430, 431, 432, 434, 435, 434, 434, 434, 431, 429, 428, 428, 427, 427, 427, 427, 424, 425, 427, 427, 428, 429, 430, 432, 435, 437, 438, 439, 440, 439, 438, 436, 435, 435, 434, 434, 432, 432, 432, 432, 432, 432, 432, 432, 432, 432, 432, 431, 431, 431, 430, 427, 425, 424, 425, 424, 424, 424, 424, 426, 427, 429, 430, 431, 437, 440, 442, 448, 449, 448, 448, 448, 448, 448, 449, 449, 450, 451, 455, 461, 469, 471, 472, 474, 474, 472, 471, 471, 471, 471, 469, 463, 461, 462, 463, 464, 467, 477, 480, 481, 482, 482, 483, 483, 485, 486, 487, 488, 488, 487, 481, 479, 479, 478, 477, 476, 476, 477, 478, 479, 479, 479, 479, 475, 472, 469, 468, 465, 461, 458, 458, 460, 461, 465, 469, 471, 469, 469, 463, 460, 458, 454, 455, 459, 464, 471, 472, 470, 467, 466, 469, 471, 471, 471, 470, 469, 453, 452, 452, 453, 469, 470, 471, 471, 471, 471, 469, 466, 467, 470, 472, 471, 464, 458, 455, 454, 458, 460, 463, 470, 470, 465, 461, 460, 458, 458, 461, 465, 468, 469, 472, 477, 477, 479, 479, 479, 479, 478, 477, 476, 476, 477, 478, 479, 479, 481, 487, 488, 488, 487, 486, 485, 483, 483, 482, 481, 480, 477, 469, 469, 467, 464, 462, 461, 462, 462, 469, 471, 472, 474, 474, 472, 471, 469, 461, 455, 451, 450, 449, 449, 448, 448, 448, 449, 445, 440, 440, 439, 437, 431, 430, 429, 427, 426, 424, 424, 424, 424, 425, 424, 425, 427, 430, 431, 431, 431, 432, 432, 432, 432, 432, 432, 432, 432, 432, 432, 432, 434, 434, 435, 435, 436, 438, 439, 440, 439, 438, 437, 435, 432, 430, 429, 428, 427, 427, 425, 424, 427, 427, 427, 427, 428, 428, 429, 431, 434, 434, 434, 435, 435, 434, 432, 431, 430, 428, 429, 431, 432, 432, 432, 432, 432, 432, 433, 432, 428, 428, 424, 415, 411, 418, 424, 430, 431, 432, 432, 431, 430, 428, 426, 419, 413, 408, 405, 398, 393, 391, 390, 389, 389, 389, 389, 390, 395, 397, 397, 398, 398, 396, 389, 387, 380, 379, 378, 377, 377, 374, 372, 366, 365, 365, 365, 364, 364, 363, 362, 362, 362, 362, 362, 362, 362, 362, 362, 361, 358, 361, 362, 362, 363, 364, 368, 376, 376, 378, 375, 380, 391]}}, {"type": "Feature", "geometry": {"type": "LineString", "coordinates": [[-97.7446, 29.39164], [-97.74418, 29.39165], [-97.74379, 29.39165], [-97.74384, 29.39208], [-97.74389, 29.39274], [-97.74389, 29.39274], [-97.74392, 29.39328], [-97.74396, 29.39382], [-97.74397, 29.39417], [-97.74396, 29.39433], [-97.74393, 29.39449], [-97.7439, 29.39457], [-97.74356, 29.39523], [-97.74323, 29.3959], [-97.74309, 29.39618], [-97.74303, 29.39637], [-97.74299, 29.39656], [-97.7429, 29.39725], [-97.74281, 29.39807], [-97.74271, 29.39888], [-97.74262, 29.39969], [-97.74253, 29.40051], [-97.7425, 29.40064], [-97.74248, 29.40071], [-97.74243, 29.40079], [-97.74239, 29.40083], [-97.74228, 29.40088], [-97.74184, 29.40097], [-97.74129, 29.40107], [-97.74056, 29.4012], [-97.73983, 29.40134], [-97.73978, 29.40134], [-97.7397, 29.40133], [-97.73958, 29.40127], [-97.73953, 29.40127], [-97.73952, 29.40132], [-97.73955, 29.40155], [-97.73954, 29.40172], [-97.73954, 29.40188], [-97.73959, 29.40255], [-97.73964, 29.40321], [-97.73968, 29.4039], [-97.73968, 29.40426], [-97.73967, 29.4048], [-97.73966, 29.40534], [-97.73963, 29.40547], [-97.73961, 29.40555], [-97.73954, 29.40569], [-97.73946, 29.40579], [-97.73946, 29.40579], [-97.73938, 29.40587], [-97.73908, 29.40606], [-97.73892, 29.40614], [-97.73875, 29.40624], [-97.73835, 29.4065], [-97.73803, 29.40677], [-97.73793, 29.40689], [-97.73785, 29.40702], [-97.73775, 29.40721], [-97.73775, 29.40721], [-97.737651, 29.40725], [-97.737651, 29.40725], [-97.737068, 29.407225], [-97.737068, 29.407225], [-97.736514, 29.407084]]}, "properties": {"surface": "unknown", "label": "Unverified", "color": "#9A9389", "miles": 1.41, "start_mi": 14.61, "end_mi": 16.02, "road": "County Road 157", "elev_ft": [385, 381, 377, 376, 376, 376, 376, 378, 378, 378, 377, 377, 375, 377, 378, 378, 380, 386, 382, 378, 376, 375, 375, 374, 373, 373, 373, 372, 372, 369, 364, 364, 364, 363, 363, 363, 363, 363, 363, 360, 359, 355, 354, 353, 351, 350, 348, 344, 346, 346, 348, 351, 351, 351, 348, 346, 346, 347, 347, 347, 347, 347, 344, 344, 349]}}]}