{"type": "FeatureCollection", "features": [{"type": "Feature", "geometry": {"type": "LineString", "coordinates": [[-97.50395, 29.66845], [-97.50437, 29.66835], [-97.50461, 29.66829], [-97.50477, 29.66827], [-97.50531, 29.66816], [-97.50585, 29.66804], [-97.50569, 29.66752], [-97.50569, 29.66752], [-97.50564, 29.66733], [-97.5056, 29.66707], [-97.50537, 29.66631]]}, "properties": {"surface": "unknown", "label": "Unverified", "color": "#9A9389", "miles": 0.24, "start_mi": 0.0, "end_mi": 0.24, "road": "North 2nd Street", "elev_ft": [463, 463, 464, 464, 464, 463, 463, 463, 463, 463, 463]}}, {"type": "Feature", "geometry": {"type": "LineString", "coordinates": [[-97.50532, 29.66606], [-97.50511, 29.66538], [-97.50489, 29.6646], [-97.50467, 29.66382], [-97.50444, 29.66303], [-97.50422, 29.66225], [-97.504, 29.66146], [-97.50378, 29.66068], [-97.50374, 29.66039], [-97.5037, 29.65982], [-97.50371, 29.65953], [-97.50375, 29.65925], [-97.50381, 29.65899], [-97.50381, 29.65899], [-97.50402, 29.65824], [-97.50422, 29.65744], [-97.50431, 29.65696], [-97.5044, 29.65629], [-97.50449, 29.65554], [-97.50458, 29.6548], [-97.50467, 29.65405], [-97.50477, 29.6533], [-97.50479, 29.65295], [-97.5048, 29.6526], [-97.50478, 29.65225], [-97.50476, 29.65209], [-97.50464, 29.65127], [-97.50452, 29.65045], [-97.5044, 29.64963], [-97.50428, 29.6488], [-97.50416, 29.64798], [-97.50404, 29.64716], [-97.50401, 29.64704], [-97.50395, 29.64687], [-97.50387, 29.64672], [-97.50376, 29.64658], [-97.50323, 29.64603], [-97.5027, 29.64549], [-97.50217, 29.64494]]}, "properties": {"surface": "pavement", "label": "Pavement", "color": "#4A5568", "miles": 1.52, "start_mi": 0.24, "end_mi": 1.76, "road": "FM 794", "elev_ft": [463, 463, 456, 453, 453, 450, 447, 442, 440, 438, 436, 435, 434, 434, 434, 433, 429, 425, 421, 421, 421, 416, 414, 414, 415, 414, 409, 404, 402, 396, 393, 391, 391, 391, 390, 389, 386, 383, 385]}}, {"type": "Feature", "geometry": {"type": "LineString", "coordinates": [[-97.50165, 29.6444], [-97.5021, 29.64406], [-97.50255, 29.64372], [-97.50255, 29.64372], [-97.50315, 29.64326], [-97.50375, 29.6428], [-97.50435, 29.64235], [-97.50495, 29.64189], [-97.50564, 29.64135], [-97.50622, 29.64095], [-97.50638, 29.64083], [-97.50619, 29.64063], [-97.50582, 29.64028], [-97.50544, 29.63989], [-97.50495, 29.6394], [-97.50446, 29.63892], [-97.50398, 29.63848], [-97.50346, 29.63803], [-97.50303, 29.63762], [-97.50259, 29.63722], [-97.50208, 29.63673], [-97.50157, 29.63624], [-97.50106, 29.63575], [-97.5005, 29.6352], [-97.50037, 29.63505], [-97.50028, 29.63491], [-97.50022, 29.63477], [-97.50019, 29.63463], [-97.50019, 29.63457], [-97.50022, 29.6345], [-97.50028, 29.63444], [-97.50044, 29.63431], [-97.50082, 29.63404], [-97.50159, 29.63345], [-97.50236, 29.63286], [-97.50307, 29.63231], [-97.50378, 29.63176], [-97.50449, 29.63121], [-97.50452, 29.63117], [-97.50453, 29.63113], [-97.50452, 29.63105], [-97.50451, 29.631], [-97.50444, 29.63091], [-97.50432, 29.63075], [-97.50392, 29.63031], [-97.50396, 29.63028], [-97.50403, 29.6302], [-97.50458, 29.62976], [-97.50458, 29.62976], [-97.50523, 29.62926], [-97.50588, 29.62877], [-97.50653, 29.62827], [-97.50717, 29.62777], [-97.50751, 29.6275], [-97.50774, 29.62729], [-97.50786, 29.62714], [-97.50812, 29.62654], [-97.50822, 29.62618], [-97.50836, 29.62572], [-97.5085, 29.62527], [-97.50854, 29.62517], [-97.50861, 29.62501], [-97.50892, 29.62443], [-97.50903, 29.62422], [-97.50934, 29.62346], [-97.50966, 29.62271], [-97.50982, 29.62226], [-97.50996, 29.62175], [-97.5101, 29.62117], [-97.51024, 29.62059], [-97.51032, 29.62034], [-97.51042, 29.62009], [-97.51064, 29.61965], [-97.51086, 29.61921], [-97.51124, 29.61845], [-97.51163, 29.6177], [-97.51202, 29.61695], [-97.5124, 29.61619], [-97.51279, 29.61544], [-97.51283, 29.61533], [-97.51284, 29.61529], [-97.51283, 29.61524], [-97.51282, 29.6152], [-97.51275, 29.61512], [-97.51224, 29.61462], [-97.51174, 29.61411], [-97.51145, 29.61384], [-97.51137, 29.61372], [-97.51134, 29.61367], [-97.51133, 29.61362], [-97.51134, 29.61356], [-97.51137, 29.61351], [-97.51141, 29.61346], [-97.51153, 29.61336], [-97.51231, 29.6128], [-97.51295, 29.61231], [-97.51359, 29.61182], [-97.51412, 29.61143], [-97.51466, 29.61103], [-97.51522, 29.61062], [-97.51584, 29.61016], [-97.51646, 29.60969], [-97.51708, 29.60922], [-97.5171, 29.60917], [-97.51711, 29.60911], [-97.5171, 29.60906], [-97.51707, 29.60901], [-97.5169, 29.60883], [-97.51682, 29.60873], [-97.51678, 29.60864], [-97.51677, 29.6086], [-97.51678, 29.6085], [-97.51682, 29.60841], [-97.51689, 29.6083], [-97.51699, 29.60817], [-97.51709, 29.60807], [-97.51713, 29.60804], [-97.51723, 29.60799], [-97.51735, 29.60794], [-97.51796, 29.60774], [-97.51816, 29.60766], [-97.51837, 29.60754], [-97.51849, 29.60744], [-97.5186, 29.60734], [-97.51874, 29.60719], [-97.51885, 29.60703], [-97.51894, 29.60686], [-97.51901, 29.60668], [-97.51906, 29.60648], [-97.51912, 29.60613], [-97.51918, 29.6055], [-97.51923, 29.60487], [-97.51927, 29.60465], [-97.51945, 29.60408], [-97.51963, 29.60351], [-97.51986, 29.60266], [-97.51999, 29.60218], [-97.52013, 29.6017], [-97.52024, 29.60138], [-97.52043, 29.6009], [-97.52048, 29.60081], [-97.52053, 29.60075], [-97.52059, 29.60068], [-97.52072, 29.60058], [-97.52086, 29.60049], [-97.52121, 29.60032], [-97.52135, 29.60024], [-97.52149, 29.60014], [-97.52155, 29.60008], [-97.52166, 29.59996], [-97.52195, 29.59954], [-97.52224, 29.59912], [-97.52247, 29.59877], [-97.52259, 29.59856], [-97.52259, 29.59856], [-97.52285, 29.59811], [-97.52312, 29.59765], [-97.52322, 29.59746], [-97.52325, 29.59737], [-97.52328, 29.59728], [-97.52329, 29.59719], [-97.52329, 29.5971], [-97.52317, 29.59642], [-97.52306, 29.59574], [-97.52301, 29.59516], [-97.52297, 29.59493], [-97.52294, 29.59481], [-97.52284, 29.59456], [-97.5227, 29.59433], [-97.52244, 29.59391], [-97.52236, 29.59373], [-97.5223, 29.59354], [-97.52222, 29.59279], [-97.52218, 29.59253], [-97.52212, 29.59227], [-97.52204, 29.592], [-97.52185, 29.59145], [-97.52154, 29.59064], [-97.52146, 29.59037], [-97.52145, 29.59029], [-97.52146, 29.59021], [-97.52148, 29.59014], [-97.52152, 29.59007], [-97.52205, 29.58938], [-97.52148, 29.58896], [-97.52092, 29.58854], [-97.52035, 29.58812], [-97.51988, 29.58777], [-97.51948, 29.58748], [-97.51908, 29.58719], [-97.51866, 29.58687], [-97.51824, 29.58655], [-97.51811, 29.58648], [-97.51802, 29.58645], [-97.51794, 29.58644], [-97.51785, 29.58644], [-97.51756, 29.58648], [-97.5174, 29.58651], [-97.51723, 29.58658], [-97.51714, 29.58663], [-97.51706, 29.58669], [-97.5169, 29.58684], [-97.51637, 29.58742], [-97.51603, 29.58777], [-97.5157, 29.58812], [-97.51514, 29.58871], [-97.51458, 29.58929], [-97.51401, 29.58988], [-97.51352, 29.5904], [-97.51303, 29.59093], [-97.51254, 29.59145], [-97.51189, 29.59212], [-97.51125, 29.59279], [-97.5106, 29.59346], [-97.51015, 29.59394], [-97.50969, 29.59442], [-97.50924, 29.5949], [-97.50876, 29.59539], [-97.50828, 29.59589], [-97.5078, 29.59639], [-97.50733, 29.59688], [-97.50687, 29.59738], [-97.50633, 29.59796], [-97.5058, 29.59854], [-97.50518, 29.59917], [-97.505, 29.59933], [-97.5051, 29.59956], [-97.50526, 29.59985], [-97.5055, 29.60031], [-97.50575, 29.60076], [-97.50615, 29.60153], [-97.50643, 29.60203], [-97.50643, 29.60203], [-97.50668, 29.60249], [-97.50693, 29.60295], [-97.50703, 29.60317], [-97.50726, 29.60395], [-97.50752, 29.60475], [-97.50756, 29.60491], [-97.50756, 29.60498], [-97.50754, 29.60505], [-97.50751, 29.60511], [-97.50747, 29.60516], [-97.50741, 29.60521], [-97.50734, 29.60526], [-97.50681, 29.60556], [-97.50629, 29.60585], [-97.50573, 29.60615], [-97.50518, 29.60646], [-97.50493, 29.60661], [-97.50486, 29.60666], [-97.50474, 29.60679], [-97.50454, 29.60708], [-97.50442, 29.60722], [-97.50435, 29.60728], [-97.50397, 29.60749], [-97.50385, 29.60755], [-97.50357, 29.60767], [-97.5034, 29.60772], [-97.50251, 29.608], [-97.50233, 29.60806], [-97.50214, 29.60815], [-97.50158, 29.60843], [-97.50132, 29.60854], [-97.501, 29.60863], [-97.50059, 29.60871], [-97.5003, 29.60876], [-97.50006, 29.60882], [-97.49963, 29.60895], [-97.49887, 29.60918], [-97.49825, 29.60939], [-97.4976, 29.60959], [-97.49733, 29.60969], [-97.49662, 29.60993], [-97.49591, 29.61017], [-97.4952, 29.61041], [-97.49434, 29.61071], [-97.49347, 29.61101], [-97.49273, 29.61129], [-97.49197, 29.61157], [-97.49129, 29.61181], [-97.49042, 29.61211], [-97.48954, 29.6124], [-97.4889, 29.61263], [-97.48866, 29.6127], [-97.48842, 29.61274], [-97.48819, 29.61274], [-97.48803, 29.61273], [-97.48785, 29.61269], [-97.48774, 29.61266], [-97.48761, 29.6126], [-97.4874, 29.61247], [-97.48711, 29.61227], [-97.48645, 29.6118], [-97.4858, 29.61133], [-97.48517, 29.61088], [-97.48453, 29.61042], [-97.4839, 29.60997], [-97.48335, 29.60957], [-97.48279, 29.60916], [-97.48265, 29.60908], [-97.48258, 29.60906], [-97.48251, 29.60905], [-97.48244, 29.60905], [-97.48238, 29.60906], [-97.48231, 29.6091], [-97.48225, 29.60915], [-97.48167, 29.60977], [-97.48109, 29.6104], [-97.48051, 29.61103], [-97.47992, 29.61166], [-97.47934, 29.61229], [-97.47876, 29.61291], [-97.47839, 29.6133], [-97.47803, 29.61369], [-97.47797, 29.61375]]}, "properties": {"surface": "unknown", "label": "Unverified", "color": "#9A9389", "miles": 8.81, "start_mi": 1.76, "end_mi": 10.57, "road": "County Road 232", "elev_ft": [388, 388, 386, 386, 386, 385, 383, 379, 376, 378, 379, 376, 372, 376, 384, 395, 405, 408, 402, 398, 393, 388, 384, 380, 379, 379, 379, 379, 379, 379, 379, 379, 379, 383, 385, 387, 389, 387, 387, 387, 387, 387, 388, 388, 391, 391, 391, 396, 396, 395, 391, 396, 402, 404, 404, 404, 404, 404, 399, 396, 396, 396, 398, 399, 407, 413, 413, 412, 411, 408, 405, 402, 397, 393, 389, 394, 398, 401, 399, 398, 398, 397, 397, 397, 393, 389, 386, 385, 384, 384, 383, 383, 383, 383, 383, 382, 375, 370, 366, 369, 373, 374, 373, 372, 372, 372, 371, 369, 369, 368, 368, 367, 367, 366, 366, 366, 366, 366, 366, 368, 368, 368, 367, 367, 367, 366, 365, 364, 364, 363, 360, 355, 353, 350, 346, 342, 340, 337, 337, 337, 337, 337, 338, 338, 339, 341, 341, 342, 342, 344, 349, 356, 361, 363, 363, 362, 360, 363, 364, 365, 366, 367, 370, 372, 374, 374, 374, 373, 373, 375, 375, 374, 365, 361, 359, 358, 355, 355, 357, 358, 359, 360, 361, 361, 357, 350, 343, 330, 320, 315, 313, 312, 311, 311, 312, 312, 319, 321, 321, 322, 322, 322, 330, 341, 342, 342, 335, 323, 324, 338, 357, 362, 366, 369, 369, 369, 369, 369, 369, 369, 368, 369, 367, 369, 381, 380, 378, 371, 368, 365, 359, 357, 357, 363, 362, 361, 356, 352, 351, 350, 350, 349, 349, 348, 348, 347, 347, 349, 351, 351, 351, 351, 353, 354, 354, 354, 355, 355, 356, 359, 360, 360, 360, 362, 363, 366, 368, 369, 370, 375, 379, 385, 387, 391, 391, 390, 392, 395, 399, 406, 414, 426, 432, 426, 422, 420, 418, 418, 418, 419, 420, 423, 426, 428, 429, 426, 423, 420, 418, 417, 418, 418, 419, 419, 420, 420, 420, 427, 431, 433, 437, 441, 443, 443, 444, 444]}}, {"type": "Feature", "geometry": {"type": "LineString", "coordinates": [[-97.47785, 29.61361], [-97.4777, 29.6134], [-97.47757, 29.61317], [-97.4773, 29.6126], [-97.47702, 29.61203], [-97.47675, 29.61146], [-97.47675, 29.61146], [-97.47651, 29.61097], [-97.47628, 29.61048], [-97.47601, 29.60966], [-97.47593, 29.60939], [-97.47583, 29.60898]]}, "properties": {"surface": "pavement", "label": "Pavement", "color": "#4A5568", "miles": 0.34, "start_mi": 10.57, "end_mi": 10.91, "road": "FM 794", "elev_ft": [442, 441, 440, 436, 433, 430, 430, 435, 441, 442, 441, 440]}}, {"type": "Feature", "geometry": {"type": "LineString", "coordinates": [[-97.47574, 29.60898], [-97.47568, 29.60897], [-97.47563, 29.60895], [-97.47552, 29.60889], [-97.47472, 29.60832], [-97.47393, 29.60775], [-97.47347, 29.60742], [-97.47335, 29.6073], [-97.47329, 29.60731], [-97.47322, 29.6073], [-97.47314, 29.60731], [-97.47307, 29.60734], [-97.473, 29.60738], [-97.47287, 29.6075], [-97.47236, 29.60807], [-97.47185, 29.60863], [-97.47134, 29.6092], [-97.47083, 29.60977], [-97.47031, 29.61034], [-97.46982, 29.61087], [-97.46933, 29.6114], [-97.46881, 29.61196], [-97.4683, 29.61251], [-97.46805, 29.61276], [-97.4677, 29.61317], [-97.46724, 29.61366], [-97.46688, 29.61406], [-97.46652, 29.61446], [-97.46617, 29.61483], [-97.46583, 29.61521], [-97.4655, 29.61558], [-97.46518, 29.61594], [-97.46481, 29.61634], [-97.46444, 29.61673], [-97.464, 29.61724], [-97.46353, 29.6177], [-97.46292, 29.61834], [-97.46232, 29.61898], [-97.46172, 29.61962], [-97.46114, 29.62024], [-97.46057, 29.62087], [-97.46, 29.62149], [-97.4599, 29.62156], [-97.45984, 29.62158], [-97.45978, 29.62158], [-97.4597, 29.62157], [-97.45963, 29.62154], [-97.45956, 29.6215], [-97.45886, 29.62101], [-97.45815, 29.62051], [-97.45761, 29.62014], [-97.45706, 29.61976], [-97.45651, 29.61939], [-97.45639, 29.61932], [-97.45623, 29.61926], [-97.45613, 29.61924], [-97.45604, 29.61922], [-97.45584, 29.61922], [-97.45506, 29.61923], [-97.45415, 29.61923], [-97.45323, 29.61923], [-97.45232, 29.61923], [-97.4518, 29.61923], [-97.45129, 29.61924], [-97.4505, 29.61924], [-97.44971, 29.61924], [-97.44892, 29.61924], [-97.44813, 29.61923], [-97.44813, 29.61922], [-97.448, 29.61922], [-97.44664, 29.61922], [-97.44655, 29.61922], [-97.44609, 29.61922], [-97.44593, 29.61922], [-97.44467, 29.61922], [-97.44446, 29.61922], [-97.44405, 29.61922], [-97.44384, 29.61922], [-97.44343, 29.61922], [-97.44218, 29.61922], [-97.44198, 29.61922], [-97.44156, 29.61922], [-97.43908, 29.61922], [-97.43887, 29.61922], [-97.43846, 29.61922], [-97.43722, 29.61922], [-97.43701, 29.61922], [-97.43598, 29.61922], [-97.43588, 29.61923], [-97.43574, 29.61926], [-97.43558, 29.61931], [-97.43552, 29.61933], [-97.43532, 29.61939], [-97.43515, 29.61945], [-97.43493, 29.6195], [-97.43492, 29.61951], [-97.43481, 29.61952], [-97.43469, 29.61954], [-97.43445, 29.61955], [-97.43431, 29.61956], [-97.43369, 29.61956], [-97.43328, 29.61956], [-97.43238, 29.61956], [-97.43168, 29.61957], [-97.43135, 29.61957], [-97.43121, 29.61957], [-97.43104, 29.61957], [-97.43004, 29.61959], [-97.42967, 29.61958], [-97.42929, 29.61958], [-97.42876, 29.61957], [-97.42859, 29.61957], [-97.42689, 29.61955], [-97.42619, 29.61955], [-97.42544, 29.61956], [-97.42534, 29.61956], [-97.42493, 29.61956], [-97.42478, 29.61956], [-97.42476, 29.61955], [-97.42469, 29.61954], [-97.42461, 29.61951], [-97.42455, 29.61947], [-97.42452, 29.61943], [-97.4245, 29.61937], [-97.42449, 29.61931], [-97.42449, 29.61923], [-97.42454, 29.61861], [-97.42455, 29.61828], [-97.42456, 29.61803], [-97.42455, 29.61796], [-97.42452, 29.61789], [-97.4245, 29.61785], [-97.42448, 29.61783], [-97.42443, 29.61779], [-97.42437, 29.61776], [-97.42431, 29.61774], [-97.42429, 29.61774], [-97.4242, 29.61773], [-97.42397, 29.61772], [-97.42372, 29.61773], [-97.42307, 29.61774], [-97.42245, 29.61774], [-97.42224, 29.61774], [-97.42216, 29.61774], [-97.42145, 29.61775], [-97.4212, 29.61775], [-97.421, 29.61776], [-97.42038, 29.61777], [-97.41984, 29.61777], [-97.41976, 29.61777], [-97.41955, 29.61777], [-97.41908, 29.61778], [-97.41854, 29.61777], [-97.41817, 29.61777], [-97.41771, 29.61778], [-97.41647, 29.61779], [-97.41611, 29.6178], [-97.41606, 29.6178], [-97.41564, 29.61781], [-97.41544, 29.61781], [-97.41488, 29.61783], [-97.41469, 29.61783], [-97.41464, 29.61783], [-97.4145, 29.61783], [-97.4143, 29.61783], [-97.41347, 29.61784], [-97.41285, 29.61785], [-97.41264, 29.61785], [-97.41181, 29.61786], [-97.41161, 29.61787], [-97.41098, 29.61787], [-97.40995, 29.61789], [-97.40974, 29.61789], [-97.40954, 29.61789], [-97.40912, 29.6179], [-97.40892, 29.6179], [-97.4085, 29.6179], [-97.40809, 29.61791], [-97.40747, 29.61792], [-97.40643, 29.61793], [-97.40623, 29.61793], [-97.40581, 29.61794], [-97.40519, 29.61795], [-97.40504, 29.61795], [-97.40487, 29.61796], [-97.40453, 29.61796], [-97.40425, 29.61797], [-97.40405, 29.61797], [-97.40335, 29.61798], [-97.40196, 29.61801], [-97.40141, 29.61802], [-97.40098, 29.61803], [-97.40074, 29.61804], [-97.40036, 29.61805], [-97.40012, 29.61805], [-97.40012, 29.61805], [-97.40013, 29.61763], [-97.4002, 29.61683], [-97.40021, 29.61668], [-97.40022, 29.61647], [-97.40022, 29.61626], [-97.4002, 29.61587], [-97.40017, 29.61547], [-97.40014, 29.61521], [-97.40013, 29.61512], [-97.40011, 29.61504], [-97.40009, 29.61495], [-97.40007, 29.61491], [-97.39999, 29.61481], [-97.39982, 29.61466], [-97.39975, 29.61462], [-97.39972, 29.61459], [-97.39964, 29.61455], [-97.39951, 29.61451], [-97.39939, 29.6145], [-97.39924, 29.61449], [-97.39886, 29.6145], [-97.39868, 29.6145], [-97.39861, 29.61449], [-97.39855, 29.61448], [-97.3985, 29.61445], [-97.39846, 29.61441], [-97.39844, 29.61436], [-97.39842, 29.6143], [-97.39842, 29.6139], [-97.39842, 29.6138], [-97.39842, 29.61354], [-97.39842, 29.61292], [-97.39841, 29.61236], [-97.39841, 29.61228], [-97.3984, 29.61167], [-97.3984, 29.61146], [-97.3984, 29.61138], [-97.3984, 29.6111], [-97.3984, 29.61102], [-97.39839, 29.61056], [-97.39839, 29.6103], [-97.39838, 29.6093], [-97.39838, 29.60886], [-97.39839, 29.60778], [-97.39839, 29.60768], [-97.39839, 29.60738], [-97.39839, 29.60714], [-97.39841, 29.60638], [-97.3984, 29.60623], [-97.39837, 29.60618], [-97.39834, 29.60613], [-97.39828, 29.6061], [-97.39822, 29.60609], [-97.39814, 29.60608], [-97.39767, 29.60608], [-97.39757, 29.60607], [-97.39746, 29.60607], [-97.39669, 29.60607], [-97.39633, 29.60607], [-97.3956, 29.60608], [-97.39551, 29.60608], [-97.39519, 29.60608], [-97.39509, 29.60608], [-97.39498, 29.60608], [-97.39477, 29.60608], [-97.39468, 29.60608], [-97.39384, 29.60609], [-97.39367, 29.60607], [-97.39359, 29.60606], [-97.39352, 29.60603], [-97.39346, 29.60599], [-97.39342, 29.60594], [-97.39339, 29.60588], [-97.39338, 29.60581], [-97.39338, 29.60573], [-97.39339, 29.60529], [-97.39339, 29.60519], [-97.39341, 29.60424], [-97.3934, 29.60393], [-97.3934, 29.60382], [-97.39339, 29.60368], [-97.39337, 29.60357], [-97.39336, 29.60349], [-97.39334, 29.6034], [-97.39326, 29.603], [-97.39323, 29.60286], [-97.3932, 29.60275], [-97.39313, 29.60252], [-97.393, 29.60221], [-97.39294, 29.6021], [-97.39276, 29.60174], [-97.39265, 29.60149], [-97.39259, 29.60135], [-97.3924, 29.60094], [-97.39236, 29.60085], [-97.39213, 29.60034], [-97.39205, 29.60018], [-97.39202, 29.6001], [-97.39197, 29.60001], [-97.39186, 29.59977], [-97.39142, 29.59885], [-97.39139, 29.59877], [-97.39134, 29.59868], [-97.39126, 29.59851], [-97.39079, 29.59752], [-97.39068, 29.59728], [-97.39063, 29.59718], [-97.3906, 29.59711], [-97.39045, 29.59674], [-97.39044, 29.59671], [-97.39042, 29.59665], [-97.39039, 29.5966], [-97.39013, 29.59607], [-97.39008, 29.59593], [-97.39, 29.59576], [-97.38986, 29.59542], [-97.38972, 29.59509], [-97.3897, 29.59503], [-97.38965, 29.59492], [-97.38933, 29.59416], [-97.38907, 29.59357], [-97.38894, 29.59329], [-97.38869, 29.59274], [-97.38869, 29.59273], [-97.38867, 29.59268], [-97.38861, 29.59256], [-97.38824, 29.59173], [-97.38822, 29.59169], [-97.38819, 29.59161], [-97.38806, 29.59131], [-97.38804, 29.59122], [-97.38803, 29.59114], [-97.38803, 29.59106], [-97.38805, 29.59098], [-97.38808, 29.59091], [-97.38817, 29.59077], [-97.38832, 29.59057], [-97.38836, 29.59052], [-97.38842, 29.59043], [-97.38858, 29.59021], [-97.38862, 29.59013], [-97.38864, 29.59005], [-97.38865, 29.58996], [-97.38864, 29.58988], [-97.38862, 29.58975], [-97.38861, 29.58973], [-97.3886, 29.58969], [-97.38857, 29.58957], [-97.38837, 29.58887], [-97.3883, 29.58858], [-97.38827, 29.58848], [-97.38823, 29.5884], [-97.3882, 29.58836], [-97.38819, 29.58835], [-97.38816, 29.58832], [-97.38811, 29.58827], [-97.38803, 29.58822], [-97.38787, 29.58814], [-97.38783, 29.58812], [-97.38693, 29.58774], [-97.38676, 29.58766], [-97.38674, 29.58765], [-97.38671, 29.58764], [-97.38661, 29.58757], [-97.38651, 29.5875], [-97.38643, 29.58742], [-97.38628, 29.58725], [-97.38622, 29.58715], [-97.38618, 29.58705], [-97.38607, 29.5868], [-97.38605, 29.58674], [-97.386, 29.58663], [-97.38586, 29.58629], [-97.38583, 29.58623], [-97.38578, 29.58612], [-97.38574, 29.58602], [-97.38519, 29.58478], [-97.38511, 29.58461], [-97.38506, 29.58449], [-97.38494, 29.58423], [-97.38486, 29.58406], [-97.38478, 29.58397], [-97.38471, 29.58392], [-97.38464, 29.58388], [-97.38457, 29.58386], [-97.38448, 29.58384], [-97.38439, 29.58384], [-97.38411, 29.58384], [-97.38378, 29.58385], [-97.38372, 29.58386], [-97.3836, 29.58386], [-97.38336, 29.58385], [-97.38321, 29.58385], [-97.38313, 29.58384], [-97.38306, 29.58382], [-97.38302, 29.5838], [-97.38299, 29.58378], [-97.38294, 29.58374], [-97.38286, 29.58361], [-97.38262, 29.58309], [-97.38234, 29.58245], [-97.38234, 29.58244], [-97.38229, 29.58234], [-97.3822, 29.58214], [-97.38193, 29.58155], [-97.38189, 29.58144], [-97.38186, 29.58138], [-97.38181, 29.58126], [-97.38177, 29.58117], [-97.38172, 29.58106], [-97.38166, 29.58093], [-97.38158, 29.58076], [-97.38143, 29.58043], [-97.38139, 29.58032], [-97.38136, 29.58026], [-97.38123, 29.57995], [-97.38121, 29.57996], [-97.38121, 29.57996], [-97.38106, 29.57961], [-97.38103, 29.57953], [-97.38098, 29.57945], [-97.38092, 29.57939], [-97.38085, 29.57934], [-97.38078, 29.57931], [-97.38069, 29.57929], [-97.3806, 29.57928], [-97.38, 29.57927], [-97.37905, 29.57927], [-97.37819, 29.57927], [-97.37734, 29.57927], [-97.37648, 29.57926], [-97.37563, 29.57926], [-97.37478, 29.57926], [-97.37451, 29.57925], [-97.37436, 29.57923], [-97.37428, 29.57921], [-97.37421, 29.57918], [-97.37406, 29.5791], [-97.37384, 29.57894], [-97.37347, 29.5786], [-97.37322, 29.57836], [-97.37315, 29.57827], [-97.3731, 29.57816], [-97.37296, 29.57772], [-97.37289, 29.57746], [-97.37283, 29.57733], [-97.37283, 29.57729], [-97.37281, 29.57722], [-97.37277, 29.57715], [-97.37261, 29.57668], [-97.37254, 29.57652], [-97.3725, 29.57645], [-97.37239, 29.57609], [-97.37238, 29.57605], [-97.37225, 29.5757]]}, "properties": {"surface": "unknown", "label": "Unverified", "color": "#9A9389", "miles": 9.23, "start_mi": 10.91, "end_mi": 20.14, "road": "County Road 433", "elev_ft": [440, 440, 440, 440, 446, 447, 445, 445, 445, 444, 444, 444, 444, 444, 444, 439, 435, 432, 433, 430, 428, 432, 432, 431, 428, 429, 433, 438, 439, 438, 436, 429, 431, 437, 441, 446, 448, 452, 456, 455, 449, 445, 444, 444, 443, 442, 442, 441, 433, 430, 431, 432, 428, 427, 427, 428, 428, 429, 432, 430, 427, 422, 419, 416, 428, 427, 420, 419, 419, 421, 434, 435, 438, 438, 431, 430, 430, 430, 435, 451, 452, 452, 431, 430, 429, 424, 423, 419, 419, 419, 419, 419, 419, 419, 420, 420, 420, 420, 421, 421, 421, 421, 421, 420, 419, 419, 418, 414, 413, 411, 409, 409, 401, 403, 406, 406, 407, 408, 408, 408, 408, 408, 408, 408, 408, 408, 406, 404, 403, 403, 402, 402, 402, 402, 402, 402, 402, 403, 403, 404, 407, 410, 413, 414, 421, 424, 425, 428, 428, 428, 428, 427, 425, 424, 423, 418, 416, 416, 413, 412, 411, 409, 409, 407, 404, 397, 390, 390, 390, 389, 386, 382, 382, 381, 388, 390, 391, 396, 403, 411, 412, 413, 414, 414, 414, 413, 412, 410, 403, 391, 387, 383, 381, 378, 375, 375, 376, 376, 375, 375, 374, 373, 372, 371, 371, 371, 370, 370, 369, 367, 368, 369, 370, 371, 372, 373, 376, 377, 377, 377, 378, 378, 378, 379, 382, 383, 385, 385, 386, 386, 390, 392, 392, 393, 393, 392, 392, 388, 386, 380, 379, 378, 377, 373, 372, 372, 372, 372, 372, 372, 372, 372, 371, 367, 365, 361, 361, 361, 362, 363, 365, 366, 375, 376, 377, 378, 379, 379, 380, 380, 380, 383, 384, 386, 386, 386, 386, 386, 386, 386, 385, 385, 385, 385, 384, 384, 381, 379, 378, 377, 377, 375, 374, 374, 374, 374, 375, 375, 375, 375, 373, 372, 372, 373, 373, 373, 373, 373, 377, 379, 380, 382, 381, 381, 380, 375, 374, 373, 372, 372, 371, 371, 365, 365, 365, 368, 369, 370, 370, 371, 371, 371, 370, 370, 370, 369, 369, 368, 368, 368, 368, 368, 368, 368, 368, 367, 367, 367, 367, 367, 367, 367, 367, 367, 367, 365, 365, 365, 365, 365, 366, 366, 368, 369, 369, 371, 371, 371, 372, 372, 372, 371, 362, 361, 359, 356, 355, 354, 354, 354, 353, 353, 353, 352, 351, 351, 350, 347, 345, 345, 345, 345, 345, 345, 346, 348, 345, 345, 347, 351, 359, 360, 361, 361, 361, 361, 362, 362, 362, 362, 362, 360, 360, 360, 358, 357, 357, 356, 356, 355, 355, 355, 352, 348, 344, 339, 329, 319, 315, 313, 312, 312, 311, 309, 307, 304, 305, 305, 305, 303, 301, 301, 300, 300, 300, 301, 302, 302, 302, 302, 304]}}, {"type": "Feature", "geometry": {"type": "LineString", "coordinates": [[-97.37191, 29.57612], [-97.37157, 29.57654], [-97.37116, 29.577], [-97.37076, 29.57747], [-97.37036, 29.57798], [-97.36996, 29.5785], [-97.36958, 29.57901], [-97.36921, 29.57952], [-97.36884, 29.58004], [-97.3683, 29.58078], [-97.36775, 29.58152], [-97.36723, 29.58225]]}, "properties": {"surface": "pavement", "label": "Pavement", "color": "#4A5568", "miles": 0.51, "start_mi": 20.14, "end_mi": 20.65, "road": "TX 97", "elev_ft": [301, 301, 306, 310, 315, 320, 327, 331, 336, 343, 348, 352]}}, {"type": "Feature", "geometry": {"type": "LineString", "coordinates": [[-97.36671, 29.58298], [-97.36681, 29.58321], [-97.36687, 29.5834], [-97.3669, 29.58359], [-97.3669, 29.5838], [-97.36691, 29.58468], [-97.36691, 29.58557], [-97.36692, 29.58645], [-97.36693, 29.58734], [-97.36693, 29.58822], [-97.36696, 29.58822], [-97.36696, 29.58837], [-97.36696, 29.58847], [-97.36696, 29.58848], [-97.36696, 29.58855], [-97.36696, 29.58891], [-97.36695, 29.58901], [-97.36695, 29.58981], [-97.36695, 29.58991], [-97.36695, 29.59003], [-97.36696, 29.59022], [-97.367, 29.59039], [-97.36704, 29.59053], [-97.36716, 29.59085], [-97.36718, 29.59091], [-97.36732, 29.59125], [-97.3676, 29.59193], [-97.3678, 29.59243], [-97.36787, 29.5926], [-97.36817, 29.59334], [-97.36849, 29.59411], [-97.3688, 29.59486], [-97.36887, 29.59503], [-97.36901, 29.59537], [-97.36903, 29.59543], [-97.36914, 29.59575], [-97.36916, 29.59581], [-97.36916, 29.59585], [-97.36917, 29.59629], [-97.36917, 29.59647], [-97.36917, 29.59715], [-97.36917, 29.59719], [-97.36918, 29.59737], [-97.36918, 29.59755], [-97.36918, 29.59773], [-97.36918, 29.59823], [-97.36918, 29.59827], [-97.36919, 29.59845], [-97.36919, 29.59877], [-97.36919, 29.5988], [-97.36919, 29.59898], [-97.36919, 29.59916], [-97.3692, 29.60024], [-97.3692, 29.60042], [-97.36921, 29.60078], [-97.36921, 29.60078], [-97.36809, 29.60079], [-97.36685, 29.6008], [-97.36664, 29.60081], [-97.36634, 29.60081], [-97.36625, 29.60095], [-97.36628, 29.60179], [-97.36629, 29.60197], [-97.36629, 29.60204], [-97.36633, 29.60412], [-97.36633, 29.6043], [-97.36637, 29.60598], [-97.36638, 29.60677], [-97.36598, 29.60684], [-97.36591, 29.60684], [-97.36467, 29.60682], [-97.36464, 29.60682], [-97.36425, 29.60762], [-97.36368, 29.60878], [-97.36344, 29.60928], [-97.36343, 29.6093], [-97.36288, 29.61063], [-97.36259, 29.61131], [-97.36224, 29.61215], [-97.36203, 29.61266], [-97.36182, 29.61317], [-97.36182, 29.61317], [-97.36177, 29.61321], [-97.3617, 29.61324], [-97.36155, 29.61327], [-97.3615, 29.61327], [-97.36129, 29.61327], [-97.36005, 29.61329], [-97.35977, 29.61329], [-97.35881, 29.61332], [-97.3586, 29.61333], [-97.35819, 29.61334], [-97.3578, 29.61336], [-97.3575, 29.61337], [-97.35728, 29.61342], [-97.35706, 29.61351], [-97.35681, 29.61364], [-97.35664, 29.61374], [-97.35559, 29.61432], [-97.35524, 29.61451], [-97.35472, 29.6148], [-97.35455, 29.61489], [-97.35441, 29.61495], [-97.35434, 29.61498], [-97.35412, 29.61502], [-97.35408, 29.61503], [-97.35312, 29.61508], [-97.35271, 29.61511], [-97.35268, 29.61511], [-97.35251, 29.61512], [-97.35147, 29.61516], [-97.35128, 29.61517], [-97.35085, 29.61518], [-97.35002, 29.61521], [-97.34982, 29.61521], [-97.34933, 29.61523], [-97.34858, 29.61524], [-97.34837, 29.61524], [-97.34813, 29.61525], [-97.34754, 29.61526], [-97.3463, 29.6153], [-97.34589, 29.61531], [-97.34548, 29.61533], [-97.34462, 29.61536], [-97.34362, 29.61537], [-97.34341, 29.61537], [-97.34176, 29.61539], [-97.3412, 29.6154], [-97.34111, 29.61542], [-97.34102, 29.61547], [-97.34096, 29.61551], [-97.34093, 29.61557], [-97.34094, 29.61622], [-97.34095, 29.61732], [-97.34095, 29.61732], [-97.34096, 29.61816], [-97.34098, 29.61924], [-97.34098, 29.6196], [-97.34099, 29.61996], [-97.341, 29.62058], [-97.341, 29.62086], [-97.341, 29.62122], [-97.341, 29.6214], [-97.341, 29.62158], [-97.341, 29.6223], [-97.34101, 29.62284], [-97.34101, 29.62302], [-97.34101, 29.62392], [-97.34101, 29.62427], [-97.34102, 29.62517], [-97.34102, 29.62571], [-97.34103, 29.6266], [-97.34103, 29.62679], [-97.34104, 29.62769], [-97.34106, 29.62877], [-97.34107, 29.62931], [-97.34108, 29.63021], [-97.34109, 29.63078], [-97.34111, 29.63146], [-97.34113, 29.63244], [-97.34113, 29.63254], [-97.34114, 29.63272], [-97.34114, 29.63344], [-97.34115, 29.63394], [-97.34116, 29.63416], [-97.34116, 29.63417], [-97.34116, 29.63434], [-97.34115, 29.63506], [-97.34114, 29.63524], [-97.34114, 29.63535], [-97.34114, 29.63542], [-97.34117, 29.63631], [-97.34118, 29.63667], [-97.34121, 29.63739], [-97.34122, 29.63773], [-97.34122, 29.63775], [-97.34135, 29.6384], [-97.34137, 29.63846], [-97.34141, 29.63861], [-97.34136, 29.63881], [-97.34127, 29.63916], [-97.34121, 29.63947], [-97.34121, 29.64006], [-97.34123, 29.64132], [-97.34123, 29.64146], [-97.34127, 29.6422], [-97.34127, 29.64331], [-97.34127, 29.64364], [-97.34127, 29.64408], [-97.34127, 29.64444], [-97.34127, 29.6445], [-97.34126, 29.64552], [-97.34126, 29.6456], [-97.34125, 29.64631], [-97.34125, 29.64642], [-97.34125, 29.6466], [-97.34125, 29.64667], [-97.34124, 29.64677], [-97.34124, 29.64695], [-97.34124, 29.64713], [-97.34124, 29.64732], [-97.34123, 29.64749], [-97.34122, 29.64767], [-97.34121, 29.64774], [-97.34118, 29.64839], [-97.34116, 29.64857], [-97.34115, 29.64877], [-97.34114, 29.64911], [-97.34111, 29.65002], [-97.3411, 29.65009], [-97.3411, 29.65015], [-97.34109, 29.65019], [-97.34108, 29.65025], [-97.34102, 29.65032], [-97.341, 29.65034], [-97.34096, 29.65037], [-97.34083, 29.65045], [-97.34067, 29.65057], [-97.34064, 29.65059], [-97.34063, 29.65059], [-97.34046, 29.65071], [-97.33985, 29.65111], [-97.33982, 29.65113], [-97.33981, 29.65114], [-97.33952, 29.65133], [-97.339, 29.65167], [-97.33899, 29.65167], [-97.33886, 29.65176], [-97.33867, 29.65189], [-97.33866, 29.65189], [-97.33853, 29.65198], [-97.33834, 29.6521], [-97.33833, 29.6521], [-97.3377, 29.65252], [-97.33768, 29.65253], [-97.33753, 29.65263], [-97.3372, 29.65284], [-97.33719, 29.65285], [-97.33718, 29.65286], [-97.33704, 29.65295], [-97.33684, 29.65308], [-97.33684, 29.65308], [-97.33671, 29.65317], [-97.33657, 29.65326], [-97.33654, 29.65328], [-97.33625, 29.65348], [-97.3362, 29.65352], [-97.33618, 29.65356], [-97.33614, 29.65364], [-97.33611, 29.6538], [-97.33609, 29.65403], [-97.33601, 29.65501], [-97.336, 29.65509], [-97.336, 29.6551], [-97.336, 29.65523], [-97.336, 29.65528], [-97.33601, 29.65534], [-97.33604, 29.65545], [-97.33619, 29.65597], [-97.33622, 29.65605], [-97.33625, 29.65619], [-97.33625, 29.65628], [-97.33625, 29.65635], [-97.33624, 29.65643], [-97.33616, 29.65665], [-97.33615, 29.65666], [-97.33615, 29.65667], [-97.3361, 29.65685], [-97.33605, 29.65701], [-97.33605, 29.65702], [-97.33601, 29.65715], [-97.336, 29.6572], [-97.33589, 29.65755], [-97.33574, 29.65804], [-97.33574, 29.65805], [-97.33568, 29.65824], [-97.33559, 29.65853], [-97.33557, 29.65859], [-97.3354, 29.65909], [-97.3353, 29.65942], [-97.33529, 29.65945], [-97.33522, 29.65968], [-97.33517, 29.6598], [-97.33491, 29.66043], [-97.33491, 29.66044], [-97.33482, 29.66065], [-97.33469, 29.66098], [-97.33459, 29.66121], [-97.33457, 29.66127], [-97.33455, 29.66132], [-97.33449, 29.66145], [-97.33407, 29.66244], [-97.33407, 29.66245], [-97.33404, 29.6625], [-97.33397, 29.66267], [-97.33383, 29.66301], [-97.3338, 29.66307], [-97.33377, 29.66318], [-97.33374, 29.66328], [-97.33374, 29.66329], [-97.33374, 29.6633], [-97.33372, 29.66336], [-97.33371, 29.66339], [-97.33371, 29.66354], [-97.3337, 29.66368], [-97.3337, 29.664], [-97.3337, 29.66401], [-97.3337, 29.66408], [-97.3337, 29.66426], [-97.3337, 29.66444], [-97.3337, 29.6648], [-97.3337, 29.66498], [-97.3337, 29.66508], [-97.3337, 29.66525], [-97.3337, 29.66534], [-97.3337, 29.66569], [-97.3337, 29.66578], [-97.3337, 29.66579], [-97.3337, 29.66587], [-97.3337, 29.66596], [-97.3337, 29.66597], [-97.3337, 29.66605], [-97.3337, 29.66623], [-97.3337, 29.66639], [-97.3337, 29.66641], [-97.3337, 29.66645], [-97.3337, 29.66647], [-97.3337, 29.66659], [-97.3337, 29.66668], [-97.3337, 29.66674], [-97.3337, 29.66677], [-97.3337, 29.66678], [-97.3337, 29.6668], [-97.3337, 29.6669], [-97.33369, 29.66694], [-97.33369, 29.66712], [-97.33369, 29.66727], [-97.33369, 29.66735], [-97.33369, 29.66746], [-97.33369, 29.66752], [-97.33369, 29.66764], [-97.33369, 29.6677], [-97.33369, 29.66788], [-97.33369, 29.66806], [-97.33369, 29.66826]]}, "properties": {"surface": "unknown", "label": "Unverified", "color": "#9A9389", "miles": 7.53, "start_mi": 20.65, "end_mi": 28.18, "road": "County Road 422 South", "elev_ft": [351, 353, 355, 356, 357, 358, 359, 362, 363, 363, 362, 362, 362, 362, 362, 364, 365, 370, 371, 372, 372, 370, 369, 366, 366, 365, 362, 362, 363, 365, 369, 374, 375, 374, 373, 369, 369, 369, 367, 367, 363, 363, 361, 360, 359, 356, 356, 358, 361, 361, 362, 364, 372, 374, 377, 377, 377, 374, 374, 373, 374, 378, 378, 378, 383, 383, 380, 380, 381, 382, 385, 384, 387, 392, 393, 393, 394, 395, 396, 398, 400, 400, 400, 401, 401, 400, 398, 384, 381, 378, 378, 377, 378, 378, 378, 377, 378, 377, 374, 373, 372, 372, 372, 372, 372, 372, 361, 359, 358, 358, 352, 351, 348, 348, 347, 345, 341, 340, 339, 339, 347, 350, 351, 348, 339, 337, 331, 329, 329, 329, 329, 329, 331, 338, 338, 345, 353, 354, 355, 356, 356, 350, 349, 348, 339, 332, 331, 324, 326, 327, 324, 314, 311, 307, 303, 301, 303, 303, 303, 302, 302, 302, 301, 300, 300, 300, 300, 301, 302, 302, 302, 302, 302, 302, 302, 302, 297, 296, 294, 295, 297, 299, 302, 307, 307, 310, 317, 319, 323, 324, 324, 329, 330, 336, 337, 337, 337, 337, 338, 338, 338, 338, 337, 337, 336, 337, 337, 337, 333, 333, 333, 333, 333, 334, 334, 335, 337, 339, 340, 340, 344, 353, 354, 354, 354, 350, 350, 348, 348, 348, 350, 356, 357, 375, 375, 378, 383, 383, 383, 383, 383, 383, 382, 382, 382, 380, 380, 380, 380, 379, 377, 374, 374, 374, 373, 373, 373, 372, 377, 378, 379, 380, 381, 381, 383, 383, 383, 384, 385, 385, 385, 385, 387, 388, 388, 388, 388, 388, 390, 390, 390, 390, 390, 391, 391, 391, 391, 391, 391, 391, 390, 384, 384, 384, 383, 381, 380, 381, 381, 381, 381, 382, 382, 385, 386, 388, 388, 388, 390, 391, 391, 391, 390, 390, 390, 388, 388, 388, 389, 388, 388, 388, 390, 392, 392, 392, 392, 394, 394, 395, 395, 395, 396, 397, 397, 398, 399, 400, 401, 401, 401, 402, 403, 403, 404]}}, {"type": "Feature", "geometry": {"type": "LineString", "coordinates": [[-97.33369, 29.66878], [-97.33369, 29.66893], [-97.33369, 29.66896], [-97.33369, 29.6691], [-97.33369, 29.66914], [-97.33369, 29.6695], [-97.33369, 29.66968], [-97.33368, 29.66986], [-97.33368, 29.66998], [-97.33368, 29.67004], [-97.33368, 29.67016], [-97.33368, 29.67022], [-97.33368, 29.6704], [-97.33368, 29.67051], [-97.33368, 29.67165], [-97.33368, 29.67174], [-97.33368, 29.67183], [-97.33368, 29.67201], [-97.33367, 29.67231], [-97.33367, 29.67255], [-97.33367, 29.67273], [-97.33367, 29.67297], [-97.33366, 29.67399], [-97.33366, 29.67417], [-97.33366, 29.67419], [-97.33366, 29.67437], [-97.33365, 29.67507]]}, "properties": {"surface": "two_track", "label": "Ranch two-track", "color": "#6B5A45", "miles": 0.43, "start_mi": 28.18, "end_mi": 28.61, "road": "County Road 422 South", "elev_ft": [403, 403, 403, 403, 403, 403, 403, 403, 404, 404, 405, 405, 406, 407, 411, 410, 409, 408, 408, 407, 407, 407, 407, 407, 407, 407, 402]}}, {"type": "Feature", "geometry": {"type": "LineString", "coordinates": [[-97.33365, 29.67507], [-97.33379, 29.6751], [-97.33392, 29.6751], [-97.33448, 29.6751], [-97.33469, 29.67509], [-97.33525, 29.67509], [-97.33531, 29.67509], [-97.33551, 29.67509], [-97.33572, 29.67509], [-97.3362, 29.6751], [-97.33634, 29.6751], [-97.33862, 29.67509], [-97.33903, 29.67509], [-97.33908, 29.67509], [-97.33924, 29.67508], [-97.33945, 29.67508], [-97.34027, 29.67505], [-97.34048, 29.67505], [-97.34065, 29.67504], [-97.34069, 29.67504], [-97.34089, 29.67501], [-97.3411, 29.67498], [-97.34118, 29.67497], [-97.34133, 29.67494], [-97.3418, 29.67484], [-97.3425, 29.67468], [-97.3427, 29.67463], [-97.3433, 29.67449], [-97.34364, 29.67441], [-97.3438, 29.67438], [-97.3442, 29.67428], [-97.34421, 29.67428], [-97.3444, 29.67423], [-97.345, 29.67409], [-97.3452, 29.67404], [-97.34549, 29.67397], [-97.3466, 29.67373], [-97.34721, 29.6736], [-97.34728, 29.67358], [-97.34741, 29.67355], [-97.34902, 29.6732], [-97.34921, 29.67316], [-97.34928, 29.67314], [-97.34941, 29.67311], [-97.34961, 29.67307], [-97.34975, 29.67303], [-97.35002, 29.67297], [-97.35063, 29.67285], [-97.35073, 29.67284], [-97.35091, 29.67282]]}, "properties": {"surface": "pavement", "label": "Pavement", "color": "#4A5568", "miles": 1.06, "start_mi": 28.61, "end_mi": 29.67, "road": "County Road 422", "elev_ft": [402, 400, 399, 391, 388, 379, 379, 380, 380, 380, 380, 383, 383, 383, 383, 383, 380, 376, 374, 373, 372, 370, 369, 366, 362, 352, 350, 345, 344, 343, 342, 342, 343, 349, 349, 350, 358, 360, 360, 360, 372, 374, 375, 376, 377, 377, 376, 370, 370, 369]}}, {"type": "Feature", "geometry": {"type": "LineString", "coordinates": [[-97.35133, 29.67282], [-97.35187, 29.67281], [-97.35207, 29.6728], [-97.35242, 29.67279], [-97.35255, 29.67279], [-97.35296, 29.67281], [-97.35309, 29.67282], [-97.35317, 29.67282], [-97.35337, 29.67282], [-97.35379, 29.67281], [-97.354, 29.67281], [-97.35482, 29.67281], [-97.35503, 29.67281], [-97.35541, 29.67281], [-97.35627, 29.67282], [-97.35648, 29.67282], [-97.35669, 29.67282], [-97.3571, 29.67282], [-97.35785, 29.67283], [-97.35793, 29.67283], [-97.35814, 29.67283], [-97.35834, 29.67283], [-97.35855, 29.67283], [-97.35876, 29.67283], [-97.35881, 29.67283], [-97.35938, 29.67282], [-97.35958, 29.67282], [-97.35979, 29.67282], [-97.36, 29.67282], [-97.36041, 29.67281], [-97.36062, 29.67281], [-97.36083, 29.67281], [-97.36103, 29.67281], [-97.36145, 29.6728], [-97.36165, 29.6728], [-97.36186, 29.6728], [-97.36207, 29.67279], [-97.36228, 29.67279], [-97.36305, 29.67278], [-97.36339, 29.67278], [-97.36407, 29.67278], [-97.36427, 29.67277], [-97.3651, 29.67277], [-97.36531, 29.67277], [-97.36551, 29.67277], [-97.36561, 29.67277], [-97.36572, 29.67277], [-97.36593, 29.67276], [-97.36609, 29.67276], [-97.36641, 29.67273], [-97.36655, 29.67272], [-97.36655, 29.67272], [-97.36661, 29.67305], [-97.36662, 29.67317], [-97.36662, 29.67319], [-97.36663, 29.67393], [-97.36664, 29.6742], [-97.36664, 29.67445], [-97.36664, 29.67451], [-97.36664, 29.67456], [-97.36667, 29.67553], [-97.36668, 29.67564], [-97.36669, 29.67582], [-97.3667, 29.67607], [-97.3667, 29.67609], [-97.36672, 29.67625], [-97.36673, 29.67643], [-97.36676, 29.67677], [-97.36681, 29.67743], [-97.36683, 29.67773], [-97.36684, 29.67787], [-97.36685, 29.67797], [-97.36686, 29.67805], [-97.36687, 29.67815], [-97.36687, 29.67822], [-97.36688, 29.67833], [-97.36689, 29.6784], [-97.36689, 29.67845], [-97.36693, 29.67901], [-97.36694, 29.67915], [-97.36696, 29.67922], [-97.36699, 29.67927], [-97.36702, 29.67931], [-97.36706, 29.67935], [-97.3671, 29.67938], [-97.36716, 29.6794], [-97.36723, 29.67942], [-97.36728, 29.67943], [-97.36731, 29.67943], [-97.36736, 29.67943], [-97.36741, 29.67943], [-97.36757, 29.67943], [-97.36778, 29.67943], [-97.3679, 29.67943], [-97.36793, 29.67943], [-97.3681, 29.67943], [-97.36872, 29.67944], [-97.36874, 29.67944], [-97.36902, 29.67944], [-97.36908, 29.67944], [-97.36923, 29.67944], [-97.36935, 29.67944], [-97.36997, 29.67944], [-97.37007, 29.67944], [-97.3701, 29.67944], [-97.37017, 29.67944], [-97.37059, 29.67945], [-97.37113, 29.67946], [-97.37119, 29.67946], [-97.37134, 29.67946], [-97.37142, 29.67947], [-97.37216, 29.67948], [-97.37224, 29.67948], [-97.37245, 29.67948], [-97.37259, 29.67948], [-97.37279, 29.67948], [-97.37286, 29.67948], [-97.37299, 29.67948], [-97.37307, 29.67949], [-97.3732, 29.67949], [-97.37328, 29.67949], [-97.37382, 29.67949], [-97.3739, 29.67949], [-97.37399, 29.67949], [-97.37403, 29.67949], [-97.37423, 29.67949], [-97.37431, 29.67948], [-97.37444, 29.67948], [-97.37452, 29.67948], [-97.37465, 29.67948], [-97.37477, 29.67948], [-97.37486, 29.67947], [-97.37549, 29.67942], [-97.37568, 29.67943], [-97.37583, 29.67944], [-97.37589, 29.67944], [-97.37597, 29.67944], [-97.37609, 29.67945], [-97.3763, 29.67946], [-97.37657, 29.67948], [-97.37671, 29.67948], [-97.37679, 29.67948], [-97.37692, 29.67949], [-97.37713, 29.67949], [-97.37721, 29.6795], [-97.3773, 29.6795], [-97.37733, 29.6795], [-97.37754, 29.6795], [-97.37769, 29.6795], [-97.37787, 29.67951], [-97.37795, 29.67953], [-97.37803, 29.67955], [-97.37811, 29.67957], [-97.37817, 29.67961], [-97.37822, 29.67966], [-97.37826, 29.67971], [-97.37826, 29.67974], [-97.37828, 29.67978], [-97.37829, 29.6798], [-97.37829, 29.67985], [-97.3783, 29.67993], [-97.37829, 29.68042], [-97.37829, 29.68135], [-97.37829, 29.68142], [-97.37829, 29.6816], [-97.37828, 29.68171], [-97.37828, 29.68178], [-97.37828, 29.68261], [-97.37828, 29.68268], [-97.37828, 29.68297], [-97.37828, 29.68301], [-97.37828, 29.68304], [-97.37829, 29.68369], [-97.37829, 29.68405], [-97.37829, 29.68412], [-97.37829, 29.68423], [-97.37829, 29.6843], [-97.37829, 29.68504], [-97.3783, 29.68533], [-97.37832, 29.68551], [-97.37835, 29.68566], [-97.37837, 29.68573], [-97.3784, 29.68583], [-97.37841, 29.68584], [-97.37847, 29.68601], [-97.37869, 29.68655], [-97.37874, 29.68672], [-97.37879, 29.68691], [-97.37881, 29.687], [-97.37882, 29.6871], [-97.37882, 29.6872], [-97.37882, 29.68722], [-97.37882, 29.68731], [-97.37881, 29.68741], [-97.37878, 29.68758], [-97.37875, 29.68776], [-97.37874, 29.68783], [-97.37867, 29.68827], [-97.37867, 29.68829], [-97.37862, 29.68854], [-97.3786, 29.68865], [-97.37852, 29.68904], [-97.37849, 29.68918], [-97.37847, 29.68925], [-97.37845, 29.68935], [-97.37844, 29.6894], [-97.37839, 29.68963], [-97.37836, 29.68978], [-97.37836, 29.68984], [-97.37834, 29.69004], [-97.37833, 29.69043], [-97.37832, 29.69049], [-97.37832, 29.69068], [-97.37833, 29.69115], [-97.37833, 29.69121], [-97.37834, 29.69144], [-97.37833, 29.69159], [-97.37832, 29.69168], [-97.3783, 29.69175], [-97.37828, 29.69178], [-97.3781, 29.69203], [-97.37801, 29.69217], [-97.3779, 29.69238], [-97.37789, 29.69239], [-97.37783, 29.69251], [-97.37782, 29.69255], [-97.37778, 29.69265], [-97.37772, 29.69286], [-97.37766, 29.69316], [-97.37764, 29.69325], [-97.37761, 29.69343], [-97.37753, 29.69387], [-97.37751, 29.69396], [-97.37749, 29.69414], [-97.37744, 29.69442], [-97.37743, 29.69449], [-97.37743, 29.69458], [-97.37743, 29.69467], [-97.37742, 29.69468], [-97.37744, 29.69477], [-97.37746, 29.69483], [-97.37749, 29.69492], [-97.3776, 29.69512], [-97.37762, 29.69516], [-97.37776, 29.69538], [-97.37782, 29.69548], [-97.37802, 29.69579], [-97.37813, 29.69595]]}, "properties": {"surface": "two_track", "label": "Ranch two-track", "color": "#6B5A45", "miles": 3.2, "start_mi": 29.67, "end_mi": 32.87, "road": "County Road 423", "elev_ft": [363, 354, 350, 346, 344, 340, 340, 340, 341, 343, 348, 358, 361, 363, 368, 369, 371, 376, 380, 381, 383, 385, 386, 388, 388, 389, 389, 389, 389, 389, 390, 390, 390, 390, 390, 390, 391, 393, 397, 398, 401, 401, 402, 402, 403, 403, 403, 403, 402, 400, 398, 398, 398, 398, 398, 396, 396, 397, 397, 397, 399, 399, 400, 403, 403, 403, 403, 404, 404, 404, 403, 402, 401, 400, 400, 400, 399, 399, 392, 389, 387, 386, 386, 386, 386, 387, 387, 387, 387, 387, 387, 387, 385, 384, 384, 382, 375, 374, 370, 370, 369, 369, 368, 368, 368, 368, 366, 364, 363, 362, 362, 357, 357, 356, 356, 357, 357, 357, 356, 355, 353, 341, 340, 340, 339, 338, 338, 338, 337, 336, 335, 335, 333, 332, 332, 331, 331, 331, 333, 336, 337, 337, 338, 340, 340, 341, 341, 341, 342, 342, 342, 342, 342, 343, 343, 343, 343, 343, 343, 343, 343, 343, 341, 341, 341, 341, 341, 341, 341, 341, 341, 341, 344, 345, 346, 346, 346, 349, 350, 351, 351, 352, 352, 352, 352, 352, 353, 354, 354, 355, 356, 356, 357, 357, 358, 358, 359, 360, 360, 362, 363, 364, 365, 365, 365, 366, 366, 367, 367, 367, 368, 369, 369, 371, 371, 371, 371, 371, 371, 371, 368, 367, 365, 365, 364, 364, 363, 364, 368, 369, 371, 375, 375, 376, 377, 378, 378, 379, 379, 380, 381, 381, 381, 381, 382, 383, 384, 384]}}, {"type": "Feature", "geometry": {"type": "LineString", "coordinates": [[-97.37842, 29.69642], [-97.37853, 29.69662], [-97.37862, 29.69678], [-97.37862, 29.69679], [-97.37865, 29.69686], [-97.37878, 29.69711], [-97.37879, 29.69712], [-97.37886, 29.69728], [-97.3789, 29.69735], [-97.37912, 29.69776], [-97.3789, 29.69735], [-97.37886, 29.69728], [-97.37879, 29.69712], [-97.37878, 29.69711], [-97.37865, 29.69686], [-97.37862, 29.69679], [-97.37862, 29.69678], [-97.37853, 29.69662], [-97.37842, 29.69642], [-97.37813, 29.69595], [-97.37813, 29.69595], [-97.37842, 29.69642], [-97.37853, 29.69662], [-97.37862, 29.69678], [-97.37862, 29.69679], [-97.37865, 29.69686], [-97.37878, 29.69711], [-97.37879, 29.69712], [-97.37886, 29.69728], [-97.3789, 29.69735], [-97.37912, 29.69776], [-97.3807, 29.7005], [-97.38071, 29.70051], [-97.3808, 29.70066], [-97.3808, 29.70067], [-97.38123, 29.70141], [-97.38134, 29.70164], [-97.38141, 29.7018], [-97.38162, 29.70226], [-97.38187, 29.70301]]}, "properties": {"surface": "unknown", "label": "Unverified", "color": "#9A9389", "miles": 0.78, "start_mi": 32.87, "end_mi": 33.65, "road": "County Road 423", "elev_ft": [382, 381, 381, 380, 380, 380, 380, 383, 384, 389, 384, 383, 380, 380, 380, 380, 381, 381, 382, 384, 384, 382, 381, 381, 380, 380, 380, 380, 383, 384, 389, 413, 413, 414, 414, 419, 421, 422, 423, 427]}}, {"type": "Feature", "geometry": {"type": "LineString", "coordinates": [[-97.38204, 29.70317], [-97.38204, 29.70317], [-97.38213, 29.70316], [-97.38223, 29.70316], [-97.38224, 29.70316], [-97.38225, 29.70316], [-97.38229, 29.70317], [-97.38234, 29.70317], [-97.38256, 29.70319], [-97.38268, 29.70321], [-97.38279, 29.70324], [-97.38292, 29.70329], [-97.38316, 29.70338], [-97.38317, 29.70338], [-97.38321, 29.7034], [-97.38323, 29.7034], [-97.3838, 29.70361], [-97.38399, 29.7037], [-97.38418, 29.70378], [-97.3843, 29.70383], [-97.38434, 29.70385], [-97.38436, 29.70386], [-97.38448, 29.70391], [-97.38475, 29.70402], [-97.38487, 29.70406], [-97.38488, 29.70406], [-97.38493, 29.70408], [-97.38502, 29.7041], [-97.38513, 29.70412], [-97.38516, 29.70413], [-97.3853, 29.70415], [-97.38534, 29.70415], [-97.38544, 29.70417], [-97.38554, 29.70417], [-97.38575, 29.70419], [-97.38609, 29.70421], [-97.38632, 29.70424], [-97.38644, 29.70425], [-97.38665, 29.70431], [-97.38675, 29.70435], [-97.38688, 29.7044], [-97.38713, 29.7045], [-97.38723, 29.70454], [-97.38732, 29.70458], [-97.38751, 29.70466], [-97.38764, 29.70472], [-97.38784, 29.70482], [-97.38792, 29.70487], [-97.38802, 29.70493], [-97.38804, 29.70494], [-97.3881, 29.70499], [-97.38818, 29.70505], [-97.38819, 29.70506], [-97.38825, 29.70512], [-97.38831, 29.70518], [-97.38832, 29.7052], [-97.38836, 29.70525], [-97.38841, 29.70533], [-97.38842, 29.70536], [-97.3885, 29.70552], [-97.38851, 29.70552], [-97.38857, 29.70569], [-97.3886, 29.70575], [-97.38864, 29.70586], [-97.38864, 29.70587], [-97.38869, 29.70604], [-97.38874, 29.70621], [-97.38887, 29.70669], [-97.38896, 29.70698], [-97.389, 29.70708], [-97.38902, 29.70712], [-97.38908, 29.70725], [-97.38913, 29.70738], [-97.38934, 29.70777], [-97.38941, 29.70791], [-97.38947, 29.70804], [-97.38949, 29.70807], [-97.38964, 29.70841], [-97.38971, 29.70858], [-97.38976, 29.70868], [-97.38988, 29.70891], [-97.38995, 29.70902], [-97.38998, 29.70906], [-97.39, 29.70908], [-97.39003, 29.70912], [-97.39009, 29.70921], [-97.3901, 29.70922], [-97.39018, 29.70932], [-97.39022, 29.70936], [-97.39028, 29.70941], [-97.39036, 29.70949], [-97.39041, 29.70952], [-97.39048, 29.70958], [-97.39052, 29.70961], [-97.39054, 29.70963], [-97.39059, 29.70966], [-97.391, 29.70994], [-97.39106, 29.70998], [-97.39116, 29.71006], [-97.39125, 29.71012], [-97.39142, 29.71023], [-97.39165, 29.7104], [-97.39189, 29.71057], [-97.39197, 29.71062], [-97.39241, 29.71095], [-97.39256, 29.71105], [-97.39276, 29.7112], [-97.3929, 29.71128], [-97.39295, 29.71131], [-97.39313, 29.71142], [-97.39325, 29.71148], [-97.39332, 29.71151], [-97.39343, 29.71156], [-97.3935, 29.71158], [-97.39362, 29.71163], [-97.39407, 29.7118], [-97.39419, 29.71186], [-97.39429, 29.7119], [-97.39437, 29.71195], [-97.39455, 29.71204], [-97.3948, 29.71217], [-97.3949, 29.71223], [-97.39503, 29.7123], [-97.39507, 29.71232], [-97.39525, 29.71242], [-97.39556, 29.71258], [-97.39574, 29.71268], [-97.39582, 29.71273], [-97.39607, 29.71288], [-97.39618, 29.71295], [-97.39623, 29.71298], [-97.39639, 29.7131], [-97.39646, 29.71315], [-97.39654, 29.71322], [-97.39659, 29.71326], [-97.3967, 29.71334], [-97.39674, 29.71337], [-97.39682, 29.71343], [-97.39686, 29.71345], [-97.39693, 29.7135], [-97.39705, 29.71356], [-97.39728, 29.71367], [-97.39773, 29.71387], [-97.39795, 29.71397], [-97.39805, 29.71401], [-97.39814, 29.71405], [-97.39873, 29.71435], [-97.39886, 29.71441], [-97.39899, 29.71447], [-97.39915, 29.71453], [-97.39924, 29.71455], [-97.39941, 29.71459], [-97.39943, 29.7146], [-97.39964, 29.71463], [-97.39972, 29.71464], [-97.39982, 29.71465], [-97.39982, 29.71465], [-97.39982, 29.71465], [-97.40004, 29.71468], [-97.4001, 29.71468], [-97.40031, 29.71473], [-97.40042, 29.71477], [-97.40048, 29.71479], [-97.4006, 29.71484], [-97.40067, 29.71486], [-97.40089, 29.71496], [-97.40121, 29.71511], [-97.40122, 29.71511], [-97.4014, 29.71519], [-97.40153, 29.71525], [-97.40158, 29.71527], [-97.40176, 29.71536], [-97.40177, 29.71536], [-97.40235, 29.71563], [-97.4025, 29.7157], [-97.40268, 29.71578], [-97.40277, 29.71582], [-97.40306, 29.71593], [-97.40319, 29.71598], [-97.40344, 29.71607], [-97.40377, 29.71618], [-97.4046, 29.71645], [-97.4048, 29.71651], [-97.40512, 29.71662], [-97.40546, 29.71673], [-97.40575, 29.71685], [-97.40575, 29.71686], [-97.40577, 29.71686], [-97.40594, 29.71693], [-97.40631, 29.71709], [-97.40637, 29.71712], [-97.40649, 29.71718], [-97.40666, 29.71726], [-97.4068, 29.71733], [-97.40685, 29.71736], [-97.40693, 29.7174], [-97.40702, 29.71745], [-97.40703, 29.71746], [-97.40706, 29.71748], [-97.40719, 29.71756], [-97.40731, 29.71765], [-97.40751, 29.71784], [-97.40778, 29.71813], [-97.40802, 29.71837], [-97.4085, 29.71888], [-97.40873, 29.71913], [-97.40891, 29.7193], [-97.409, 29.71937], [-97.40908, 29.71944], [-97.40917, 29.7195], [-97.40926, 29.71955], [-97.40927, 29.71956], [-97.40943, 29.71965], [-97.40945, 29.71965], [-97.40947, 29.71966], [-97.40949, 29.71967], [-97.40959, 29.71971], [-97.40984, 29.71979], [-97.40998, 29.71984], [-97.40998, 29.71984], [-97.41047, 29.72003], [-97.41111, 29.72025], [-97.41125, 29.7203], [-97.4113, 29.72032], [-97.41132, 29.72033], [-97.41137, 29.72035], [-97.41149, 29.7204], [-97.41151, 29.7204], [-97.4118, 29.72048], [-97.41212, 29.72049], [-97.41251, 29.7205], [-97.41272, 29.7205], [-97.41274, 29.7205], [-97.41275, 29.7205], [-97.4128, 29.7205], [-97.41295, 29.72051], [-97.41317, 29.72054], [-97.41333, 29.72058], [-97.41373, 29.72069], [-97.41398, 29.72075], [-97.41452, 29.72089], [-97.41477, 29.72096], [-97.41531, 29.7211], [-97.41557, 29.72117], [-97.4161, 29.7213], [-97.41617, 29.72136], [-97.4162, 29.7214], [-97.41621, 29.72142], [-97.41623, 29.72147], [-97.41625, 29.72152], [-97.41625, 29.72157], [-97.41626, 29.72183], [-97.41625, 29.72244], [-97.41624, 29.72343], [-97.41623, 29.72388], [-97.41623, 29.72406], [-97.41623, 29.72411], [-97.41623, 29.72415], [-97.41624, 29.72423], [-97.41628, 29.72428], [-97.41632, 29.72433], [-97.4164, 29.72437], [-97.41651, 29.72437], [-97.4166, 29.72438], [-97.41709, 29.72441], [-97.41763, 29.72443], [-97.41773, 29.72443], [-97.41837, 29.72445], [-97.4193, 29.72447], [-97.42011, 29.72448], [-97.42124, 29.72448], [-97.42156, 29.72448], [-97.42192, 29.72448], [-97.42225, 29.72452], [-97.42239, 29.72453], [-97.42265, 29.72462], [-97.42265, 29.72462], [-97.42286, 29.72476], [-97.42297, 29.72482], [-97.42306, 29.72485], [-97.42321, 29.72489], [-97.42337, 29.7249], [-97.42435, 29.7249], [-97.42458, 29.72489], [-97.42471, 29.72489], [-97.425, 29.72489], [-97.42582, 29.72489], [-97.4268, 29.7249], [-97.4268, 29.7249], [-97.42849, 29.72488], [-97.42873, 29.72488], [-97.42997, 29.72489], [-97.43039, 29.7249], [-97.43122, 29.72491], [-97.43128, 29.72491], [-97.43163, 29.72493], [-97.43192, 29.72495], [-97.43204, 29.72495], [-97.43282, 29.72498], [-97.43296, 29.72498], [-97.43315, 29.72498], [-97.43446, 29.72499], [-97.43502, 29.72498], [-97.43535, 29.72498], [-97.43588, 29.72498], [-97.43658, 29.72496], [-97.43689, 29.72496], [-97.4372, 29.72495], [-97.43741, 29.72495], [-97.43897, 29.72494], [-97.439, 29.72495], [-97.43904, 29.72496], [-97.4391, 29.72498], [-97.4391, 29.72498], [-97.43913, 29.725], [-97.43917, 29.72505], [-97.43918, 29.72508], [-97.43919, 29.72514], [-97.43919, 29.7252], [-97.43916, 29.7261], [-97.43916, 29.72639], [-97.43916, 29.72639], [-97.44041, 29.72639], [-97.44052, 29.72639], [-97.44239, 29.72638], [-97.44259, 29.72638], [-97.44268, 29.72638], [-97.44342, 29.72638], [-97.44487, 29.72637], [-97.44517, 29.72637], [-97.44567, 29.72637], [-97.44601, 29.72637], [-97.44674, 29.72637], [-97.44694, 29.72637], [-97.44703, 29.72637], [-97.44869, 29.72638], [-97.44873, 29.72638], [-97.44952, 29.72639], [-97.44959, 29.72639], [-97.45042, 29.72639], [-97.45055, 29.72639], [-97.45197, 29.7264], [-97.45204, 29.7264], [-97.45212, 29.72639], [-97.45219, 29.72636], [-97.45224, 29.72632], [-97.45225, 29.72632], [-97.4523, 29.72626], [-97.45233, 29.7262], [-97.45234, 29.72617], [-97.45235, 29.726], [-97.45238, 29.72564], [-97.4524, 29.72541], [-97.45242, 29.7252], [-97.45243, 29.72516], [-97.45246, 29.7251], [-97.4525, 29.72503], [-97.45256, 29.72498], [-97.45263, 29.72494], [-97.45271, 29.72492], [-97.4528, 29.72491], [-97.45325, 29.72492], [-97.4534, 29.72493], [-97.45346, 29.72493], [-97.45388, 29.72494], [-97.45408, 29.72494], [-97.45443, 29.72494], [-97.45449, 29.72494], [-97.45491, 29.72494], [-97.45505, 29.72494], [-97.45511, 29.72494], [-97.45588, 29.72493], [-97.45594, 29.72493], [-97.45614, 29.72493], [-97.4563, 29.72493], [-97.45636, 29.72493], [-97.45662, 29.72493], [-97.45671, 29.72493], [-97.45775, 29.72491], [-97.45786, 29.72491], [-97.45837, 29.72491], [-97.45848, 29.7249], [-97.45869, 29.7249], [-97.45973, 29.72489], [-97.46056, 29.72488], [-97.46065, 29.72488], [-97.46076, 29.72488], [-97.46117, 29.72487], [-97.46118, 29.72487], [-97.46201, 29.72488], [-97.4621, 29.72488], [-97.46231, 29.72488], [-97.46242, 29.72488], [-97.46251, 29.72487], [-97.46263, 29.72487], [-97.46304, 29.72486], [-97.46313, 29.72485], [-97.46325, 29.72485], [-97.46337, 29.72484], [-97.46387, 29.72485], [-97.46396, 29.72485], [-97.46449, 29.72486], [-97.46449, 29.72486], [-97.46448, 29.72471], [-97.46449, 29.72444], [-97.4645, 29.7244], [-97.46453, 29.72434], [-97.46454, 29.72432], [-97.46457, 29.72429], [-97.46462, 29.72426], [-97.46468, 29.72423], [-97.46475, 29.72423], [-97.46552, 29.72426], [-97.46614, 29.72429], [-97.46621, 29.72429], [-97.46671, 29.7243], [-97.46676, 29.72431], [-97.46738, 29.72432], [-97.46842, 29.72434], [-97.46883, 29.72435], [-97.47028, 29.72438], [-97.47106, 29.7244], [-97.47123, 29.7244], [-97.47215, 29.72443], [-97.47227, 29.72444], [-97.47235, 29.72444], [-97.47277, 29.72446], [-97.47289, 29.72446], [-97.4733, 29.72447], [-97.47339, 29.72448], [-97.47462, 29.72452], [-97.47467, 29.72452], [-97.47475, 29.72452], [-97.47484, 29.72453], [-97.47537, 29.72454], [-97.47546, 29.72455], [-97.47566, 29.72455], [-97.47579, 29.72456], [-97.47608, 29.72457], [-97.4762, 29.72457], [-97.47628, 29.72457], [-97.47765, 29.72461], [-97.47773, 29.72462], [-97.47835, 29.72464], [-97.47848, 29.72464], [-97.47882, 29.72465], [-97.48001, 29.7247], [-97.48013, 29.7247], [-97.48102, 29.72474], [-97.48107, 29.72474], [-97.48111, 29.72473], [-97.48115, 29.72472], [-97.48118, 29.72471], [-97.4812, 29.72469], [-97.48125, 29.72465], [-97.48127, 29.7246], [-97.48129, 29.72454], [-97.4813, 29.72446], [-97.48129, 29.72438], [-97.48129, 29.72431], [-97.48128, 29.7242], [-97.48128, 29.72418], [-97.48128, 29.72409], [-97.48127, 29.72394], [-97.48125, 29.72373], [-97.48124, 29.72363], [-97.48124, 29.72359], [-97.48124, 29.72348], [-97.48124, 29.72345], [-97.48124, 29.72341], [-97.48124, 29.72327], [-97.48124, 29.72306], [-97.48121, 29.72297], [-97.4812, 29.72261], [-97.4812, 29.72255], [-97.4812, 29.72228], [-97.48121, 29.7221], [-97.48122, 29.72174], [-97.48122, 29.72174], [-97.48122, 29.72126], [-97.48122, 29.72096], [-97.48122, 29.72085], [-97.48122, 29.72084], [-97.48122, 29.72075], [-97.48123, 29.72072], [-97.48124, 29.72064], [-97.48128, 29.72054]]}, "properties": {"surface": "two_track", "label": "Ranch two-track", "color": "#6B5A45", "miles": 7.14, "start_mi": 33.65, "end_mi": 40.79, "road": "County Road 443", "elev_ft": [429, 429, 429, 429, 429, 429, 429, 429, 428, 428, 428, 427, 427, 426, 426, 426, 427, 426, 426, 426, 425, 425, 425, 424, 424, 424, 424, 423, 423, 423, 422, 422, 421, 421, 420, 416, 414, 413, 410, 409, 407, 404, 403, 402, 399, 398, 396, 395, 394, 393, 393, 392, 392, 391, 390, 390, 389, 389, 388, 388, 388, 389, 390, 392, 392, 395, 399, 405, 411, 414, 415, 419, 421, 423, 423, 424, 424, 427, 427, 428, 428, 427, 427, 427, 427, 427, 427, 427, 427, 428, 429, 429, 429, 430, 430, 430, 435, 435, 433, 431, 428, 424, 419, 418, 415, 415, 414, 413, 412, 408, 405, 403, 401, 400, 397, 393, 392, 392, 392, 394, 396, 397, 399, 399, 402, 406, 409, 410, 413, 415, 416, 418, 418, 417, 417, 414, 413, 411, 410, 409, 406, 403, 397, 394, 393, 392, 385, 384, 383, 382, 381, 380, 380, 377, 375, 373, 373, 373, 371, 371, 372, 373, 374, 375, 376, 380, 384, 384, 387, 389, 390, 393, 393, 402, 403, 405, 406, 407, 407, 405, 403, 399, 398, 398, 398, 398, 398, 398, 398, 396, 396, 395, 394, 393, 392, 392, 391, 390, 390, 389, 388, 388, 388, 387, 385, 384, 384, 383, 383, 383, 384, 384, 384, 384, 384, 384, 384, 384, 383, 383, 382, 385, 385, 386, 386, 386, 386, 387, 387, 388, 389, 391, 391, 391, 392, 393, 395, 395, 396, 397, 398, 398, 399, 399, 399, 399, 399, 399, 399, 399, 399, 399, 401, 403, 403, 402, 402, 402, 402, 402, 402, 402, 403, 404, 407, 410, 411, 413, 417, 420, 425, 427, 429, 431, 432, 433, 433, 434, 435, 436, 437, 437, 441, 442, 442, 443, 444, 444, 444, 439, 439, 440, 442, 443, 443, 443, 443, 443, 441, 441, 439, 428, 426, 423, 419, 409, 410, 412, 413, 420, 420, 420, 421, 421, 421, 421, 421, 421, 421, 424, 425, 425, 429, 429, 436, 437, 437, 441, 450, 451, 452, 452, 453, 453, 453, 455, 455, 454, 454, 450, 449, 439, 439, 438, 438, 438, 438, 437, 437, 437, 437, 436, 436, 435, 435, 434, 434, 433, 433, 432, 432, 429, 429, 429, 428, 428, 428, 429, 431, 432, 432, 439, 440, 441, 442, 442, 442, 442, 429, 428, 425, 424, 423, 418, 415, 414, 414, 412, 412, 408, 408, 407, 406, 406, 405, 402, 402, 401, 400, 411, 411, 410, 410, 410, 408, 408, 407, 407, 407, 407, 407, 407, 407, 406, 406, 411, 411, 415, 422, 424, 433, 439, 441, 451, 452, 453, 454, 454, 454, 453, 443, 443, 442, 442, 438, 437, 438, 438, 441, 442, 443, 459, 460, 464, 464, 462, 459, 460, 463, 463, 463, 463, 463, 463, 463, 462, 462, 461, 461, 460, 459, 459, 458, 457, 455, 454, 454, 453, 453, 453, 452, 451, 450, 443, 442, 438, 434, 429, 429, 424, 423, 422, 422, 422, 422, 422, 421]}}, {"type": "Feature", "geometry": {"type": "LineString", "coordinates": [[-97.48133, 29.72044], [-97.48133, 29.72043], [-97.48139, 29.72035], [-97.48193, 29.71977], [-97.48254, 29.71911], [-97.48269, 29.71896], [-97.48272, 29.71892], [-97.48284, 29.71879], [-97.48331, 29.71829], [-97.48357, 29.71798], [-97.48382, 29.71767], [-97.48384, 29.71763], [-97.48392, 29.71752], [-97.48395, 29.71748], [-97.48398, 29.71743], [-97.48402, 29.71736], [-97.48418, 29.7171], [-97.48421, 29.71704], [-97.48436, 29.71676], [-97.48447, 29.71654], [-97.48453, 29.71641], [-97.48461, 29.71621], [-97.48463, 29.71617], [-97.48467, 29.71604], [-97.48468, 29.716], [-97.48473, 29.71586], [-97.48476, 29.71574], [-97.48476, 29.71574], [-97.48483, 29.7155], [-97.48487, 29.7153], [-97.4849, 29.71516], [-97.48491, 29.71514], [-97.48491, 29.71512], [-97.48512, 29.71374], [-97.48513, 29.71369], [-97.48515, 29.71356], [-97.48516, 29.71351], [-97.48518, 29.71338], [-97.4852, 29.71326], [-97.48544, 29.71164], [-97.48554, 29.71094], [-97.48565, 29.71023], [-97.48571, 29.70989], [-97.48587, 29.70871], [-97.48599, 29.70801], [-97.486, 29.70791], [-97.48616, 29.70697], [-97.48619, 29.70674], [-97.48627, 29.70621], [-97.4863, 29.70603], [-97.48637, 29.70552], [-97.48638, 29.7055], [-97.48643, 29.70519], [-97.48649, 29.70493], [-97.48653, 29.70479], [-97.48658, 29.70467], [-97.48668, 29.70441], [-97.4868, 29.70416], [-97.48682, 29.70412], [-97.48686, 29.70406], [-97.48702, 29.70382], [-97.48714, 29.70366], [-97.48719, 29.7036], [-97.48726, 29.70351], [-97.48738, 29.70337], [-97.48758, 29.70316], [-97.48766, 29.70309], [-97.48778, 29.70299], [-97.48781, 29.70297], [-97.488, 29.70282], [-97.48824, 29.70266]]}, "properties": {"surface": "pavement", "label": "Pavement", "color": "#4A5568", "miles": 1.34, "start_mi": 40.79, "end_mi": 42.12, "road": "FM 1386", "elev_ft": [420, 420, 417, 431, 436, 435, 435, 435, 440, 440, 441, 441, 442, 442, 442, 443, 445, 445, 447, 448, 449, 451, 451, 451, 452, 451, 451, 451, 449, 448, 447, 447, 447, 442, 442, 442, 442, 442, 441, 440, 440, 440, 440, 440, 442, 442, 443, 443, 442, 441, 438, 438, 436, 434, 433, 432, 431, 429, 429, 428, 427, 427, 427, 427, 427, 428, 428, 430, 430, 431, 431]}}, {"type": "Feature", "geometry": {"type": "LineString", "coordinates": [[-97.48846, 29.70253], [-97.48846, 29.70253], [-97.48845, 29.7025], [-97.48841, 29.70246], [-97.48836, 29.70242], [-97.48829, 29.70241], [-97.48823, 29.70241], [-97.4882, 29.70241], [-97.488, 29.70242], [-97.48779, 29.70242], [-97.48759, 29.70243], [-97.48738, 29.70243], [-97.48676, 29.70245], [-97.48614, 29.70247], [-97.48596, 29.70247], [-97.4851, 29.70249], [-97.48492, 29.70249], [-97.48469, 29.7025], [-97.48469, 29.7025], [-97.48458, 29.70248], [-97.48451, 29.70245], [-97.48443, 29.7024], [-97.48437, 29.70235], [-97.4843, 29.70229], [-97.48426, 29.70224], [-97.48423, 29.70219], [-97.48421, 29.7021], [-97.4842, 29.70205], [-97.4842, 29.70186], [-97.4842, 29.70182], [-97.4842, 29.70112], [-97.48418, 29.70056], [-97.48418, 29.70042], [-97.48418, 29.70038], [-97.48417, 29.70002], [-97.48415, 29.69921], [-97.48415, 29.69912], [-97.48415, 29.69894], [-97.48416, 29.69827], [-97.48415, 29.69791], [-97.48415, 29.69786], [-97.48415, 29.69768], [-97.48414, 29.69755], [-97.48414, 29.6975], [-97.48413, 29.69732], [-97.48412, 29.69683], [-97.48412, 29.69681], [-97.48412, 29.69669], [-97.48412, 29.69647], [-97.48412, 29.69629], [-97.48412, 29.69611], [-97.48412, 29.69593], [-97.48411, 29.69492], [-97.48408, 29.69402], [-97.48407, 29.69341], [-97.48403, 29.69318], [-97.48403, 29.69304], [-97.48403, 29.69272], [-97.48403, 29.69268], [-97.48403, 29.69268], [-97.48403, 29.6925], [-97.48405, 29.69236], [-97.48405, 29.69231], [-97.48407, 29.69218], [-97.48408, 29.69215], [-97.48411, 29.69205], [-97.48413, 29.69201], [-97.48418, 29.69191], [-97.48427, 29.69181], [-97.48438, 29.69173], [-97.48453, 29.69161], [-97.48469, 29.69149], [-97.48484, 29.69137], [-97.485, 29.69125], [-97.48515, 29.69113], [-97.48524, 29.69106], [-97.48528, 29.69102], [-97.48528, 29.69102], [-97.4853, 29.691], [-97.48553, 29.69081], [-97.48576, 29.69064], [-97.48607, 29.6904], [-97.4862, 29.6903], [-97.48638, 29.69017], [-97.48663, 29.68999], [-97.48732, 29.68945], [-97.4876, 29.68923], [-97.48762, 29.68921], [-97.4877, 29.68915], [-97.48775, 29.68905], [-97.48769, 29.68891], [-97.48752, 29.68873], [-97.48741, 29.68863], [-97.48726, 29.68849], [-97.487, 29.68823], [-97.48677, 29.688], [-97.48606, 29.68731], [-97.48562, 29.68688], [-97.4852, 29.68646], [-97.48465, 29.68595], [-97.48459, 29.68586], [-97.4846, 29.68578], [-97.48461, 29.68576], [-97.48468, 29.6857], [-97.48474, 29.68566], [-97.48554, 29.68508], [-97.48569, 29.68496], [-97.48585, 29.68484], [-97.48632, 29.68449], [-97.4864, 29.68442], [-97.48667, 29.68423], [-97.48679, 29.68414], [-97.48679, 29.68414], [-97.4874, 29.68366], [-97.48756, 29.68354], [-97.48756, 29.68353], [-97.48819, 29.68307], [-97.48832, 29.68297], [-97.48834, 29.68295], [-97.48857, 29.68277], [-97.48883, 29.68257], [-97.48925, 29.68225], [-97.48929, 29.68221], [-97.48934, 29.68217], [-97.48944, 29.68209], [-97.4896, 29.68197], [-97.48979, 29.68181], [-97.4899, 29.68172], [-97.49013, 29.68154], [-97.49056, 29.6812], [-97.49067, 29.68112], [-97.49074, 29.68106], [-97.49103, 29.68083], [-97.49103, 29.68083], [-97.49159, 29.68039], [-97.49164, 29.68036], [-97.49174, 29.68027], [-97.49228, 29.67985], [-97.49261, 29.67958], [-97.49266, 29.67955], [-97.49271, 29.67951], [-97.49303, 29.67925], [-97.49313, 29.67919], [-97.49323, 29.67911], [-97.49363, 29.67888], [-97.49366, 29.67886], [-97.49368, 29.67884], [-97.49386, 29.67871], [-97.49395, 29.67865], [-97.49398, 29.67862], [-97.49409, 29.67851], [-97.49414, 29.67846], [-97.49433, 29.67828], [-97.49437, 29.67825], [-97.49455, 29.6781], [-97.4953, 29.67753], [-97.49545, 29.67741], [-97.49553, 29.67735], [-97.49561, 29.67729], [-97.49576, 29.67717], [-97.49581, 29.67713], [-97.49587, 29.67708], [-97.49591, 29.67705], [-97.49642, 29.67667], [-97.49654, 29.67658], [-97.49659, 29.67654], [-97.49669, 29.67646], [-97.49677, 29.6764], [-97.49685, 29.67634], [-97.4969, 29.67631], [-97.49701, 29.67623], [-97.4971, 29.67616], [-97.49716, 29.67611], [-97.49733, 29.67598], [-97.49746, 29.67586], [-97.49761, 29.67573], [-97.49781, 29.67555], [-97.49795, 29.67544], [-97.49803, 29.67537], [-97.49821, 29.67524], [-97.49828, 29.67518], [-97.49876, 29.67484], [-97.4989, 29.67474], [-97.49906, 29.67462], [-97.49922, 29.67451], [-97.49937, 29.6744], [-97.49938, 29.67439], [-97.49985, 29.67404], [-97.49992, 29.674], [-97.50007, 29.67388], [-97.50009, 29.67386], [-97.50011, 29.67384], [-97.50014, 29.67379], [-97.50016, 29.67374], [-97.50017, 29.67371], [-97.50018, 29.67368], [-97.50018, 29.67362], [-97.50017, 29.67355], [-97.49991, 29.67267], [-97.49986, 29.67245], [-97.49981, 29.67227], [-97.4998, 29.67222], [-97.49976, 29.67205], [-97.49956, 29.67122], [-97.49945, 29.67077], [-97.49935, 29.6704], [-97.49934, 29.67034], [-97.49933, 29.67029], [-97.49932, 29.67026], [-97.49933, 29.67021], [-97.49933, 29.67018], [-97.49934, 29.67016], [-97.49937, 29.6701], [-97.49944, 29.67005], [-97.49949, 29.67003], [-97.49954, 29.67002], [-97.49964, 29.67001], [-97.50004, 29.67001], [-97.50037, 29.67001], [-97.50044, 29.67001], [-97.50052, 29.66999], [-97.50059, 29.66994], [-97.50063, 29.66987], [-97.50064, 29.66983], [-97.50064, 29.66979], [-97.50062, 29.6697], [-97.50058, 29.66958], [-97.50049, 29.66936], [-97.50048, 29.66934], [-97.50057, 29.66916], [-97.50057, 29.66916], [-97.50096, 29.66907], [-97.50137, 29.66898], [-97.50157, 29.66893], [-97.50164, 29.66892], [-97.50168, 29.66891], [-97.50222, 29.66881], [-97.50227, 29.6688], [-97.50274, 29.66868], [-97.50317, 29.66859], [-97.50352, 29.66853], [-97.50395, 29.66844]]}, "properties": {"surface": "unknown", "label": "Unverified", "color": "#9A9389", "miles": 3.42, "start_mi": 42.12, "end_mi": 45.54, "road": "County Road 281", "elev_ft": [432, 432, 432, 433, 433, 434, 434, 434, 433, 432, 432, 431, 427, 425, 424, 419, 418, 418, 418, 418, 418, 417, 417, 417, 417, 418, 417, 417, 417, 417, 420, 424, 424, 424, 426, 427, 427, 427, 426, 423, 422, 420, 419, 418, 416, 407, 407, 405, 405, 406, 409, 411, 422, 427, 430, 434, 436, 437, 437, 437, 437, 436, 435, 434, 434, 433, 433, 432, 432, 431, 430, 427, 426, 427, 429, 431, 432, 432, 433, 439, 445, 446, 445, 443, 440, 433, 430, 430, 429, 429, 428, 427, 427, 426, 423, 420, 417, 413, 408, 409, 410, 410, 410, 409, 409, 408, 409, 409, 408, 408, 407, 407, 407, 404, 403, 403, 398, 396, 396, 392, 401, 413, 414, 415, 416, 417, 417, 417, 418, 422, 423, 424, 427, 427, 432, 432, 432, 434, 434, 434, 434, 434, 434, 434, 433, 433, 433, 432, 433, 433, 435, 435, 437, 437, 438, 448, 450, 451, 452, 452, 452, 452, 453, 450, 448, 448, 447, 445, 444, 444, 442, 442, 441, 441, 442, 443, 447, 449, 451, 453, 454, 460, 462, 464, 465, 466, 466, 465, 465, 465, 465, 465, 465, 465, 465, 465, 465, 465, 464, 464, 464, 464, 464, 463, 461, 460, 460, 460, 460, 460, 460, 460, 459, 459, 460, 460, 460, 463, 464, 464, 464, 465, 465, 465, 465, 464, 464, 464, 464, 464, 464, 464, 464, 464, 464, 464, 464, 464, 464, 464, 464, 463]}}]}