{"type": "FeatureCollection", "features": [{"type": "Feature", "geometry": {"type": "LineString", "coordinates": [[-97.50395, 29.66845], [-97.50437, 29.66835], [-97.50461, 29.66829], [-97.50477, 29.66827], [-97.50531, 29.66816], [-97.50585, 29.66804], [-97.50569, 29.66752], [-97.50569, 29.66752], [-97.50564, 29.66733], [-97.5056, 29.66707], [-97.50537, 29.66631]]}, "properties": {"surface": "unknown", "label": "Unverified", "color": "#9A9389", "miles": 0.24, "start_mi": 0.0, "end_mi": 0.24, "road": "North 2nd Street", "elev_ft": [463, 463, 464, 464, 464, 463, 463, 463, 463, 463, 463]}}, {"type": "Feature", "geometry": {"type": "LineString", "coordinates": [[-97.50532, 29.66606], [-97.50511, 29.66538], [-97.50489, 29.6646], [-97.50467, 29.66382], [-97.50444, 29.66303], [-97.50422, 29.66225], [-97.504, 29.66146], [-97.50378, 29.66068], [-97.50374, 29.66039], [-97.5037, 29.65982], [-97.50371, 29.65953], [-97.50375, 29.65925], [-97.50381, 29.65899], [-97.50381, 29.65899], [-97.50402, 29.65824], [-97.50422, 29.65744], [-97.50431, 29.65696], [-97.5044, 29.65629], [-97.50449, 29.65554], [-97.50458, 29.6548], [-97.50467, 29.65405], [-97.50477, 29.6533], [-97.50479, 29.65295], [-97.5048, 29.6526], [-97.50478, 29.65225], [-97.50476, 29.65209], [-97.50464, 29.65127], [-97.50452, 29.65045], [-97.5044, 29.64963], [-97.50428, 29.6488], [-97.50416, 29.64798], [-97.50404, 29.64716], [-97.50401, 29.64704], [-97.50395, 29.64687], [-97.50387, 29.64672], [-97.50376, 29.64658], [-97.50323, 29.64603], [-97.5027, 29.64549], [-97.50217, 29.64494]]}, "properties": {"surface": "pavement", "label": "Pavement", "color": "#4A5568", "miles": 1.52, "start_mi": 0.24, "end_mi": 1.76, "road": "FM 794", "elev_ft": [463, 463, 456, 453, 453, 450, 447, 442, 440, 438, 436, 435, 434, 434, 434, 433, 429, 425, 421, 421, 421, 416, 414, 414, 415, 414, 409, 404, 402, 396, 393, 391, 391, 391, 390, 389, 386, 383, 385]}}, {"type": "Feature", "geometry": {"type": "LineString", "coordinates": [[-97.50165, 29.6444], [-97.5021, 29.64406], [-97.50255, 29.64372], [-97.50255, 29.64372], [-97.50315, 29.64326], [-97.50375, 29.6428], [-97.50435, 29.64235], [-97.50495, 29.64189], [-97.50564, 29.64135], [-97.50622, 29.64095], [-97.50638, 29.64083], [-97.50619, 29.64063], [-97.50582, 29.64028], [-97.50544, 29.63989], [-97.50495, 29.6394], [-97.50446, 29.63892], [-97.50398, 29.63848], [-97.50346, 29.63803], [-97.50303, 29.63762], [-97.50259, 29.63722], [-97.50208, 29.63673], [-97.50157, 29.63624], [-97.50106, 29.63575], [-97.5005, 29.6352], [-97.50037, 29.63505], [-97.50028, 29.63491], [-97.50022, 29.63477], [-97.50019, 29.63463], [-97.50019, 29.63457], [-97.50022, 29.6345], [-97.50028, 29.63444], [-97.50044, 29.63431], [-97.50082, 29.63404], [-97.50159, 29.63345], [-97.50236, 29.63286], [-97.50307, 29.63231], [-97.50378, 29.63176], [-97.50449, 29.63121], [-97.50452, 29.63117], [-97.50453, 29.63113], [-97.50452, 29.63105], [-97.50451, 29.631], [-97.50444, 29.63091], [-97.50432, 29.63075], [-97.50392, 29.63031], [-97.50396, 29.63028], [-97.50403, 29.6302], [-97.50458, 29.62976], [-97.50458, 29.62976], [-97.50523, 29.62926], [-97.50588, 29.62877], [-97.50653, 29.62827], [-97.50717, 29.62777], [-97.50751, 29.6275], [-97.50774, 29.62729], [-97.50786, 29.62714], [-97.50812, 29.62654], [-97.50822, 29.62618], [-97.50836, 29.62572], [-97.5085, 29.62527], [-97.50854, 29.62517], [-97.50861, 29.62501], [-97.50892, 29.62443], [-97.50903, 29.62422], [-97.50934, 29.62346], [-97.50966, 29.62271], [-97.50982, 29.62226], [-97.50996, 29.62175], [-97.5101, 29.62117], [-97.51024, 29.62059], [-97.51032, 29.62034], [-97.51042, 29.62009], [-97.51064, 29.61965], [-97.51086, 29.61921], [-97.51124, 29.61845], [-97.51163, 29.6177], [-97.51202, 29.61695], [-97.5124, 29.61619], [-97.51279, 29.61544], [-97.51283, 29.61533], [-97.51284, 29.61529], [-97.51283, 29.61524], [-97.51282, 29.6152], [-97.51275, 29.61512], [-97.51224, 29.61462], [-97.51174, 29.61411], [-97.51145, 29.61384], [-97.51137, 29.61372], [-97.51134, 29.61367], [-97.51133, 29.61362], [-97.51134, 29.61356], [-97.51137, 29.61351], [-97.51141, 29.61346], [-97.51153, 29.61336], [-97.51231, 29.6128], [-97.51295, 29.61231], [-97.51359, 29.61182], [-97.51412, 29.61143], [-97.51466, 29.61103], [-97.51522, 29.61062], [-97.51584, 29.61016], [-97.51646, 29.60969], [-97.51708, 29.60922], [-97.5171, 29.60917], [-97.51711, 29.60911], [-97.5171, 29.60906], [-97.51707, 29.60901], [-97.5169, 29.60883], [-97.51682, 29.60873], [-97.51678, 29.60864], [-97.51677, 29.6086], [-97.51678, 29.6085], [-97.51682, 29.60841], [-97.51689, 29.6083], [-97.51699, 29.60817], [-97.51709, 29.60807], [-97.51713, 29.60804], [-97.51723, 29.60799], [-97.51735, 29.60794], [-97.51796, 29.60774], [-97.51816, 29.60766], [-97.51837, 29.60754], [-97.51849, 29.60744], [-97.5186, 29.60734], [-97.51874, 29.60719], [-97.51885, 29.60703], [-97.51894, 29.60686], [-97.51901, 29.60668], [-97.51906, 29.60648], [-97.51912, 29.60613], [-97.51918, 29.6055], [-97.51923, 29.60487], [-97.51927, 29.60465], [-97.51945, 29.60408], [-97.51963, 29.60351], [-97.51986, 29.60266], [-97.51999, 29.60218], [-97.52013, 29.6017], [-97.52024, 29.60138], [-97.52043, 29.6009], [-97.52048, 29.60081], [-97.52053, 29.60075], [-97.52059, 29.60068], [-97.52072, 29.60058], [-97.52086, 29.60049], [-97.52121, 29.60032], [-97.52135, 29.60024], [-97.52149, 29.60014], [-97.52155, 29.60008], [-97.52166, 29.59996], [-97.52195, 29.59954], [-97.52224, 29.59912], [-97.52247, 29.59877], [-97.52259, 29.59856], [-97.52259, 29.59856], [-97.52285, 29.59811], [-97.52312, 29.59765], [-97.52322, 29.59746], [-97.52325, 29.59737], [-97.52328, 29.59728], [-97.52329, 29.59719], [-97.52329, 29.5971], [-97.52317, 29.59642], [-97.52306, 29.59574], [-97.52301, 29.59516], [-97.52297, 29.59493], [-97.52294, 29.59481], [-97.52284, 29.59456], [-97.5227, 29.59433], [-97.52244, 29.59391], [-97.52236, 29.59373], [-97.5223, 29.59354], [-97.52222, 29.59279], [-97.52218, 29.59253], [-97.52212, 29.59227], [-97.52204, 29.592], [-97.52185, 29.59145], [-97.52154, 29.59064], [-97.52146, 29.59037], [-97.52145, 29.59029], [-97.52146, 29.59021], [-97.52148, 29.59014], [-97.52152, 29.59007], [-97.52205, 29.58938], [-97.52148, 29.58896], [-97.52092, 29.58854], [-97.52035, 29.58812], [-97.51988, 29.58777], [-97.51948, 29.58748], [-97.51908, 29.58719], [-97.51866, 29.58687], [-97.51824, 29.58655], [-97.51811, 29.58648], [-97.51802, 29.58645], [-97.51794, 29.58644], [-97.51785, 29.58644], [-97.51756, 29.58648], [-97.5174, 29.58651], [-97.51723, 29.58658], [-97.51714, 29.58663], [-97.51706, 29.58669], [-97.5169, 29.58684], [-97.51637, 29.58742], [-97.51603, 29.58777], [-97.5157, 29.58812], [-97.51514, 29.58871], [-97.51458, 29.58929], [-97.51401, 29.58988], [-97.51352, 29.5904], [-97.51303, 29.59093], [-97.51254, 29.59145], [-97.51189, 29.59212], [-97.51125, 29.59279], [-97.5106, 29.59346], [-97.51015, 29.59394], [-97.50969, 29.59442], [-97.50924, 29.5949], [-97.50876, 29.59539], [-97.50828, 29.59589], [-97.5078, 29.59639], [-97.50733, 29.59688], [-97.50687, 29.59738], [-97.50633, 29.59796], [-97.5058, 29.59854], [-97.50518, 29.59917], [-97.505, 29.59933], [-97.5051, 29.59956], [-97.50526, 29.59985], [-97.5055, 29.60031], [-97.50575, 29.60076], [-97.50615, 29.60153], [-97.50643, 29.60203], [-97.50643, 29.60203], [-97.50668, 29.60249], [-97.50693, 29.60295], [-97.50703, 29.60317], [-97.50726, 29.60395], [-97.50752, 29.60475], [-97.50756, 29.60491], [-97.50756, 29.60498], [-97.50754, 29.60505], [-97.50751, 29.60511], [-97.50747, 29.60516], [-97.50741, 29.60521], [-97.50734, 29.60526], [-97.50681, 29.60556], [-97.50629, 29.60585], [-97.50573, 29.60615], [-97.50518, 29.60646], [-97.50493, 29.60661], [-97.50486, 29.60666], [-97.50474, 29.60679], [-97.50454, 29.60708], [-97.50442, 29.60722], [-97.50435, 29.60728], [-97.50397, 29.60749], [-97.50385, 29.60755], [-97.50357, 29.60767], [-97.5034, 29.60772], [-97.50251, 29.608], [-97.50233, 29.60806], [-97.50214, 29.60815], [-97.50158, 29.60843], [-97.50132, 29.60854], [-97.501, 29.60863], [-97.50059, 29.60871], [-97.5003, 29.60876], [-97.50006, 29.60882], [-97.49963, 29.60895], [-97.49887, 29.60918], [-97.49825, 29.60939], [-97.4976, 29.60959], [-97.49733, 29.60969], [-97.49662, 29.60993], [-97.49591, 29.61017], [-97.4952, 29.61041], [-97.49434, 29.61071], [-97.49347, 29.61101], [-97.49273, 29.61129], [-97.49197, 29.61157], [-97.49129, 29.61181], [-97.49042, 29.61211], [-97.48954, 29.6124], [-97.4889, 29.61263], [-97.48866, 29.6127], [-97.48842, 29.61274], [-97.48819, 29.61274], [-97.48803, 29.61273], [-97.48785, 29.61269], [-97.48774, 29.61266], [-97.48761, 29.6126], [-97.4874, 29.61247], [-97.48711, 29.61227], [-97.48645, 29.6118], [-97.4858, 29.61133], [-97.48517, 29.61088], [-97.48453, 29.61042], [-97.4839, 29.60997], [-97.48335, 29.60957], [-97.48279, 29.60916], [-97.48265, 29.60908], [-97.48258, 29.60906], [-97.48251, 29.60905], [-97.48244, 29.60905], [-97.48238, 29.60906], [-97.48231, 29.6091], [-97.48225, 29.60915], [-97.48167, 29.60977], [-97.48109, 29.6104], [-97.48051, 29.61103], [-97.47992, 29.61166], [-97.47934, 29.61229], [-97.47876, 29.61291], [-97.47839, 29.6133], [-97.47803, 29.61369], [-97.47797, 29.61375]]}, "properties": {"surface": "unknown", "label": "Unverified", "color": "#9A9389", "miles": 8.81, "start_mi": 1.76, "end_mi": 10.57, "road": "County Road 232", "elev_ft": [388, 388, 386, 386, 386, 385, 383, 379, 376, 378, 379, 376, 372, 376, 384, 395, 405, 408, 402, 398, 393, 388, 384, 380, 379, 379, 379, 379, 379, 379, 379, 379, 379, 383, 385, 387, 389, 387, 387, 387, 387, 387, 388, 388, 391, 391, 391, 396, 396, 395, 391, 396, 402, 404, 404, 404, 404, 404, 399, 396, 396, 396, 398, 399, 407, 413, 413, 412, 411, 408, 405, 402, 397, 393, 389, 394, 398, 401, 399, 398, 398, 397, 397, 397, 393, 389, 386, 385, 384, 384, 383, 383, 383, 383, 383, 382, 375, 370, 366, 369, 373, 374, 373, 372, 372, 372, 371, 369, 369, 368, 368, 367, 367, 366, 366, 366, 366, 366, 366, 368, 368, 368, 367, 367, 367, 366, 365, 364, 364, 363, 360, 355, 353, 350, 346, 342, 340, 337, 337, 337, 337, 337, 338, 338, 339, 341, 341, 342, 342, 344, 349, 356, 361, 363, 363, 362, 360, 363, 364, 365, 366, 367, 370, 372, 374, 374, 374, 373, 373, 375, 375, 374, 365, 361, 359, 358, 355, 355, 357, 358, 359, 360, 361, 361, 357, 350, 343, 330, 320, 315, 313, 312, 311, 311, 312, 312, 319, 321, 321, 322, 322, 322, 330, 341, 342, 342, 335, 323, 324, 338, 357, 362, 366, 369, 369, 369, 369, 369, 369, 369, 368, 369, 367, 369, 381, 380, 378, 371, 368, 365, 359, 357, 357, 363, 362, 361, 356, 352, 351, 350, 350, 349, 349, 348, 348, 347, 347, 349, 351, 351, 351, 351, 353, 354, 354, 354, 355, 355, 356, 359, 360, 360, 360, 362, 363, 366, 368, 369, 370, 375, 379, 385, 387, 391, 391, 390, 392, 395, 399, 406, 414, 426, 432, 426, 422, 420, 418, 418, 418, 419, 420, 423, 426, 428, 429, 426, 423, 420, 418, 417, 418, 418, 419, 419, 420, 420, 420, 427, 431, 433, 437, 441, 443, 443, 444, 444]}}, {"type": "Feature", "geometry": {"type": "LineString", "coordinates": [[-97.47785, 29.61361], [-97.4777, 29.6134], [-97.47757, 29.61317], [-97.4773, 29.6126], [-97.47702, 29.61203], [-97.47675, 29.61146], [-97.47675, 29.61146], [-97.47651, 29.61097], [-97.47628, 29.61048], [-97.47601, 29.60966], [-97.47593, 29.60939], [-97.47583, 29.60898]]}, "properties": {"surface": "pavement", "label": "Pavement", "color": "#4A5568", "miles": 0.34, "start_mi": 10.57, "end_mi": 10.91, "road": "FM 794", "elev_ft": [442, 441, 440, 436, 433, 430, 430, 435, 441, 442, 441, 440]}}, {"type": "Feature", "geometry": {"type": "LineString", "coordinates": [[-97.47574, 29.60898], [-97.47568, 29.60897], [-97.47563, 29.60895], [-97.47552, 29.60889], [-97.47472, 29.60832], [-97.47393, 29.60775], [-97.47347, 29.60742], [-97.47335, 29.6073], [-97.47329, 29.60731], [-97.47322, 29.6073], [-97.47314, 29.60731], [-97.47307, 29.60734], [-97.473, 29.60738], [-97.47287, 29.6075], [-97.47236, 29.60807], [-97.47185, 29.60863], [-97.47134, 29.6092], [-97.47083, 29.60977], [-97.47031, 29.61034], [-97.46982, 29.61087], [-97.46933, 29.6114], [-97.46881, 29.61196], [-97.4683, 29.61251], [-97.46805, 29.61276], [-97.4677, 29.61317], [-97.46724, 29.61366], [-97.46688, 29.61406], [-97.46652, 29.61446], [-97.46617, 29.61483], [-97.46583, 29.61521], [-97.4655, 29.61558], [-97.46518, 29.61594], [-97.46481, 29.61634], [-97.46444, 29.61673], [-97.464, 29.61724], [-97.46353, 29.6177], [-97.46292, 29.61834], [-97.46232, 29.61898], [-97.46172, 29.61962], [-97.46114, 29.62024], [-97.46057, 29.62087], [-97.46, 29.62149], [-97.4599, 29.62156], [-97.45984, 29.62158], [-97.45978, 29.62158], [-97.4597, 29.62157], [-97.45963, 29.62154], [-97.45956, 29.6215], [-97.45886, 29.62101], [-97.45815, 29.62051], [-97.45761, 29.62014], [-97.45706, 29.61976], [-97.45651, 29.61939], [-97.45639, 29.61932], [-97.45623, 29.61926], [-97.45613, 29.61924], [-97.45604, 29.61922], [-97.45584, 29.61922], [-97.45506, 29.61923], [-97.45415, 29.61923], [-97.45323, 29.61923], [-97.45232, 29.61923], [-97.4518, 29.61923], [-97.45129, 29.61924], [-97.4505, 29.61924], [-97.44971, 29.61924], [-97.44892, 29.61924], [-97.44813, 29.61923], [-97.44813, 29.61923], [-97.4474, 29.61924], [-97.44659, 29.61923], [-97.44577, 29.61923], [-97.44494, 29.61922], [-97.44412, 29.61922], [-97.44319, 29.61923], [-97.44226, 29.61924], [-97.44144, 29.61924], [-97.44061, 29.61924], [-97.43979, 29.61925], [-97.43898, 29.61924], [-97.43816, 29.61924], [-97.43735, 29.61923], [-97.43636, 29.61923], [-97.43608, 29.61923], [-97.43593, 29.61924], [-97.43597, 29.61917], [-97.43601, 29.61905], [-97.43603, 29.61883], [-97.43604, 29.61842], [-97.43604, 29.61783], [-97.43604, 29.61725], [-97.43602, 29.61664], [-97.43601, 29.61604], [-97.43601, 29.61522], [-97.43601, 29.61441], [-97.43602, 29.6136], [-97.43602, 29.61279], [-97.43602, 29.61197], [-97.43602, 29.61129], [-97.43601, 29.6106], [-97.43601, 29.60991], [-97.43601, 29.6091], [-97.43601, 29.60829], [-97.43601, 29.60748], [-97.43602, 29.60666], [-97.43602, 29.60585], [-97.43601, 29.6053], [-97.43601, 29.60475], [-97.43601, 29.60467], [-97.43603, 29.6046], [-97.43607, 29.60454], [-97.43612, 29.60449], [-97.43618, 29.60446], [-97.43626, 29.60444], [-97.43642, 29.60442], [-97.43696, 29.60442], [-97.4375, 29.60442], [-97.43759, 29.60442], [-97.4381, 29.60442], [-97.4384, 29.60442], [-97.43849, 29.60441], [-97.43858, 29.60439], [-97.43865, 29.60437], [-97.43871, 29.60433], [-97.43876, 29.60428], [-97.43878, 29.60422], [-97.43879, 29.60415], [-97.43879, 29.60347], [-97.4388, 29.60278], [-97.43881, 29.60216], [-97.43882, 29.60154], [-97.43883, 29.60092], [-97.43883, 29.60045], [-97.43883, 29.59999], [-97.43883, 29.59936], [-97.43882, 29.59873], [-97.43881, 29.59806], [-97.4388, 29.59731], [-97.43879, 29.59657], [-97.43877, 29.59597], [-97.43875, 29.59579], [-97.43871, 29.59563], [-97.43861, 29.59538], [-97.43856, 29.5953], [-97.4384, 29.59508], [-97.4382, 29.59489], [-97.43785, 29.59459], [-97.43778, 29.59453], [-97.43772, 29.59446], [-97.43762, 29.59431], [-97.43754, 29.59416], [-97.43734, 29.59371], [-97.43714, 29.59326], [-97.43691, 29.59275], [-97.43668, 29.59225], [-97.43665, 29.59215], [-97.43633, 29.59145], [-97.43601, 29.59076], [-97.43597, 29.59063], [-97.43564, 29.58991], [-97.43532, 29.58919], [-97.43499, 29.58847], [-97.43469, 29.58777], [-97.43465, 29.58766], [-97.43429, 29.58683], [-97.43429, 29.58683], [-97.43397, 29.5861], [-97.43365, 29.58538], [-97.4333, 29.58457], [-97.43296, 29.58376], [-97.43288, 29.58358], [-97.43269, 29.58323], [-97.43254, 29.58338], [-97.43245, 29.58348], [-97.43234, 29.58359], [-97.43171, 29.58408], [-97.43107, 29.58457], [-97.43043, 29.58506], [-97.42979, 29.58556], [-97.42925, 29.58597], [-97.42871, 29.58638], [-97.42797, 29.58693], [-97.42722, 29.58749], [-97.42667, 29.58792], [-97.42594, 29.58846], [-97.42522, 29.589], [-97.42486, 29.58929], [-97.42436, 29.58974], [-97.42386, 29.59018], [-97.42336, 29.59062], [-97.42292, 29.59103], [-97.42248, 29.59144], [-97.42199, 29.59188], [-97.42149, 29.59232], [-97.42136, 29.59242], [-97.42101, 29.59274], [-97.42094, 29.59281], [-97.42046, 29.59324], [-97.41999, 29.59367], [-97.41949, 29.59413], [-97.41899, 29.59459], [-97.41835, 29.59518], [-97.41772, 29.59577], [-97.41721, 29.59625], [-97.41671, 29.59673], [-97.4162, 29.59721], [-97.41601, 29.59737], [-97.41591, 29.59743], [-97.41576, 29.59749], [-97.41571, 29.59833], [-97.41566, 29.59917], [-97.41561, 29.60001], [-97.41556, 29.60085]]}, "properties": {"surface": "unknown", "label": "Unverified", "color": "#9A9389", "miles": 7.33, "start_mi": 10.91, "end_mi": 18.24, "road": "County Road 239", "elev_ft": [440, 440, 440, 440, 446, 447, 445, 445, 445, 444, 444, 444, 444, 444, 444, 439, 435, 432, 433, 430, 428, 432, 432, 431, 428, 429, 433, 438, 439, 438, 436, 429, 431, 437, 441, 446, 448, 452, 456, 455, 449, 445, 444, 444, 443, 442, 442, 441, 433, 430, 431, 432, 428, 427, 427, 428, 428, 429, 432, 430, 427, 422, 419, 416, 428, 427, 420, 419, 419, 428, 435, 438, 433, 430, 439, 450, 452, 443, 436, 430, 428, 424, 420, 419, 419, 419, 419, 420, 420, 421, 421, 421, 420, 419, 419, 418, 418, 418, 418, 417, 417, 416, 414, 412, 410, 410, 413, 417, 417, 418, 418, 419, 420, 420, 421, 421, 421, 421, 421, 421, 421, 421, 421, 421, 421, 421, 421, 424, 427, 430, 432, 430, 429, 428, 427, 427, 425, 423, 423, 422, 421, 421, 420, 420, 419, 419, 418, 418, 418, 417, 417, 415, 413, 412, 413, 414, 417, 418, 418, 418, 414, 411, 420, 421, 429, 429, 433, 430, 424, 415, 412, 408, 409, 411, 413, 420, 420, 423, 424, 423, 422, 421, 421, 419, 415, 412, 407, 398, 389, 381, 376, 372, 370, 370, 370, 370, 370, 375, 379, 384, 389, 391, 384, 379, 375, 371, 370, 370, 370, 370, 371, 379, 383]}}, {"type": "Feature", "geometry": {"type": "LineString", "coordinates": [[-97.4155, 29.6017], [-97.41528, 29.60175], [-97.4151, 29.60201], [-97.41467, 29.60268], [-97.41454, 29.60291], [-97.41412, 29.60357], [-97.4137, 29.60423], [-97.41328, 29.60489], [-97.41286, 29.60554], [-97.41244, 29.6062], [-97.41202, 29.60686], [-97.4116, 29.60752], [-97.41117, 29.60817], [-97.41075, 29.60883], [-97.41058, 29.60905], [-97.41052, 29.60912], [-97.41039, 29.60923], [-97.41011, 29.60941], [-97.40992, 29.6095], [-97.40985, 29.60952], [-97.40975, 29.60954], [-97.40927, 29.60954], [-97.40914, 29.60956], [-97.40902, 29.60961], [-97.40893, 29.60969], [-97.40885, 29.60985], [-97.40864, 29.61032], [-97.40843, 29.61079], [-97.40808, 29.61155], [-97.40773, 29.61232], [-97.40738, 29.61309], [-97.40703, 29.61385], [-97.40667, 29.61462], [-97.40632, 29.61539], [-97.40612, 29.61584], [-97.40592, 29.61629], [-97.40592, 29.61629], [-97.40554, 29.61712], [-97.40517, 29.61796]]}, "properties": {"surface": "two_track", "label": "Ranch two-track", "color": "#6B5A45", "miles": 1.32, "start_mi": 18.24, "end_mi": 19.56, "road": "County Road 240", "elev_ft": [388, 389, 390, 397, 398, 405, 411, 413, 408, 403, 398, 394, 388, 382, 381, 381, 380, 380, 380, 380, 380, 380, 379, 377, 375, 372, 365, 365, 372, 384, 395, 402, 404, 406, 408, 409, 409, 412, 414]}}, {"type": "Feature", "geometry": {"type": "LineString", "coordinates": [[-97.40423, 29.61798], [-97.40341, 29.61799], [-97.40259, 29.618], [-97.40177, 29.61802], [-97.40095, 29.61803], [-97.40033, 29.61806], [-97.40009, 29.61806], [-97.4001, 29.61764], [-97.40014, 29.61716], [-97.40019, 29.61668], [-97.40019, 29.61627], [-97.40018, 29.61587], [-97.40015, 29.61548], [-97.40011, 29.61513], [-97.40007, 29.61496], [-97.40005, 29.61491], [-97.39997, 29.61481], [-97.3998, 29.61467], [-97.3997, 29.61459], [-97.39962, 29.61455], [-97.39949, 29.61452], [-97.39937, 29.6145], [-97.39922, 29.6145], [-97.39884, 29.61451], [-97.39866, 29.61451], [-97.39859, 29.6145], [-97.39853, 29.61448], [-97.39848, 29.61446], [-97.39844, 29.61442], [-97.39842, 29.61437], [-97.3984, 29.61431], [-97.3984, 29.61362], [-97.3984, 29.61293], [-97.39839, 29.6123], [-97.39838, 29.61168], [-97.39838, 29.61098], [-97.39837, 29.61028], [-97.39837, 29.60957], [-97.39837, 29.60887], [-97.39837, 29.60813], [-97.39838, 29.6074], [-97.39839, 29.6069], [-97.3984, 29.6064], [-97.39839, 29.60625], [-97.39836, 29.6062], [-97.39832, 29.60615], [-97.39827, 29.60612], [-97.39821, 29.6061], [-97.39813, 29.6061], [-97.39741, 29.60609], [-97.39668, 29.60609], [-97.39573, 29.6061], [-97.39479, 29.6061], [-97.39384, 29.60611], [-97.39366, 29.60609], [-97.39358, 29.60608], [-97.39351, 29.60605], [-97.39345, 29.60601], [-97.39341, 29.60596], [-97.39338, 29.60591], [-97.39337, 29.60584], [-97.39337, 29.60576], [-97.39339, 29.60501], [-97.3934, 29.60426], [-97.39339, 29.60384], [-97.39338, 29.60371], [-97.39334, 29.60343], [-97.39326, 29.60302], [-97.3932, 29.60277], [-97.39312, 29.60255], [-97.39299, 29.60224], [-97.39275, 29.60177], [-97.39265, 29.60152], [-97.39239, 29.60095], [-97.39212, 29.60037], [-97.39186, 29.5998], [-97.39147, 29.59898], [-97.39107, 29.59815], [-97.39068, 29.59732], [-97.39043, 29.59678], [-97.39013, 29.59611], [-97.38986, 29.59547], [-97.38959, 29.59483], [-97.38933, 29.5942], [-97.38904, 29.59356], [-97.38875, 29.59292], [-97.38846, 29.59228], [-97.38818, 29.59164], [-97.38805, 29.59133], [-97.38803, 29.59125], [-97.38801, 29.59116], [-97.38801, 29.59108], [-97.38803, 29.591], [-97.38807, 29.59093], [-97.38816, 29.59079], [-97.38841, 29.59045], [-97.38856, 29.59023], [-97.3886, 29.59015], [-97.38863, 29.59007], [-97.38863, 29.58998], [-97.38863, 29.5899], [-97.38859, 29.58971], [-97.38835, 29.58889], [-97.38825, 29.5885], [-97.38821, 29.58842], [-97.38815, 29.58835], [-97.38809, 29.58829], [-97.38801, 29.58823], [-97.3878, 29.58814], [-97.38691, 29.58776], [-97.38668, 29.58765], [-97.38658, 29.58759], [-97.38649, 29.58752], [-97.3864, 29.58744], [-97.38626, 29.58726], [-97.3862, 29.58716], [-97.38615, 29.58706], [-97.38593, 29.58654], [-97.38571, 29.58603], [-97.38544, 29.58543], [-97.38518, 29.58483], [-97.38491, 29.58424], [-97.38482, 29.58406], [-97.38474, 29.58397], [-97.38468, 29.58393], [-97.38461, 29.58389], [-97.38453, 29.58386], [-97.38445, 29.58385], [-97.38407, 29.58385], [-97.38357, 29.58386], [-97.38318, 29.58385], [-97.38309, 29.58384], [-97.38302, 29.58382], [-97.38296, 29.58378], [-97.3829, 29.58374], [-97.38282, 29.58361], [-97.38259, 29.5831], [-97.38231, 29.58245], [-97.38211, 29.582], [-97.3819, 29.58155], [-97.38175, 29.58118], [-97.38169, 29.58106], [-97.38136, 29.58032], [-97.38121, 29.57996], [-97.38121, 29.57996], [-97.38106, 29.57961], [-97.38103, 29.57953], [-97.38098, 29.57945], [-97.38092, 29.57939], [-97.38085, 29.57934], [-97.38078, 29.57931], [-97.38069, 29.57929], [-97.3806, 29.57928], [-97.38, 29.57927], [-97.37905, 29.57927], [-97.37819, 29.57927], [-97.37734, 29.57927], [-97.37648, 29.57926], [-97.37563, 29.57926], [-97.37478, 29.57926], [-97.37451, 29.57925], [-97.37436, 29.57923], [-97.37428, 29.57921], [-97.37421, 29.57918], [-97.37406, 29.5791], [-97.37384, 29.57894], [-97.37347, 29.5786], [-97.37322, 29.57836], [-97.37315, 29.57827], [-97.3731, 29.57816], [-97.37296, 29.57772], [-97.37289, 29.57746], [-97.37283, 29.57733], [-97.37283, 29.57729], [-97.37281, 29.57722], [-97.37277, 29.57715], [-97.37261, 29.57668], [-97.37254, 29.57652], [-97.3725, 29.57645], [-97.37239, 29.57609], [-97.37238, 29.57605], [-97.37225, 29.5757]]}, "properties": {"surface": "unknown", "label": "Unverified", "color": "#9A9389", "miles": 4.24, "start_mi": 19.56, "end_mi": 23.81, "road": "County Road 433", "elev_ft": [411, 404, 396, 389, 383, 377, 375, 376, 376, 375, 374, 373, 371, 371, 370, 370, 368, 367, 369, 370, 371, 372, 373, 376, 377, 377, 378, 378, 378, 378, 379, 384, 386, 386, 390, 393, 392, 389, 386, 382, 378, 376, 373, 373, 372, 372, 372, 372, 372, 370, 367, 361, 365, 375, 376, 377, 378, 379, 379, 380, 380, 380, 385, 386, 386, 386, 386, 385, 385, 385, 384, 381, 379, 377, 375, 374, 375, 374, 372, 373, 377, 382, 379, 376, 374, 372, 369, 365, 368, 369, 370, 370, 371, 371, 371, 370, 369, 369, 368, 368, 368, 368, 368, 367, 367, 367, 367, 367, 367, 365, 365, 365, 365, 366, 368, 368, 369, 371, 371, 365, 361, 356, 354, 353, 353, 353, 353, 353, 352, 350, 345, 345, 344, 344, 344, 345, 347, 344, 353, 359, 361, 361, 362, 360, 360, 358, 357, 357, 356, 356, 355, 355, 355, 352, 348, 344, 339, 329, 319, 315, 313, 312, 312, 311, 309, 307, 304, 305, 305, 305, 303, 301, 301, 300, 300, 300, 301, 302, 302, 302, 302, 304]}}, {"type": "Feature", "geometry": {"type": "LineString", "coordinates": [[-97.37191, 29.57612], [-97.37157, 29.57654], [-97.37116, 29.577], [-97.37076, 29.57747], [-97.37036, 29.57798], [-97.36996, 29.5785], [-97.36958, 29.57901], [-97.36921, 29.57952], [-97.36884, 29.58004], [-97.3683, 29.58078], [-97.36775, 29.58152], [-97.36723, 29.58225]]}, "properties": {"surface": "pavement", "label": "Pavement", "color": "#4A5568", "miles": 0.51, "start_mi": 23.81, "end_mi": 24.32, "road": "TX 97", "elev_ft": [301, 301, 306, 310, 315, 320, 327, 331, 336, 343, 348, 352]}}, {"type": "Feature", "geometry": {"type": "LineString", "coordinates": [[-97.36671, 29.58298], [-97.36681, 29.58321], [-97.36687, 29.5834], [-97.3669, 29.58359], [-97.3669, 29.5838], [-97.36691, 29.58468], [-97.36691, 29.58557], [-97.36692, 29.58645], [-97.36693, 29.58734], [-97.36693, 29.58822], [-97.36696, 29.58822], [-97.36696, 29.58837], [-97.36696, 29.58847], [-97.36696, 29.58848], [-97.36696, 29.58855], [-97.36696, 29.58891], [-97.36695, 29.58901], [-97.36695, 29.58981], [-97.36695, 29.58991], [-97.36695, 29.59003], [-97.36696, 29.59022], [-97.367, 29.59039], [-97.36704, 29.59053], [-97.36716, 29.59085], [-97.36718, 29.59091], [-97.36732, 29.59125], [-97.3676, 29.59193], [-97.3678, 29.59243], [-97.36787, 29.5926], [-97.36817, 29.59334], [-97.36849, 29.59411], [-97.3688, 29.59486], [-97.36887, 29.59503], [-97.36901, 29.59537], [-97.36903, 29.59543], [-97.36914, 29.59575], [-97.36916, 29.59581], [-97.36916, 29.59585], [-97.36917, 29.59629], [-97.36917, 29.59647], [-97.36917, 29.59715], [-97.36917, 29.59719], [-97.36918, 29.59737], [-97.36918, 29.59755], [-97.36918, 29.59773], [-97.36918, 29.59823], [-97.36918, 29.59827], [-97.36919, 29.59845], [-97.36919, 29.59877], [-97.36919, 29.5988], [-97.36919, 29.59898], [-97.36919, 29.59916], [-97.3692, 29.60024], [-97.3692, 29.60042], [-97.36921, 29.60078], [-97.36921, 29.60078], [-97.36809, 29.60079], [-97.36685, 29.6008], [-97.36664, 29.60081], [-97.36634, 29.60081], [-97.36625, 29.60095], [-97.36628, 29.60179], [-97.36629, 29.60197], [-97.36629, 29.60204], [-97.36633, 29.60412], [-97.36633, 29.6043], [-97.36637, 29.60598], [-97.36638, 29.60677], [-97.36598, 29.60684], [-97.36591, 29.60684], [-97.36467, 29.60682], [-97.36464, 29.60682], [-97.36425, 29.60762], [-97.36368, 29.60878], [-97.36344, 29.60928], [-97.36343, 29.6093], [-97.36288, 29.61063], [-97.36259, 29.61131], [-97.36224, 29.61215], [-97.36203, 29.61266], [-97.36182, 29.61317], [-97.36182, 29.61317], [-97.36177, 29.61321], [-97.3617, 29.61324], [-97.36155, 29.61327], [-97.3615, 29.61327], [-97.36129, 29.61327], [-97.36005, 29.61329], [-97.35977, 29.61329], [-97.35881, 29.61332], [-97.3586, 29.61333], [-97.35819, 29.61334], [-97.3578, 29.61336], [-97.3575, 29.61337], [-97.35728, 29.61342], [-97.35706, 29.61351], [-97.35681, 29.61364], [-97.35664, 29.61374], [-97.35559, 29.61432], [-97.35524, 29.61451], [-97.35472, 29.6148], [-97.35455, 29.61489], [-97.35441, 29.61495], [-97.35434, 29.61498], [-97.35412, 29.61502], [-97.35408, 29.61503], [-97.35312, 29.61508], [-97.35271, 29.61511], [-97.35268, 29.61511], [-97.35251, 29.61512], [-97.35147, 29.61516], [-97.35128, 29.61517], [-97.35085, 29.61518], [-97.35002, 29.61521], [-97.34982, 29.61521], [-97.34933, 29.61523], [-97.34858, 29.61524], [-97.34837, 29.61524], [-97.34813, 29.61525], [-97.34754, 29.61526], [-97.3463, 29.6153], [-97.34589, 29.61531], [-97.34548, 29.61533], [-97.34462, 29.61536], [-97.34362, 29.61537], [-97.34341, 29.61537], [-97.34176, 29.61539], [-97.3412, 29.6154], [-97.34111, 29.61542], [-97.34102, 29.61547], [-97.34096, 29.61551], [-97.34093, 29.61557], [-97.34094, 29.61622], [-97.34095, 29.61732], [-97.34095, 29.61732], [-97.34096, 29.61816], [-97.34098, 29.61924], [-97.34098, 29.6196], [-97.34099, 29.61996], [-97.341, 29.62058], [-97.341, 29.62086], [-97.341, 29.62122], [-97.341, 29.6214], [-97.341, 29.62158], [-97.341, 29.6223], [-97.34101, 29.62284], [-97.34101, 29.62302], [-97.34101, 29.62392], [-97.34101, 29.62427], [-97.34102, 29.62517], [-97.34102, 29.62571], [-97.34103, 29.6266], [-97.34103, 29.62679], [-97.34104, 29.62769], [-97.34106, 29.62877], [-97.34107, 29.62931], [-97.34108, 29.63021], [-97.34109, 29.63078], [-97.34111, 29.63146], [-97.34113, 29.63244], [-97.34113, 29.63254], [-97.34114, 29.63272], [-97.34114, 29.63344], [-97.34115, 29.63394], [-97.34116, 29.63416], [-97.34116, 29.63417], [-97.34116, 29.63434], [-97.34115, 29.63506], [-97.34114, 29.63524], [-97.34114, 29.63535], [-97.34114, 29.63542], [-97.34117, 29.63631], [-97.34118, 29.63667], [-97.34121, 29.63739], [-97.34122, 29.63773], [-97.34122, 29.63775], [-97.34135, 29.6384], [-97.34137, 29.63846], [-97.34141, 29.63861], [-97.34136, 29.63881], [-97.34127, 29.63916], [-97.34121, 29.63947], [-97.34121, 29.64006], [-97.34123, 29.64132], [-97.34123, 29.64146], [-97.34127, 29.6422], [-97.34127, 29.64331], [-97.34127, 29.64364], [-97.34127, 29.64408], [-97.34127, 29.64444], [-97.34127, 29.6445], [-97.34126, 29.64552], [-97.34126, 29.6456], [-97.34125, 29.64631], [-97.34125, 29.64642], [-97.34125, 29.6466], [-97.34125, 29.64667], [-97.34124, 29.64677], [-97.34124, 29.64695], [-97.34124, 29.64713], [-97.34124, 29.64732], [-97.34123, 29.64749], [-97.34122, 29.64767], [-97.34121, 29.64774], [-97.34118, 29.64839], [-97.34116, 29.64857], [-97.34115, 29.64877], [-97.34114, 29.64911], [-97.34111, 29.65002], [-97.3411, 29.65009], [-97.3411, 29.65015], [-97.34109, 29.65019], [-97.34108, 29.65025], [-97.34102, 29.65032], [-97.341, 29.65034], [-97.34096, 29.65037], [-97.34083, 29.65045], [-97.34067, 29.65057], [-97.34064, 29.65059], [-97.34063, 29.65059], [-97.34046, 29.65071], [-97.33985, 29.65111], [-97.33982, 29.65113], [-97.33981, 29.65114], [-97.33952, 29.65133], [-97.339, 29.65167], [-97.33899, 29.65167], [-97.33886, 29.65176], [-97.33867, 29.65189], [-97.33866, 29.65189], [-97.33853, 29.65198], [-97.33834, 29.6521], [-97.33833, 29.6521], [-97.3377, 29.65252], [-97.33768, 29.65253], [-97.33753, 29.65263], [-97.3372, 29.65284], [-97.33719, 29.65285], [-97.33718, 29.65286], [-97.33704, 29.65295], [-97.33684, 29.65308], [-97.33684, 29.65308], [-97.33671, 29.65317], [-97.33657, 29.65326], [-97.33654, 29.65328], [-97.33625, 29.65348], [-97.3362, 29.65352], [-97.33618, 29.65356], [-97.33614, 29.65364], [-97.33611, 29.6538], [-97.33609, 29.65403], [-97.33601, 29.65501], [-97.336, 29.65509], [-97.336, 29.6551], [-97.336, 29.65523], [-97.336, 29.65528], [-97.33601, 29.65534], [-97.33604, 29.65545], [-97.33619, 29.65597], [-97.33622, 29.65605], [-97.33625, 29.65619], [-97.33625, 29.65628], [-97.33625, 29.65635], [-97.33624, 29.65643], [-97.33616, 29.65665], [-97.33615, 29.65666], [-97.33615, 29.65667], [-97.3361, 29.65685], [-97.33605, 29.65701], [-97.33605, 29.65702], [-97.33601, 29.65715], [-97.336, 29.6572], [-97.33589, 29.65755], [-97.33574, 29.65804], [-97.33574, 29.65805], [-97.33568, 29.65824], [-97.33559, 29.65853], [-97.33557, 29.65859], [-97.3354, 29.65909], [-97.3353, 29.65942], [-97.33529, 29.65945], [-97.33522, 29.65968], [-97.33517, 29.6598], [-97.33491, 29.66043], [-97.33491, 29.66044], [-97.33482, 29.66065], [-97.33469, 29.66098], [-97.33459, 29.66121], [-97.33457, 29.66127], [-97.33455, 29.66132], [-97.33449, 29.66145], [-97.33407, 29.66244], [-97.33407, 29.66245], [-97.33404, 29.6625], [-97.33397, 29.66267], [-97.33383, 29.66301], [-97.3338, 29.66307], [-97.33377, 29.66318], [-97.33374, 29.66328], [-97.33374, 29.66329], [-97.33374, 29.6633], [-97.33372, 29.66336], [-97.33371, 29.66339], [-97.33371, 29.66354], [-97.3337, 29.66368], [-97.3337, 29.664], [-97.3337, 29.66401], [-97.3337, 29.66408], [-97.3337, 29.66426], [-97.3337, 29.66444], [-97.3337, 29.6648], [-97.3337, 29.66498], [-97.3337, 29.66508], [-97.3337, 29.66525], [-97.3337, 29.66534], [-97.3337, 29.66569], [-97.3337, 29.66578], [-97.3337, 29.66579], [-97.3337, 29.66587], [-97.3337, 29.66596], [-97.3337, 29.66597], [-97.3337, 29.66605], [-97.3337, 29.66623], [-97.3337, 29.66639], [-97.3337, 29.66641], [-97.3337, 29.66645], [-97.3337, 29.66647], [-97.3337, 29.66659], [-97.3337, 29.66668], [-97.3337, 29.66674], [-97.3337, 29.66677], [-97.3337, 29.66678], [-97.3337, 29.6668], [-97.3337, 29.6669], [-97.33369, 29.66694], [-97.33369, 29.66712], [-97.33369, 29.66727], [-97.33369, 29.66735], [-97.33369, 29.66746], [-97.33369, 29.66752], [-97.33369, 29.66764], [-97.33369, 29.6677], [-97.33369, 29.66788], [-97.33369, 29.66806], [-97.33369, 29.66826]]}, "properties": {"surface": "unknown", "label": "Unverified", "color": "#9A9389", "miles": 7.53, "start_mi": 24.32, "end_mi": 31.84, "road": "County Road 422 South", "elev_ft": [351, 353, 355, 356, 357, 358, 359, 362, 363, 363, 362, 362, 362, 362, 362, 364, 365, 370, 371, 372, 372, 370, 369, 366, 366, 365, 362, 362, 363, 365, 369, 374, 375, 374, 373, 369, 369, 369, 367, 367, 363, 363, 361, 360, 359, 356, 356, 358, 361, 361, 362, 364, 372, 374, 377, 377, 377, 374, 374, 373, 374, 378, 378, 378, 383, 383, 380, 380, 381, 382, 385, 384, 387, 392, 393, 393, 394, 395, 396, 398, 400, 400, 400, 401, 401, 400, 398, 384, 381, 378, 378, 377, 378, 378, 378, 377, 378, 377, 374, 373, 372, 372, 372, 372, 372, 372, 361, 359, 358, 358, 352, 351, 348, 348, 347, 345, 341, 340, 339, 339, 347, 350, 351, 348, 339, 337, 331, 329, 329, 329, 329, 329, 331, 338, 338, 345, 353, 354, 355, 356, 356, 350, 349, 348, 339, 332, 331, 324, 326, 327, 324, 314, 311, 307, 303, 301, 303, 303, 303, 302, 302, 302, 301, 300, 300, 300, 300, 301, 302, 302, 302, 302, 302, 302, 302, 302, 297, 296, 294, 295, 297, 299, 302, 307, 307, 310, 317, 319, 323, 324, 324, 329, 330, 336, 337, 337, 337, 337, 338, 338, 338, 338, 337, 337, 336, 337, 337, 337, 333, 333, 333, 333, 333, 334, 334, 335, 337, 339, 340, 340, 344, 353, 354, 354, 354, 350, 350, 348, 348, 348, 350, 356, 357, 375, 375, 378, 383, 383, 383, 383, 383, 383, 382, 382, 382, 380, 380, 380, 380, 379, 377, 374, 374, 374, 373, 373, 373, 372, 377, 378, 379, 380, 381, 381, 383, 383, 383, 384, 385, 385, 385, 385, 387, 388, 388, 388, 388, 388, 390, 390, 390, 390, 390, 391, 391, 391, 391, 391, 391, 391, 390, 384, 384, 384, 383, 381, 380, 381, 381, 381, 381, 382, 382, 385, 386, 388, 388, 388, 390, 391, 391, 391, 390, 390, 390, 388, 388, 388, 389, 388, 388, 388, 390, 392, 392, 392, 392, 394, 394, 395, 395, 395, 396, 397, 397, 398, 399, 400, 401, 401, 401, 402, 403, 403, 404]}}, {"type": "Feature", "geometry": {"type": "LineString", "coordinates": [[-97.33369, 29.66878], [-97.33369, 29.66893], [-97.33369, 29.66896], [-97.33369, 29.6691], [-97.33369, 29.66914], [-97.33369, 29.6695], [-97.33369, 29.66968], [-97.33368, 29.66986], [-97.33368, 29.66998], [-97.33368, 29.67004], [-97.33368, 29.67016], [-97.33368, 29.6704], [-97.33368, 29.67051], [-97.33368, 29.67165], [-97.33368, 29.67174], [-97.33368, 29.67183], [-97.33368, 29.67201], [-97.33367, 29.67231], [-97.33367, 29.67255], [-97.33367, 29.67273], [-97.33367, 29.67297], [-97.33366, 29.67399], [-97.33366, 29.67417], [-97.33366, 29.67419], [-97.33366, 29.67437]]}, "properties": {"surface": "two_track", "label": "Ranch two-track", "color": "#6B5A45", "miles": 0.39, "start_mi": 31.84, "end_mi": 32.23, "road": "County Road 422 South", "elev_ft": [403, 403, 403, 403, 403, 403, 403, 403, 404, 404, 405, 406, 407, 411, 410, 409, 408, 408, 407, 407, 407, 407, 407, 407, 407]}}, {"type": "Feature", "geometry": {"type": "LineString", "coordinates": [[-97.33365, 29.67507], [-97.33365, 29.67507], [-97.33348, 29.67506], [-97.3334, 29.67504], [-97.33325, 29.675], [-97.33306, 29.67494], [-97.33287, 29.67488], [-97.3328, 29.67485], [-97.33268, 29.6748], [-97.3325, 29.67471], [-97.33233, 29.67464], [-97.33231, 29.67463], [-97.33213, 29.67454], [-97.3319, 29.67442], [-97.33158, 29.67429], [-97.33145, 29.67424], [-97.33139, 29.67422], [-97.33119, 29.67417], [-97.3311, 29.67414], [-97.33076, 29.67407], [-97.3304, 29.67403], [-97.32997, 29.67404], [-97.32985, 29.67404], [-97.32976, 29.67406], [-97.32956, 29.6741], [-97.32922, 29.67418], [-97.32916, 29.6742], [-97.32879, 29.67435], [-97.3286, 29.67443], [-97.32841, 29.6745], [-97.3284, 29.67451], [-97.32794, 29.67471], [-97.32707, 29.6751], [-97.32698, 29.67514], [-97.32683, 29.67519], [-97.32669, 29.67525], [-97.32645, 29.67533], [-97.32626, 29.67541], [-97.32593, 29.67553], [-97.32588, 29.67555], [-97.3258, 29.67558], [-97.32555, 29.67567], [-97.3255, 29.67569], [-97.32507, 29.67585], [-97.32461, 29.67606], [-97.3246, 29.67606], [-97.32457, 29.67608], [-97.32405, 29.67638], [-97.32402, 29.67639], [-97.324, 29.67641], [-97.32393, 29.67646], [-97.32373, 29.67661], [-97.32357, 29.67673], [-97.32326, 29.67696], [-97.32314, 29.67705], [-97.3231, 29.67708], [-97.32288, 29.67724], [-97.32225, 29.67775], [-97.32218, 29.67783], [-97.32137, 29.6786], [-97.32123, 29.67874], [-97.32109, 29.67887], [-97.32068, 29.67928], [-97.32041, 29.67955], [-97.32028, 29.67969], [-97.32001, 29.67996], [-97.31992, 29.68005], [-97.31987, 29.68009], [-97.31987, 29.6801], [-97.31974, 29.68023], [-97.31971, 29.68027], [-97.31961, 29.68037], [-97.31934, 29.68065], [-97.31926, 29.68073], [-97.31921, 29.68078], [-97.31878, 29.68123], [-97.31863, 29.68139], [-97.31855, 29.68148], [-97.31842, 29.68162], [-97.31815, 29.68194], [-97.31805, 29.68205], [-97.31792, 29.68219], [-97.3178, 29.68233], [-97.31779, 29.68234], [-97.31767, 29.68248], [-97.31759, 29.68258], [-97.31755, 29.68263], [-97.31751, 29.68267], [-97.31743, 29.68277], [-97.31731, 29.68291], [-97.31731, 29.68292], [-97.31718, 29.68306], [-97.31682, 29.68348], [-97.3165, 29.68373], [-97.31638, 29.68383], [-97.31635, 29.68385], [-97.31619, 29.68397], [-97.31588, 29.68421], [-97.31573, 29.68433], [-97.31481, 29.68505], [-97.31415, 29.68555], [-97.31403, 29.68564], [-97.31387, 29.68576], [-97.31365, 29.68593], [-97.31342, 29.68604], [-97.31303, 29.6862], [-97.31237, 29.68642], [-97.31215, 29.6865], [-97.31181, 29.68665], [-97.31173, 29.68668], [-97.31163, 29.68674], [-97.3116, 29.68675], [-97.3116, 29.68675], [-97.31157, 29.68677], [-97.31134, 29.68688], [-97.31109, 29.68704], [-97.31092, 29.6872], [-97.31084, 29.6873], [-97.31074, 29.68742], [-97.31026, 29.6882], [-97.31026, 29.6882], [-97.30985, 29.68882], [-97.30982, 29.68886], [-97.30975, 29.68898], [-97.3095, 29.68936], [-97.30934, 29.68959], [-97.30866, 29.69061], [-97.30847, 29.69089], [-97.30788, 29.6918], [-97.30773, 29.69203], [-97.30759, 29.6922], [-97.30738, 29.69235], [-97.30721, 29.69239], [-97.30675, 29.69241], [-97.30658, 29.69241], [-97.30612, 29.69246], [-97.30576, 29.69261], [-97.30555, 29.69275], [-97.30545, 29.69284], [-97.30532, 29.69295], [-97.30515, 29.69316], [-97.30506, 29.69331], [-97.30496, 29.69356], [-97.30486, 29.6938], [-97.30476, 29.69402], [-97.30469, 29.69411], [-97.30461, 29.69416], [-97.30457, 29.69418], [-97.30457, 29.69418], [-97.30449, 29.69419], [-97.3044, 29.69418], [-97.30429, 29.69415], [-97.30381, 29.694], [-97.3033, 29.69382], [-97.30302, 29.69372], [-97.30205, 29.69339], [-97.30147, 29.6932], [-97.30146, 29.69319], [-97.30146, 29.69319], [-97.30135, 29.69316], [-97.30128, 29.69313], [-97.30074, 29.69295], [-97.30074, 29.69295], [-97.3006, 29.69327], [-97.30059, 29.6933], [-97.3004, 29.69374], [-97.30022, 29.69415], [-97.30007, 29.69449], [-97.3, 29.69463], [-97.29995, 29.69475], [-97.29986, 29.69497], [-97.29981, 29.69508], [-97.2996, 29.69557], [-97.29941, 29.69601], [-97.29923, 29.69647], [-97.29899, 29.69708], [-97.29886, 29.69742], [-97.29868, 29.69785]]}, "properties": {"surface": "unknown", "label": "Unverified", "color": "#9A9389", "miles": 2.98, "start_mi": 32.23, "end_mi": 35.21, "road": "County Road 431", "elev_ft": [402, 402, 405, 406, 408, 409, 408, 408, 407, 406, 404, 404, 402, 400, 398, 397, 397, 395, 395, 391, 387, 382, 381, 380, 378, 373, 374, 380, 383, 385, 385, 390, 399, 400, 400, 400, 400, 399, 394, 393, 392, 388, 387, 378, 373, 372, 372, 364, 364, 364, 364, 367, 371, 375, 377, 377, 381, 391, 393, 405, 406, 407, 409, 409, 410, 409, 409, 409, 409, 408, 408, 407, 406, 406, 406, 406, 406, 405, 404, 402, 400, 399, 400, 400, 400, 400, 400, 400, 400, 402, 402, 403, 408, 410, 410, 410, 412, 410, 409, 407, 407, 406, 406, 404, 401, 398, 391, 389, 387, 386, 387, 387, 387, 387, 389, 390, 392, 392, 393, 397, 397, 398, 398, 397, 393, 392, 382, 381, 371, 369, 368, 367, 365, 364, 364, 361, 357, 360, 361, 361, 362, 362, 363, 364, 364, 365, 365, 365, 365, 365, 365, 366, 367, 367, 368, 368, 369, 369, 369, 369, 369, 369, 369, 370, 370, 372, 374, 375, 376, 376, 377, 378, 380, 387, 391, 392, 393, 394]}}, {"type": "Feature", "geometry": {"type": "LineString", "coordinates": [[-97.29848, 29.69835], [-97.29846, 29.69848], [-97.2984, 29.69885], [-97.29835, 29.69911], [-97.29833, 29.69923], [-97.29829, 29.69939], [-97.29826, 29.69946], [-97.29823, 29.69954], [-97.29815, 29.6997], [-97.29815, 29.69971], [-97.29813, 29.69974], [-97.29802, 29.69993], [-97.29736, 29.70102], [-97.29733, 29.70106], [-97.29731, 29.7011], [-97.29728, 29.70116], [-97.29725, 29.70121], [-97.29721, 29.70131], [-97.29719, 29.70137], [-97.29719, 29.70138], [-97.29717, 29.70143], [-97.29716, 29.70152], [-97.29717, 29.70164], [-97.29721, 29.70177], [-97.29725, 29.70183], [-97.29725, 29.70184], [-97.29729, 29.70189], [-97.29734, 29.70196], [-97.29741, 29.70202], [-97.29748, 29.70207], [-97.29771, 29.7022], [-97.29791, 29.7023], [-97.29813, 29.70241], [-97.29827, 29.70248], [-97.29835, 29.70251], [-97.29881, 29.70275], [-97.29894, 29.70282], [-97.29908, 29.70292], [-97.29917, 29.70301], [-97.29926, 29.7031], [-97.29933, 29.70317], [-97.29942, 29.70331], [-97.29947, 29.70339], [-97.29952, 29.70347], [-97.29955, 29.70355], [-97.29964, 29.7038], [-97.29966, 29.70391], [-97.29967, 29.70391], [-97.2997, 29.70405], [-97.29983, 29.70463], [-97.30001, 29.70547], [-97.30004, 29.70558], [-97.30008, 29.70575], [-97.30027, 29.70662], [-97.30028, 29.70667], [-97.30029, 29.70671], [-97.3003, 29.70675], [-97.30035, 29.70699], [-97.30043, 29.70734], [-97.30047, 29.70752], [-97.30051, 29.7077], [-97.30055, 29.70787], [-97.30059, 29.70805], [-97.30061, 29.70812], [-97.30063, 29.70819], [-97.30064, 29.70823], [-97.30072, 29.70858], [-97.30076, 29.70875], [-97.30078, 29.70889], [-97.30079, 29.70893], [-97.30087, 29.70929], [-97.30089, 29.70936], [-97.30091, 29.70943], [-97.30091, 29.70946], [-97.30095, 29.70964], [-97.30107, 29.71017], [-97.30119, 29.71067], [-97.30127, 29.71104], [-97.30131, 29.71123], [-97.30133, 29.7113], [-97.30135, 29.7114], [-97.30141, 29.71164], [-97.30148, 29.71195], [-97.30154, 29.71215], [-97.30162, 29.71237], [-97.30169, 29.71253], [-97.30173, 29.71261], [-97.30177, 29.71268], [-97.30183, 29.71278], [-97.30186, 29.71282], [-97.30193, 29.71293], [-97.30196, 29.71299], [-97.30205, 29.7131], [-97.30216, 29.71323], [-97.30226, 29.71333], [-97.30243, 29.7135], [-97.30245, 29.71351], [-97.30249, 29.71355], [-97.30255, 29.7136], [-97.30258, 29.71363], [-97.30259, 29.71363], [-97.30278, 29.71378], [-97.30301, 29.71392], [-97.30329, 29.71406], [-97.30343, 29.71414], [-97.30361, 29.71422], [-97.30369, 29.71426], [-97.3038, 29.71431], [-97.30393, 29.71437], [-97.30463, 29.71471], [-97.3047, 29.71474], [-97.30561, 29.71518], [-97.30597, 29.71535], [-97.30605, 29.71539], [-97.30615, 29.71544], [-97.30634, 29.71552], [-97.30636, 29.71554], [-97.30652, 29.71561], [-97.30659, 29.71565], [-97.30743, 29.71604], [-97.30761, 29.71613], [-97.30768, 29.71616], [-97.30815, 29.71639], [-97.30815, 29.71639]]}, "properties": {"surface": "pavement", "label": "Pavement", "color": "#4A5568", "miles": 1.56, "start_mi": 35.21, "end_mi": 36.77, "road": "FM 1296", "elev_ft": [395, 396, 397, 398, 399, 399, 399, 400, 401, 401, 401, 401, 402, 402, 402, 402, 402, 403, 403, 403, 403, 403, 404, 406, 406, 406, 407, 408, 408, 408, 408, 408, 407, 406, 406, 407, 407, 408, 408, 409, 409, 410, 410, 410, 410, 409, 409, 409, 408, 406, 408, 409, 409, 415, 415, 415, 415, 417, 419, 419, 419, 420, 421, 421, 421, 421, 421, 421, 421, 421, 420, 420, 420, 420, 419, 417, 415, 414, 413, 413, 412, 410, 408, 406, 404, 402, 401, 400, 399, 399, 398, 398, 397, 396, 396, 395, 395, 395, 395, 395, 395, 395, 397, 399, 399, 400, 400, 400, 401, 407, 408, 412, 412, 412, 412, 411, 410, 410, 410, 404, 402, 401, 401, 401]}}, {"type": "Feature", "geometry": {"type": "LineString", "coordinates": [[-97.30809, 29.71655], [-97.30801, 29.71673], [-97.30793, 29.7169], [-97.30777, 29.71723], [-97.30761, 29.71756], [-97.30754, 29.71773], [-97.30738, 29.71806], [-97.30735, 29.71813], [-97.30727, 29.71829], [-97.30699, 29.7189], [-97.30667, 29.71956], [-97.30664, 29.71962], [-97.30657, 29.71978], [-97.30656, 29.71979], [-97.30651, 29.71989], [-97.30633, 29.72028], [-97.30605, 29.72089], [-97.30602, 29.72096], [-97.30597, 29.72106], [-97.30594, 29.72112], [-97.30589, 29.72123], [-97.30586, 29.7213], [-97.30573, 29.72156], [-97.30558, 29.72181], [-97.30554, 29.72188], [-97.30524, 29.72235], [-97.3052, 29.72241], [-97.30514, 29.72251], [-97.30497, 29.72278], [-97.30494, 29.72282], [-97.30464, 29.72328], [-97.30449, 29.72351], [-97.30443, 29.72361], [-97.30419, 29.72398], [-97.30403, 29.72424], [-97.30402, 29.72426], [-97.30389, 29.72445], [-97.30361, 29.72489], [-97.30349, 29.72508], [-97.30323, 29.72549], [-97.30314, 29.72564], [-97.30306, 29.72575], [-97.30303, 29.7258], [-97.30302, 29.72581], [-97.30283, 29.72611], [-97.30269, 29.72631], [-97.30265, 29.72638], [-97.30262, 29.72645], [-97.3026, 29.72651], [-97.3026, 29.72657], [-97.3026, 29.72659], [-97.3026, 29.7266], [-97.3026, 29.72661], [-97.3026, 29.72663], [-97.30261, 29.72668], [-97.30264, 29.72673], [-97.30267, 29.72677], [-97.3027, 29.72681], [-97.30273, 29.72684], [-97.30279, 29.72688], [-97.30281, 29.72689], [-97.30283, 29.7269], [-97.30294, 29.72696], [-97.30299, 29.72699], [-97.3036, 29.72727], [-97.30387, 29.7274], [-97.3041, 29.7275], [-97.30446, 29.72767], [-97.30463, 29.72775], [-97.30464, 29.72776], [-97.30488, 29.72787], [-97.305, 29.72792], [-97.30501, 29.72793], [-97.3051, 29.72797], [-97.30516, 29.72801], [-97.3052, 29.72802], [-97.30528, 29.72808], [-97.30536, 29.72813], [-97.30542, 29.72819], [-97.30546, 29.72826], [-97.30549, 29.72832], [-97.30551, 29.72839], [-97.30551, 29.72844], [-97.30552, 29.72846], [-97.30552, 29.72853], [-97.30551, 29.72861], [-97.3055, 29.72863], [-97.30549, 29.72868], [-97.30546, 29.72876], [-97.30542, 29.72884], [-97.30538, 29.72892], [-97.30535, 29.72896], [-97.30535, 29.72897], [-97.30524, 29.72912], [-97.30514, 29.72928], [-97.30504, 29.72944], [-97.30494, 29.72959], [-97.30487, 29.72969], [-97.30483, 29.72975], [-97.30474, 29.7299], [-97.30473, 29.72991], [-97.30454, 29.73022], [-97.3043, 29.73062], [-97.30395, 29.73117], [-97.30355, 29.7318], [-97.30345, 29.73196], [-97.30325, 29.73228], [-97.30321, 29.73234], [-97.30315, 29.73244], [-97.30305, 29.73259], [-97.30295, 29.73275], [-97.30285, 29.73291], [-97.30282, 29.73295], [-97.30275, 29.73306], [-97.30255, 29.73337], [-97.30224, 29.73385], [-97.30214, 29.73401], [-97.30206, 29.73414], [-97.30204, 29.73416], [-97.30194, 29.73432], [-97.30191, 29.73438], [-97.30187, 29.73445], [-97.30183, 29.73456], [-97.3018, 29.73466], [-97.30184, 29.73479], [-97.30184, 29.73479], [-97.30302, 29.73538], [-97.30392, 29.73582], [-97.30392, 29.73582], [-97.30416, 29.73594], [-97.30471, 29.73623], [-97.30477, 29.73626], [-97.30507, 29.73641], [-97.30525, 29.7365], [-97.30565, 29.7367], [-97.30579, 29.73677], [-97.30597, 29.73686], [-97.30615, 29.73695], [-97.30651, 29.73712], [-97.30654, 29.73713], [-97.30669, 29.73721], [-97.30741, 29.73757], [-97.30759, 29.73766], [-97.30795, 29.73784], [-97.30831, 29.73801], [-97.30885, 29.73828], [-97.30891, 29.73831], [-97.30939, 29.73854], [-97.30956, 29.73861], [-97.30958, 29.73862], [-97.30964, 29.73866], [-97.30972, 29.73871], [-97.30978, 29.73875], [-97.30983, 29.73881], [-97.30986, 29.73886], [-97.30989, 29.73892], [-97.3099, 29.73896], [-97.30992, 29.73925], [-97.30994, 29.73934], [-97.30995, 29.73939], [-97.30996, 29.7394], [-97.30998, 29.73944], [-97.31001, 29.73949], [-97.31005, 29.73953], [-97.31008, 29.73955], [-97.3101, 29.73957], [-97.3102, 29.73964], [-97.31026, 29.73967], [-97.31032, 29.7397], [-97.3106, 29.73983], [-97.31063, 29.73985], [-97.31096, 29.74001], [-97.31115, 29.7401], [-97.31148, 29.74025], [-97.31169, 29.74035], [-97.31224, 29.74061], [-97.31229, 29.74064], [-97.31276, 29.74087], [-97.31281, 29.7409], [-97.31311, 29.74106], [-97.31347, 29.74124], [-97.3136, 29.74131], [-97.31364, 29.74134], [-97.31399, 29.74154], [-97.31399, 29.74154]]}, "properties": {"surface": "unknown", "label": "Unverified", "color": "#9A9389", "miles": 2.37, "start_mi": 36.77, "end_mi": 39.14, "road": "County Road 447", "elev_ft": [401, 403, 403, 404, 405, 406, 409, 410, 411, 411, 413, 414, 416, 416, 416, 417, 419, 420, 421, 421, 421, 421, 422, 419, 416, 419, 420, 421, 424, 424, 428, 429, 429, 431, 430, 430, 428, 423, 422, 426, 425, 424, 424, 424, 422, 418, 417, 416, 416, 415, 415, 415, 415, 415, 415, 415, 415, 415, 415, 415, 415, 415, 416, 416, 420, 422, 423, 426, 431, 431, 431, 431, 431, 431, 431, 431, 432, 433, 435, 437, 438, 439, 439, 440, 440, 441, 441, 442, 442, 443, 444, 444, 444, 444, 445, 445, 445, 445, 445, 443, 443, 440, 431, 417, 404, 400, 394, 393, 391, 389, 387, 385, 385, 384, 382, 382, 384, 385, 385, 387, 388, 388, 390, 391, 394, 394, 400, 404, 404, 406, 407, 408, 408, 409, 413, 415, 417, 419, 422, 422, 424, 432, 435, 438, 439, 436, 436, 439, 440, 440, 440, 440, 441, 441, 441, 442, 442, 442, 442, 442, 442, 442, 442, 442, 442, 443, 443, 443, 444, 445, 445, 446, 447, 447, 447, 446, 446, 444, 443, 441, 437, 436, 436, 432, 432]}}, {"type": "Feature", "geometry": {"type": "LineString", "coordinates": [[-97.31412, 29.74134], [-97.31431, 29.74108], [-97.31441, 29.74092], [-97.31443, 29.7409], [-97.3146, 29.74067], [-97.31485, 29.74037], [-97.31506, 29.74013], [-97.31514, 29.74005], [-97.31526, 29.73992], [-97.31569, 29.73951], [-97.31583, 29.73938], [-97.31594, 29.73927], [-97.31634, 29.73887], [-97.31638, 29.73884], [-97.3165, 29.73873], [-97.31668, 29.73855], [-97.31683, 29.7384], [-97.31696, 29.73825], [-97.31709, 29.73811], [-97.31723, 29.73793], [-97.31728, 29.73786], [-97.31734, 29.73778], [-97.31744, 29.73764], [-97.31754, 29.73749], [-97.3176, 29.73739], [-97.31763, 29.73734], [-97.31771, 29.73721], [-97.31778, 29.73708], [-97.3178, 29.73703], [-97.31784, 29.73695], [-97.31786, 29.7369], [-97.3179, 29.7368], [-97.318, 29.73655], [-97.31811, 29.73625], [-97.31827, 29.73578], [-97.3183, 29.7357], [-97.31835, 29.73553], [-97.3185, 29.73506], [-97.31852, 29.73501], [-97.31858, 29.73484], [-97.31859, 29.73478], [-97.31882, 29.73409], [-97.31892, 29.73374], [-97.31899, 29.73346], [-97.31904, 29.73324], [-97.31906, 29.73308], [-97.31909, 29.73291], [-97.31909, 29.73289], [-97.3191, 29.73268], [-97.3191, 29.73242], [-97.31909, 29.73219], [-97.31908, 29.73201], [-97.31907, 29.73195], [-97.31905, 29.73183], [-97.31903, 29.73173], [-97.319, 29.73152], [-97.31899, 29.73148], [-97.31895, 29.7313], [-97.31894, 29.73128], [-97.3189, 29.73113], [-97.31881, 29.73086], [-97.31872, 29.73062]]}, "properties": {"surface": "pavement", "label": "Pavement", "color": "#4A5568", "miles": 0.83, "start_mi": 39.14, "end_mi": 39.97, "road": "FM 1296", "elev_ft": [432, 433, 434, 434, 436, 439, 441, 442, 442, 443, 444, 444, 444, 444, 444, 443, 442, 441, 438, 435, 434, 433, 433, 436, 437, 438, 441, 443, 444, 445, 446, 447, 450, 453, 458, 459, 460, 463, 463, 463, 463, 464, 464, 463, 463, 463, 462, 462, 462, 460, 458, 458, 458, 458, 458, 457, 457, 457, 457, 457, 457, 457]}}, {"type": "Feature", "geometry": {"type": "LineString", "coordinates": [[-97.31817, 29.7294], [-97.31817, 29.7294], [-97.31828, 29.72937], [-97.31833, 29.72937], [-97.31839, 29.72937], [-97.31842, 29.72938], [-97.31847, 29.72938], [-97.31852, 29.72939], [-97.31854, 29.72939], [-97.31865, 29.72942], [-97.31901, 29.72958], [-97.31913, 29.72964], [-97.31924, 29.7297], [-97.31964, 29.72989], [-97.31967, 29.72991], [-97.31976, 29.72995], [-97.31982, 29.72998], [-97.31985, 29.73], [-97.31989, 29.73002], [-97.31998, 29.73006], [-97.32003, 29.73009], [-97.32011, 29.73013], [-97.32014, 29.73015], [-97.32021, 29.73018], [-97.32025, 29.7302], [-97.32039, 29.73027], [-97.32063, 29.73039], [-97.32093, 29.73054], [-97.32129, 29.73072], [-97.32133, 29.73074], [-97.32137, 29.73076], [-97.32145, 29.73079], [-97.32147, 29.73081], [-97.32167, 29.73091], [-97.32169, 29.73092], [-97.32176, 29.73096], [-97.32176, 29.73096], [-97.32199, 29.73109], [-97.32208, 29.73114], [-97.32251, 29.73133], [-97.32254, 29.73134], [-97.32263, 29.73139], [-97.32272, 29.73143], [-97.32276, 29.73145], [-97.32286, 29.7315], [-97.3229, 29.73152], [-97.32334, 29.73174], [-97.32356, 29.73185], [-97.3236, 29.73187], [-97.32363, 29.73189], [-97.32374, 29.73197], [-97.32381, 29.73205], [-97.32383, 29.73207], [-97.32383, 29.73209], [-97.32385, 29.73214], [-97.32384, 29.73216], [-97.32384, 29.7322], [-97.32384, 29.73222], [-97.3238, 29.73231], [-97.32377, 29.73238], [-97.32374, 29.73243], [-97.3237, 29.7325], [-97.32367, 29.73254], [-97.32362, 29.73262], [-97.3236, 29.73265], [-97.3235, 29.73281], [-97.3234, 29.73297], [-97.32322, 29.73325], [-97.32278, 29.73393], [-97.32269, 29.73407], [-97.32255, 29.7343], [-97.32237, 29.73458], [-97.32235, 29.73462], [-97.32229, 29.7347], [-97.32228, 29.73472], [-97.32219, 29.73487], [-97.32209, 29.73502], [-97.32204, 29.73509], [-97.32204, 29.7351], [-97.32199, 29.73517], [-97.32197, 29.73521], [-97.32194, 29.73525], [-97.32189, 29.73533], [-97.32181, 29.73545], [-97.32178, 29.73551], [-97.32175, 29.7356], [-97.32173, 29.73566], [-97.32173, 29.7357], [-97.32173, 29.73574], [-97.32174, 29.73579], [-97.32177, 29.73584], [-97.32181, 29.73589], [-97.32188, 29.73594], [-97.32197, 29.736], [-97.32199, 29.736], [-97.32212, 29.73606], [-97.32217, 29.7361], [-97.32223, 29.73613], [-97.32235, 29.73619], [-97.32254, 29.73627], [-97.32272, 29.73635], [-97.32278, 29.73638], [-97.3229, 29.73644], [-97.32326, 29.73662], [-97.32346, 29.73671], [-97.32362, 29.73679], [-97.32382, 29.73689], [-97.32415, 29.73707], [-97.32433, 29.73717], [-97.32442, 29.73721], [-97.32454, 29.73728], [-97.3254, 29.73771], [-97.32545, 29.73774], [-97.3255, 29.73776], [-97.32666, 29.73833], [-97.32671, 29.73835], [-97.3269, 29.73845], [-97.32718, 29.7386], [-97.3272, 29.7386], [-97.32738, 29.73869], [-97.32785, 29.73891], [-97.32797, 29.73897], [-97.32817, 29.73907], [-97.32912, 29.73953], [-97.32923, 29.73959], [-97.32941, 29.73967], [-97.32964, 29.73978], [-97.33014, 29.74002], [-97.3303, 29.7401], [-97.33067, 29.7403], [-97.3308, 29.74036], [-97.33093, 29.74042], [-97.33103, 29.74047], [-97.3316, 29.74076], [-97.33175, 29.74083], [-97.33211, 29.74101], [-97.3323, 29.7411], [-97.33242, 29.74116], [-97.33248, 29.74119], [-97.33266, 29.74128], [-97.33394, 29.74188], [-97.33399, 29.74191], [-97.33412, 29.74196], [-97.3343, 29.74205], [-97.33448, 29.74214], [-97.33462, 29.7422], [-97.33467, 29.74222], [-97.33485, 29.74231], [-97.33493, 29.74235], [-97.33539, 29.74256], [-97.33558, 29.74265], [-97.33653, 29.74309], [-97.33665, 29.74315], [-97.33667, 29.74316], [-97.33677, 29.74322], [-97.33683, 29.74327], [-97.33697, 29.74338], [-97.33706, 29.74347], [-97.33716, 29.74356], [-97.33724, 29.74365], [-97.33733, 29.74374], [-97.3374, 29.7438], [-97.33742, 29.74383], [-97.33763, 29.74404], [-97.33784, 29.74432], [-97.33788, 29.74438], [-97.33789, 29.7444], [-97.3381, 29.74483], [-97.33821, 29.74504], [-97.33827, 29.74515], [-97.33834, 29.74526], [-97.33842, 29.74537], [-97.33851, 29.74546], [-97.33861, 29.74556], [-97.33871, 29.74565], [-97.33895, 29.74584], [-97.33993, 29.74657], [-97.33997, 29.7466], [-97.34043, 29.74694], [-97.34089, 29.74726], [-97.3409, 29.74727], [-97.34169, 29.74784], [-97.3421, 29.74813], [-97.34265, 29.74851], [-97.34298, 29.74874], [-97.34322, 29.7489], [-97.3433, 29.74896], [-97.34433, 29.74972], [-97.34472, 29.75002], [-97.34476, 29.75005], [-97.34494, 29.75018], [-97.34504, 29.75023], [-97.34507, 29.75025], [-97.34514, 29.75027], [-97.34523, 29.7503], [-97.34528, 29.75031], [-97.34536, 29.75033], [-97.3455, 29.75035], [-97.34564, 29.75037], [-97.34585, 29.75038], [-97.34611, 29.75039], [-97.34643, 29.7504], [-97.34731, 29.75041], [-97.34736, 29.75041], [-97.3482, 29.75048], [-97.34902, 29.7506], [-97.34922, 29.75063], [-97.34943, 29.75066], [-97.3501, 29.75072], [-97.35016, 29.75073], [-97.35046, 29.75077], [-97.3506, 29.75078], [-97.35064, 29.75079], [-97.35066, 29.75079], [-97.35067, 29.75079], [-97.35087, 29.75082], [-97.35107, 29.75085], [-97.3514, 29.75089], [-97.35159, 29.75091], [-97.35166, 29.75092], [-97.35169, 29.75092], [-97.35183, 29.75093], [-97.35191, 29.75094], [-97.35198, 29.75095], [-97.35205, 29.75098], [-97.35209, 29.751], [-97.35209, 29.751], [-97.35211, 29.75101], [-97.35216, 29.75106], [-97.35218, 29.75112], [-97.35218, 29.7512], [-97.35218, 29.75128], [-97.35216, 29.75138], [-97.35214, 29.75159], [-97.35213, 29.75171], [-97.35211, 29.75189], [-97.35208, 29.75219], [-97.35207, 29.75225], [-97.35207, 29.75226], [-97.35198, 29.75303], [-97.35193, 29.7535], [-97.35191, 29.75366], [-97.3519, 29.75369], [-97.35186, 29.75401], [-97.35184, 29.75416], [-97.35184, 29.75422], [-97.35184, 29.75428], [-97.35186, 29.75434], [-97.35189, 29.75438], [-97.35193, 29.75441], [-97.35196, 29.75444], [-97.35201, 29.75446], [-97.35205, 29.75447], [-97.35208, 29.75448], [-97.35211, 29.75448], [-97.35227, 29.75451], [-97.35234, 29.75452], [-97.35252, 29.75454], [-97.35259, 29.75455], [-97.35266, 29.75457], [-97.35272, 29.75461], [-97.35276, 29.75465], [-97.35278, 29.75471], [-97.35277, 29.75478], [-97.35269, 29.75495], [-97.35236, 29.75556], [-97.35228, 29.75573], [-97.35168, 29.75687], [-97.35125, 29.75769], [-97.35083, 29.75847], [-97.35084, 29.75851], [-97.35084, 29.75851], [-97.35087, 29.75856], [-97.35091, 29.7586], [-97.35097, 29.75863], [-97.35105, 29.75866], [-97.35158, 29.75879], [-97.35168, 29.75881], [-97.35232, 29.75897], [-97.35317, 29.75917], [-97.35422, 29.75942], [-97.3546, 29.75951], [-97.35544, 29.75971], [-97.35564, 29.75976], [-97.35624, 29.75991], [-97.35644, 29.75994], [-97.35653, 29.75995], [-97.35661, 29.75995], [-97.35665, 29.75994], [-97.3567, 29.75993], [-97.35677, 29.7599], [-97.35684, 29.75985], [-97.3569, 29.7598], [-97.35735, 29.75929], [-97.35748, 29.75916], [-97.35786, 29.75873], [-97.35812, 29.75845], [-97.3585, 29.75803], [-97.35855, 29.75797], [-97.35861, 29.75791], [-97.35864, 29.75789], [-97.35868, 29.75786], [-97.35876, 29.75781], [-97.35881, 29.75779], [-97.35884, 29.75778], [-97.35893, 29.75775], [-97.359, 29.75773], [-97.35904, 29.75772], [-97.35921, 29.75769], [-97.35978, 29.75758], [-97.36001, 29.75754], [-97.36022, 29.7575], [-97.36042, 29.75746], [-97.36062, 29.75742], [-97.36082, 29.75738], [-97.36088, 29.75737], [-97.36103, 29.75735], [-97.36164, 29.75724], [-97.36189, 29.7572], [-97.36227, 29.75712], [-97.3626, 29.75706], [-97.36295, 29.757], [-97.36356, 29.7569], [-97.36376, 29.75687], [-97.36404, 29.75683], [-97.36417, 29.7568], [-97.36419, 29.7568], [-97.36453, 29.75674], [-97.36537, 29.75662], [-97.36541, 29.75662], [-97.36562, 29.75659], [-97.36582, 29.75657], [-97.36603, 29.75654], [-97.36605, 29.75654], [-97.36623, 29.75652], [-97.36644, 29.7565], [-97.36685, 29.75646], [-97.36706, 29.75644], [-97.36721, 29.75643], [-97.36726, 29.75642], [-97.36739, 29.75641], [-97.36758, 29.75642], [-97.36768, 29.75643], [-97.36776, 29.75644], [-97.36793, 29.75646], [-97.36828, 29.75653], [-97.36843, 29.75656], [-97.36869, 29.7566], [-97.3689, 29.75662], [-97.36937, 29.7567], [-97.36999, 29.7568], [-97.37029, 29.75685], [-97.37035, 29.75685], [-97.37039, 29.75685], [-97.37041, 29.75685], [-97.37047, 29.75682], [-97.37051, 29.75678], [-97.37054, 29.75674], [-97.37055, 29.75671], [-97.37057, 29.75656], [-97.37058, 29.75638], [-97.37066, 29.75566], [-97.37076, 29.75473], [-97.37079, 29.75452], [-97.3708, 29.75437], [-97.37083, 29.75416], [-97.37091, 29.75344], [-97.37092, 29.7533], [-97.37093, 29.75326], [-97.37095, 29.75309], [-97.37097, 29.75291], [-97.37099, 29.75273], [-97.37105, 29.75222], [-97.37107, 29.75201], [-97.37113, 29.75147], [-97.37115, 29.75133], [-97.37115, 29.7513], [-97.37123, 29.75058], [-97.37123, 29.75058], [-97.37125, 29.75042], [-97.37125, 29.7504], [-97.37127, 29.75022], [-97.37132, 29.74961], [-97.37138, 29.74901], [-97.3714, 29.74883], [-97.37149, 29.74775], [-97.37156, 29.74705], [-97.37157, 29.74686], [-97.37158, 29.74679], [-97.37159, 29.74668], [-97.37169, 29.74524], [-97.3717, 29.74513], [-97.37172, 29.74492], [-97.37177, 29.74434], [-97.37178, 29.74416], [-97.3718, 29.74398], [-97.37182, 29.74374], [-97.37183, 29.74361], [-97.37186, 29.7435], [-97.37188, 29.74346], [-97.37191, 29.74341], [-97.37196, 29.74338], [-97.37202, 29.74336], [-97.37205, 29.74335], [-97.37208, 29.74335], [-97.37216, 29.74336], [-97.37242, 29.74342], [-97.37255, 29.74345], [-97.37262, 29.74347], [-97.37319, 29.7436], [-97.37362, 29.7437], [-97.37366, 29.74371], [-97.37401, 29.74379], [-97.37406, 29.7438], [-97.37431, 29.74386], [-97.37481, 29.74397], [-97.37486, 29.74398], [-97.37521, 29.74406], [-97.37526, 29.74407], [-97.37555, 29.74413], [-97.37561, 29.74415], [-97.37581, 29.74419], [-97.37587, 29.7442], [-97.37609, 29.74425], [-97.37649, 29.74434], [-97.37662, 29.74437], [-97.37682, 29.74441], [-97.37687, 29.74442], [-97.37716, 29.74449], [-97.37762, 29.74459], [-97.37781, 29.74463], [-97.37801, 29.74467], [-97.37804, 29.74467], [-97.37816, 29.7447], [-97.37821, 29.74471], [-97.37881, 29.74484], [-97.37892, 29.74486], [-97.37907, 29.74489], [-97.37913, 29.7449], [-97.37921, 29.74489], [-97.37922, 29.74488], [-97.37928, 29.74485], [-97.37931, 29.74481], [-97.37934, 29.74475], [-97.37935, 29.74472], [-97.37936, 29.74468], [-97.37939, 29.7445], [-97.37943, 29.74427], [-97.37952, 29.74373], [-97.37955, 29.74355], [-97.37959, 29.74331], [-97.3796, 29.7432], [-97.37963, 29.74302], [-97.37967, 29.74278], [-97.37969, 29.74266], [-97.37972, 29.74249], [-97.37978, 29.74213], [-97.37987, 29.74159], [-97.3799, 29.74142], [-97.37993, 29.74121], [-97.38002, 29.74071], [-97.38005, 29.74053], [-97.38008, 29.74035], [-97.38012, 29.74018], [-97.38012, 29.74017], [-97.38018, 29.73982], [-97.38021, 29.73964], [-97.38027, 29.73928], [-97.38029, 29.73914], [-97.38032, 29.73902], [-97.3804, 29.73857], [-97.38043, 29.73839], [-97.38046, 29.73822], [-97.38048, 29.73814], [-97.3805, 29.73804], [-97.38065, 29.73733], [-97.38069, 29.73716], [-97.38073, 29.73698], [-97.38076, 29.7368], [-97.3808, 29.73663], [-97.38084, 29.73645], [-97.38095, 29.73592], [-97.38097, 29.73581], [-97.38101, 29.73563], [-97.38101, 29.73563], [-97.38086, 29.7355], [-97.38056, 29.73525], [-97.38041, 29.73513], [-97.38037, 29.7351], [-97.38026, 29.735], [-97.38009, 29.73477], [-97.37975, 29.73452], [-97.37975, 29.73452], [-97.37981, 29.73435], [-97.37983, 29.73417], [-97.37983, 29.73412], [-97.37983, 29.73399], [-97.37983, 29.73381], [-97.37982, 29.73363], [-97.37982, 29.73345], [-97.37982, 29.73327], [-97.37981, 29.73309], [-97.37981, 29.73283], [-97.37981, 29.73273], [-97.37981, 29.73255], [-97.37981, 29.73237], [-97.37981, 29.73219], [-97.37981, 29.73201], [-97.37981, 29.73183], [-97.37982, 29.73129], [-97.37982, 29.73111], [-97.37982, 29.73093], [-97.37983, 29.73075], [-97.37983, 29.73068], [-97.37982, 29.73021], [-97.37982, 29.72999], [-97.37982, 29.72985], [-97.37983, 29.72967], [-97.37983, 29.72931], [-97.37983, 29.72895], [-97.37983, 29.72877], [-97.37983, 29.72859], [-97.37983, 29.72853], [-97.37984, 29.72841], [-97.37984, 29.72806], [-97.37984, 29.72788], [-97.37985, 29.7277], [-97.37985, 29.72752], [-97.37985, 29.7274], [-97.37988, 29.72727], [-97.37991, 29.72716], [-97.37992, 29.72711], [-97.38002, 29.72683], [-97.38003, 29.72682], [-97.38005, 29.72675], [-97.38009, 29.72665], [-97.38022, 29.7263], [-97.38037, 29.72592], [-97.38042, 29.72573], [-97.38044, 29.72564], [-97.38044, 29.72561], [-97.38045, 29.72555], [-97.38044, 29.72546], [-97.38043, 29.72537], [-97.3804, 29.72529], [-97.38038, 29.72526], [-97.38036, 29.72522], [-97.38032, 29.72516], [-97.38028, 29.72511], [-97.38018, 29.72501], [-97.38014, 29.72497], [-97.38009, 29.72493], [-97.37998, 29.72482], [-97.37993, 29.72476], [-97.37989, 29.7247], [-97.37985, 29.72463], [-97.37983, 29.72457], [-97.37981, 29.72448], [-97.3798, 29.72441], [-97.3798, 29.72434], [-97.37979, 29.72422], [-97.37979, 29.72421], [-97.37979, 29.72403], [-97.37979, 29.72388], [-97.37979, 29.72386], [-97.37981, 29.72267], [-97.37981, 29.72206], [-97.37981, 29.72188], [-97.37982, 29.7217], [-97.37982, 29.72162], [-97.37982, 29.72098], [-97.37982, 29.72094], [-97.37982, 29.7208], [-97.37983, 29.72012], [-97.37983, 29.71972], [-97.37983, 29.71954], [-97.37983, 29.71904], [-97.37983, 29.71875], [-97.37982, 29.71821], [-97.37982, 29.71785], [-97.37981, 29.71767], [-97.37981, 29.71749], [-97.37981, 29.71734], [-97.37981, 29.71713], [-97.3798, 29.71686], [-97.3798, 29.71677], [-97.3798, 29.71659], [-97.37979, 29.7164], [-97.37979, 29.71633], [-97.37977, 29.71626], [-97.37975, 29.71624], [-97.37973, 29.71621], [-97.37967, 29.71617], [-97.37959, 29.71614], [-97.37956, 29.71614], [-97.37951, 29.71613], [-97.37941, 29.71612], [-97.37938, 29.71612], [-97.37917, 29.71613], [-97.37897, 29.71613], [-97.37876, 29.71613], [-97.37834, 29.71613], [-97.37793, 29.71613], [-97.37779, 29.71613], [-97.37762, 29.71612], [-97.37754, 29.71612], [-97.37748, 29.7161], [-97.37743, 29.71608], [-97.37738, 29.71605], [-97.37735, 29.71601], [-97.37733, 29.71597], [-97.37732, 29.71592], [-97.37731, 29.71586], [-97.37732, 29.71556], [-97.37732, 29.71539], [-97.37732, 29.71521], [-97.37733, 29.71413], [-97.37733, 29.71395], [-97.37733, 29.71318], [-97.37733, 29.71318], [-97.37733, 29.71305], [-97.37734, 29.71269], [-97.37734, 29.71233], [-97.37734, 29.71215], [-97.37734, 29.71197], [-97.37734, 29.71172], [-97.37734, 29.71161], [-97.37734, 29.7116], [-97.37734, 29.71149], [-97.37735, 29.71125], [-97.37735, 29.71107], [-97.37736, 29.71089], [-97.37736, 29.71053], [-97.37737, 29.71035], [-97.37737, 29.71032], [-97.37736, 29.70981], [-97.37736, 29.70951], [-97.37736, 29.70945], [-97.3774, 29.70916], [-97.37744, 29.70911], [-97.37753, 29.70897], [-97.37784, 29.70882], [-97.37792, 29.70881], [-97.37813, 29.7088], [-97.37814, 29.7088], [-97.37854, 29.70879], [-97.37863, 29.70879], [-97.37875, 29.70878], [-97.37885, 29.70877], [-97.37895, 29.70876], [-97.37904, 29.70873], [-97.3791, 29.7087], [-97.37914, 29.70868], [-97.3792, 29.70864], [-97.37925, 29.70859], [-97.37928, 29.70855], [-97.37934, 29.70846], [-97.37936, 29.7084], [-97.37938, 29.7083], [-97.3794, 29.70809], [-97.37943, 29.70793], [-97.37944, 29.70788], [-97.37948, 29.7078], [-97.37951, 29.70773], [-97.37952, 29.70769], [-97.37954, 29.70766], [-97.37957, 29.7076], [-97.37961, 29.70753], [-97.37962, 29.70752], [-97.37966, 29.70746], [-97.37982, 29.7072], [-97.3799, 29.70705], [-97.37995, 29.70695], [-97.37998, 29.70687], [-97.37999, 29.70684], [-97.38002, 29.70676], [-97.38004, 29.70671], [-97.38009, 29.70654], [-97.38009, 29.70653], [-97.38014, 29.70618], [-97.38015, 29.70617], [-97.38015, 29.70614], [-97.38018, 29.7051], [-97.38018, 29.70509], [-97.38019, 29.70474], [-97.3802, 29.70438], [-97.3802, 29.70437], [-97.3802, 29.7042], [-97.38021, 29.70383], [-97.38021, 29.70376], [-97.38024, 29.70367], [-97.38027, 29.70356], [-97.38032, 29.70351], [-97.38046, 29.70339], [-97.38067, 29.70336], [-97.38073, 29.70335], [-97.38114, 29.7033], [-97.38154, 29.70324], [-97.38171, 29.70322]]}, "properties": {"surface": "unknown", "label": "Unverified", "color": "#9A9389", "miles": 9.34, "start_mi": 39.97, "end_mi": 49.31, "road": "County Road 444", "elev_ft": [453, 453, 453, 454, 454, 454, 454, 454, 454, 454, 455, 455, 455, 455, 455, 455, 455, 455, 455, 454, 454, 454, 453, 453, 453, 451, 449, 445, 440, 440, 439, 438, 438, 436, 436, 435, 435, 433, 432, 435, 435, 436, 437, 438, 438, 439, 441, 443, 443, 443, 443, 443, 443, 443, 443, 443, 444, 444, 444, 444, 445, 445, 445, 446, 446, 446, 447, 448, 449, 450, 450, 450, 450, 450, 450, 451, 451, 451, 451, 451, 451, 451, 452, 452, 452, 452, 452, 452, 452, 452, 452, 452, 452, 452, 452, 451, 451, 451, 450, 450, 449, 449, 449, 449, 449, 449, 450, 453, 455, 456, 457, 462, 462, 462, 466, 466, 467, 469, 469, 469, 472, 473, 474, 478, 478, 478, 478, 478, 478, 478, 478, 479, 479, 481, 484, 485, 482, 480, 480, 479, 457, 456, 453, 449, 449, 444, 443, 441, 442, 450, 452, 460, 461, 461, 461, 461, 461, 460, 460, 460, 459, 459, 459, 458, 457, 457, 457, 458, 458, 458, 458, 458, 459, 459, 459, 460, 464, 464, 469, 470, 470, 471, 471, 471, 471, 471, 471, 468, 469, 469, 469, 469, 469, 469, 470, 470, 470, 471, 472, 473, 474, 476, 481, 481, 481, 475, 477, 481, 485, 485, 485, 484, 483, 483, 483, 479, 474, 467, 461, 460, 459, 457, 456, 454, 452, 452, 452, 452, 451, 450, 449, 449, 449, 449, 448, 448, 449, 449, 449, 451, 452, 453, 453, 454, 454, 454, 454, 455, 455, 455, 455, 455, 455, 456, 456, 456, 456, 457, 457, 457, 458, 458, 458, 458, 459, 459, 459, 459, 459, 458, 458, 458, 457, 458, 458, 458, 459, 460, 462, 464, 469, 470, 475, 477, 480, 480, 480, 480, 479, 479, 479, 479, 479, 480, 482, 485, 488, 490, 490, 491, 491, 491, 492, 492, 492, 492, 492, 492, 491, 488, 486, 483, 482, 481, 482, 483, 484, 491, 492, 493, 494, 495, 494, 494, 493, 492, 492, 489, 477, 477, 474, 471, 469, 469, 468, 467, 464, 463, 462, 462, 462, 461, 461, 462, 463, 468, 469, 473, 477, 481, 487, 490, 490, 491, 491, 492, 492, 492, 492, 491, 490, 482, 489, 490, 492, 492, 489, 488, 488, 488, 487, 487, 489, 491, 493, 493, 493, 493, 493, 493, 493, 493, 494, 493, 494, 494, 493, 493, 493, 493, 491, 490, 489, 488, 487, 487, 487, 487, 487, 487, 487, 488, 488, 488, 488, 489, 490, 490, 491, 492, 492, 492, 491, 491, 489, 483, 483, 479, 479, 477, 477, 476, 476, 476, 475, 475, 475, 475, 474, 471, 470, 466, 466, 463, 463, 454, 453, 451, 450, 449, 449, 448, 448, 448, 448, 448, 448, 447, 445, 444, 442, 441, 442, 443, 444, 445, 448, 453, 454, 455, 460, 463, 464, 466, 466, 468, 468, 467, 466, 464, 456, 450, 447, 446, 447, 463, 464, 464, 463, 463, 463, 455, 451, 448, 448, 448, 446, 445, 445, 444, 443, 443, 443, 443, 443, 443, 444, 445, 447, 449, 453, 458, 463, 464, 465, 465, 464, 462, 460, 450, 448, 445, 443, 442, 433, 429, 428, 427, 427, 426, 425, 424, 424, 423, 421, 419, 418, 417, 416, 416, 416, 416, 415, 415, 415, 415, 416, 417, 417, 417, 417, 417, 417, 417, 417, 416, 416, 416, 416, 415, 415, 414, 413, 413, 413, 413, 412, 412, 412, 412, 412, 412, 412, 412, 412, 415, 415, 416, 417, 417, 422, 423, 424, 429, 432, 433, 434, 434, 433, 432, 432, 431, 430, 429, 426, 425, 423, 422, 422, 422, 422, 422, 421, 421, 421, 420, 420, 420, 419, 419, 419, 421, 423, 424, 425, 425, 426, 426, 426, 426, 426, 426, 426, 425, 424, 423, 414, 411, 405, 405, 404, 400, 399, 399, 398, 398, 397, 397, 397, 396, 396, 395, 392, 393, 393, 397, 401, 401, 401, 402, 402, 405, 405, 407, 407, 412, 414, 416, 417, 418, 420, 420, 421, 422, 422, 423, 423, 424, 423, 423, 423, 423, 423, 422, 422, 422, 421, 420, 420, 419, 416, 414, 413, 412, 411, 410, 410, 408, 408, 408, 408, 409, 420, 420, 422, 418, 418, 417, 416, 416, 416, 416, 416, 416, 418, 418, 422, 427, 428]}}, {"type": "Feature", "geometry": {"type": "LineString", "coordinates": [[-97.38204, 29.70317], [-97.38213, 29.70316], [-97.38223, 29.70316], [-97.38224, 29.70316], [-97.38225, 29.70316], [-97.38229, 29.70317], [-97.38234, 29.70317], [-97.38256, 29.70319], [-97.38268, 29.70321], [-97.38279, 29.70324], [-97.38292, 29.70329], [-97.38316, 29.70338], [-97.38317, 29.70338], [-97.38321, 29.7034], [-97.38323, 29.7034], [-97.3838, 29.70361], [-97.38399, 29.7037], [-97.38418, 29.70378], [-97.3843, 29.70383], [-97.38434, 29.70385], [-97.38436, 29.70386], [-97.38448, 29.70391], [-97.38475, 29.70402], [-97.38487, 29.70406], [-97.38488, 29.70406], [-97.38493, 29.70408], [-97.38502, 29.7041], [-97.38513, 29.70412], [-97.38516, 29.70413], [-97.3853, 29.70415], [-97.38534, 29.70415], [-97.38544, 29.70417], [-97.38554, 29.70417], [-97.38575, 29.70419], [-97.38609, 29.70421], [-97.38632, 29.70424], [-97.38644, 29.70425], [-97.38665, 29.70431], [-97.38675, 29.70435], [-97.38688, 29.7044], [-97.38713, 29.7045], [-97.38723, 29.70454], [-97.38732, 29.70458], [-97.38751, 29.70466], [-97.38764, 29.70472], [-97.38784, 29.70482], [-97.38792, 29.70487], [-97.38802, 29.70493], [-97.38804, 29.70494], [-97.3881, 29.70499], [-97.38818, 29.70505], [-97.38819, 29.70506], [-97.38825, 29.70512], [-97.38831, 29.70518], [-97.38832, 29.7052], [-97.38836, 29.70525], [-97.38841, 29.70533], [-97.38842, 29.70536], [-97.3885, 29.70552], [-97.38851, 29.70552], [-97.38857, 29.70569], [-97.3886, 29.70575], [-97.38864, 29.70586], [-97.38864, 29.70587], [-97.38869, 29.70604], [-97.38874, 29.70621], [-97.38887, 29.70669], [-97.38896, 29.70698], [-97.389, 29.70708], [-97.38902, 29.70712], [-97.38908, 29.70725], [-97.38913, 29.70738], [-97.38934, 29.70777], [-97.38941, 29.70791], [-97.38947, 29.70804], [-97.38949, 29.70807], [-97.38964, 29.70841], [-97.38971, 29.70858], [-97.38976, 29.70868], [-97.38988, 29.70891], [-97.38995, 29.70902], [-97.38998, 29.70906], [-97.39, 29.70908], [-97.39003, 29.70912], [-97.39009, 29.70921], [-97.3901, 29.70922], [-97.39018, 29.70932], [-97.39022, 29.70936], [-97.39028, 29.70941], [-97.39036, 29.70949], [-97.39041, 29.70952], [-97.39048, 29.70958], [-97.39052, 29.70961], [-97.39054, 29.70963], [-97.39059, 29.70966], [-97.391, 29.70994], [-97.39106, 29.70998], [-97.39116, 29.71006], [-97.39125, 29.71012], [-97.39142, 29.71023], [-97.39165, 29.7104], [-97.39189, 29.71057], [-97.39197, 29.71062], [-97.39241, 29.71095], [-97.39256, 29.71105], [-97.39276, 29.7112], [-97.3929, 29.71128], [-97.39295, 29.71131], [-97.39313, 29.71142], [-97.39325, 29.71148], [-97.39332, 29.71151], [-97.39343, 29.71156], [-97.3935, 29.71158], [-97.39362, 29.71163], [-97.39407, 29.7118], [-97.39419, 29.71186], [-97.39429, 29.7119], [-97.39437, 29.71195], [-97.3948, 29.71217], [-97.3949, 29.71223], [-97.39503, 29.7123], [-97.39507, 29.71232], [-97.39525, 29.71242], [-97.39556, 29.71258], [-97.39574, 29.71268], [-97.39582, 29.71273], [-97.39607, 29.71288], [-97.39618, 29.71295], [-97.39623, 29.71298], [-97.39639, 29.7131], [-97.39646, 29.71315], [-97.39654, 29.71322], [-97.39659, 29.71326], [-97.3967, 29.71334], [-97.39674, 29.71337], [-97.39682, 29.71343], [-97.39686, 29.71345], [-97.39693, 29.7135], [-97.39705, 29.71356], [-97.39728, 29.71367], [-97.39773, 29.71387], [-97.39795, 29.71397], [-97.39805, 29.71401], [-97.39814, 29.71405], [-97.39873, 29.71435], [-97.39886, 29.71441], [-97.39899, 29.71447], [-97.39915, 29.71453], [-97.39924, 29.71455], [-97.39941, 29.71459], [-97.39943, 29.7146], [-97.39964, 29.71463], [-97.39972, 29.71464], [-97.39982, 29.71465], [-97.39982, 29.71465], [-97.40004, 29.71468], [-97.4001, 29.71468], [-97.40031, 29.71473], [-97.40042, 29.71477], [-97.40048, 29.71479], [-97.4006, 29.71484], [-97.40067, 29.71486], [-97.40089, 29.71496], [-97.40121, 29.71511], [-97.40122, 29.71511], [-97.4014, 29.71519], [-97.40153, 29.71525], [-97.40158, 29.71527], [-97.40176, 29.71536], [-97.40177, 29.71536], [-97.40235, 29.71563], [-97.4025, 29.7157], [-97.40268, 29.71578], [-97.40277, 29.71582], [-97.40306, 29.71593], [-97.40319, 29.71598], [-97.40344, 29.71607], [-97.40377, 29.71618], [-97.4046, 29.71645], [-97.4048, 29.71651], [-97.40512, 29.71662], [-97.40546, 29.71673], [-97.40575, 29.71685], [-97.40575, 29.71686], [-97.40577, 29.71686], [-97.40594, 29.71693], [-97.40631, 29.71709], [-97.40637, 29.71712], [-97.40649, 29.71718], [-97.40666, 29.71726], [-97.4068, 29.71733], [-97.40685, 29.71736], [-97.40693, 29.7174], [-97.40702, 29.71745], [-97.40703, 29.71746], [-97.40706, 29.71748], [-97.40719, 29.71756], [-97.40731, 29.71765], [-97.40751, 29.71784], [-97.40778, 29.71813], [-97.40802, 29.71837], [-97.4085, 29.71888], [-97.40873, 29.71913], [-97.40891, 29.7193], [-97.409, 29.71937], [-97.40908, 29.71944], [-97.40917, 29.7195], [-97.40926, 29.71955], [-97.40927, 29.71956], [-97.40943, 29.71965], [-97.40945, 29.71965], [-97.40947, 29.71966], [-97.40949, 29.71967], [-97.40959, 29.71971], [-97.40984, 29.71979], [-97.40998, 29.71984], [-97.40998, 29.71984], [-97.41047, 29.72003], [-97.41111, 29.72025], [-97.41125, 29.7203], [-97.4113, 29.72032], [-97.41132, 29.72033], [-97.41137, 29.72035], [-97.41149, 29.7204], [-97.41151, 29.7204], [-97.4118, 29.72048], [-97.41212, 29.72049], [-97.41251, 29.7205], [-97.41272, 29.7205], [-97.41274, 29.7205], [-97.41275, 29.7205], [-97.4128, 29.7205], [-97.41295, 29.72051], [-97.41317, 29.72054], [-97.41333, 29.72058], [-97.41373, 29.72069], [-97.41398, 29.72075], [-97.41452, 29.72089], [-97.41477, 29.72096], [-97.41531, 29.7211], [-97.41557, 29.72117], [-97.4161, 29.7213], [-97.41617, 29.72136], [-97.4162, 29.7214], [-97.41621, 29.72142], [-97.41623, 29.72147], [-97.41625, 29.72152], [-97.41625, 29.72157], [-97.41626, 29.72183], [-97.41625, 29.72244], [-97.41624, 29.72343], [-97.41623, 29.72388], [-97.41623, 29.72406], [-97.41623, 29.72411], [-97.41623, 29.72415], [-97.41624, 29.72423], [-97.41628, 29.72428], [-97.41632, 29.72433], [-97.4164, 29.72437], [-97.41651, 29.72437], [-97.4166, 29.72438], [-97.41709, 29.72441], [-97.41763, 29.72443], [-97.41773, 29.72443], [-97.41837, 29.72445], [-97.4193, 29.72447], [-97.42011, 29.72448], [-97.42124, 29.72448], [-97.42156, 29.72448], [-97.42192, 29.72448], [-97.42225, 29.72452], [-97.42239, 29.72453], [-97.42265, 29.72462], [-97.42265, 29.72462], [-97.42286, 29.72476], [-97.42297, 29.72482], [-97.42306, 29.72485], [-97.42321, 29.72489], [-97.42337, 29.7249], [-97.42435, 29.7249], [-97.42458, 29.72489], [-97.42471, 29.72489], [-97.425, 29.72489], [-97.42582, 29.72489], [-97.4268, 29.7249], [-97.4268, 29.7249], [-97.42849, 29.72488], [-97.42873, 29.72488], [-97.42997, 29.72489], [-97.43039, 29.7249], [-97.43122, 29.72491], [-97.43128, 29.72491], [-97.43163, 29.72493], [-97.43192, 29.72495], [-97.43204, 29.72495], [-97.43282, 29.72498], [-97.43296, 29.72498], [-97.43315, 29.72498], [-97.43446, 29.72499], [-97.43502, 29.72498], [-97.43535, 29.72498], [-97.43588, 29.72498], [-97.43658, 29.72496], [-97.43689, 29.72496], [-97.4372, 29.72495], [-97.43741, 29.72495], [-97.43897, 29.72494], [-97.439, 29.72495], [-97.43904, 29.72496], [-97.4391, 29.72498], [-97.4391, 29.72498], [-97.43913, 29.725], [-97.43917, 29.72505], [-97.43918, 29.72508], [-97.43919, 29.72514], [-97.43919, 29.7252], [-97.43916, 29.7261], [-97.43916, 29.72639], [-97.43916, 29.72639], [-97.44041, 29.72639], [-97.44052, 29.72639], [-97.44239, 29.72638], [-97.44259, 29.72638], [-97.44268, 29.72638], [-97.44342, 29.72638], [-97.44487, 29.72637], [-97.44517, 29.72637], [-97.44567, 29.72637], [-97.44601, 29.72637], [-97.44674, 29.72637], [-97.44694, 29.72637], [-97.44703, 29.72637], [-97.44869, 29.72638], [-97.44873, 29.72638], [-97.44952, 29.72639], [-97.44959, 29.72639], [-97.45042, 29.72639], [-97.45055, 29.72639], [-97.45197, 29.7264], [-97.45204, 29.7264], [-97.45212, 29.72639], [-97.45219, 29.72636], [-97.45224, 29.72632], [-97.45225, 29.72632], [-97.4523, 29.72626], [-97.45233, 29.7262], [-97.45234, 29.72617], [-97.45235, 29.726], [-97.45238, 29.72564], [-97.4524, 29.72541], [-97.45242, 29.7252], [-97.45243, 29.72516], [-97.45246, 29.7251], [-97.4525, 29.72503], [-97.45256, 29.72498], [-97.45263, 29.72494], [-97.45271, 29.72492], [-97.4528, 29.72491], [-97.45325, 29.72492], [-97.4534, 29.72493], [-97.45346, 29.72493], [-97.45388, 29.72494], [-97.45408, 29.72494], [-97.45443, 29.72494], [-97.45449, 29.72494], [-97.45491, 29.72494], [-97.45505, 29.72494], [-97.45511, 29.72494], [-97.45588, 29.72493], [-97.45594, 29.72493], [-97.45614, 29.72493], [-97.4563, 29.72493], [-97.45636, 29.72493], [-97.45662, 29.72493], [-97.45671, 29.72493], [-97.45775, 29.72491], [-97.45786, 29.72491], [-97.45837, 29.72491], [-97.45848, 29.7249], [-97.45869, 29.7249], [-97.45973, 29.72489], [-97.46056, 29.72488], [-97.46065, 29.72488], [-97.46076, 29.72488], [-97.46117, 29.72487], [-97.46118, 29.72487], [-97.46201, 29.72488], [-97.4621, 29.72488], [-97.46231, 29.72488], [-97.46242, 29.72488], [-97.46251, 29.72487], [-97.46263, 29.72487], [-97.46304, 29.72486], [-97.46313, 29.72485], [-97.46325, 29.72485], [-97.46337, 29.72484], [-97.46387, 29.72485], [-97.46396, 29.72485], [-97.46449, 29.72486], [-97.46449, 29.72486], [-97.46448, 29.72471], [-97.46449, 29.72444], [-97.4645, 29.7244], [-97.46453, 29.72434], [-97.46454, 29.72432], [-97.46457, 29.72429], [-97.46462, 29.72426], [-97.46468, 29.72423], [-97.46475, 29.72423], [-97.46552, 29.72426], [-97.46614, 29.72429], [-97.46621, 29.72429], [-97.46671, 29.7243], [-97.46676, 29.72431], [-97.46738, 29.72432], [-97.46842, 29.72434], [-97.46883, 29.72435], [-97.47028, 29.72438], [-97.47106, 29.7244], [-97.47123, 29.7244], [-97.47215, 29.72443], [-97.47227, 29.72444], [-97.47235, 29.72444], [-97.47277, 29.72446], [-97.47289, 29.72446], [-97.4733, 29.72447], [-97.47339, 29.72448], [-97.47462, 29.72452], [-97.47467, 29.72452], [-97.47475, 29.72452], [-97.47484, 29.72453], [-97.47537, 29.72454], [-97.47546, 29.72455], [-97.47566, 29.72455], [-97.47579, 29.72456], [-97.47608, 29.72457], [-97.4762, 29.72457], [-97.47628, 29.72457], [-97.47765, 29.72461], [-97.47773, 29.72462], [-97.47835, 29.72464], [-97.47848, 29.72464], [-97.47882, 29.72465], [-97.48001, 29.7247], [-97.48013, 29.7247], [-97.48102, 29.72474], [-97.48107, 29.72474], [-97.48111, 29.72473], [-97.48115, 29.72472], [-97.48118, 29.72471], [-97.4812, 29.72469], [-97.48125, 29.72465], [-97.48127, 29.7246], [-97.48129, 29.72454], [-97.4813, 29.72446], [-97.48129, 29.72438], [-97.48129, 29.72431], [-97.48128, 29.7242], [-97.48128, 29.72418], [-97.48128, 29.72409], [-97.48127, 29.72394], [-97.48125, 29.72373], [-97.48124, 29.72363], [-97.48124, 29.72359], [-97.48124, 29.72348], [-97.48124, 29.72345], [-97.48124, 29.72341], [-97.48124, 29.72327], [-97.48124, 29.72306], [-97.48121, 29.72297], [-97.4812, 29.72261], [-97.4812, 29.72255], [-97.4812, 29.72228], [-97.48121, 29.7221], [-97.48122, 29.72174], [-97.48122, 29.72174], [-97.48122, 29.72126], [-97.48122, 29.72096], [-97.48122, 29.72085], [-97.48122, 29.72084], [-97.48122, 29.72075], [-97.48123, 29.72072], [-97.48124, 29.72064], [-97.48128, 29.72054]]}, "properties": {"surface": "two_track", "label": "Ranch two-track", "color": "#6B5A45", "miles": 7.14, "start_mi": 49.31, "end_mi": 56.45, "road": "County Road 443", "elev_ft": [429, 429, 429, 429, 429, 429, 429, 428, 428, 428, 427, 427, 426, 426, 426, 427, 426, 426, 426, 425, 425, 425, 424, 424, 424, 424, 423, 423, 423, 422, 422, 421, 421, 420, 416, 414, 413, 410, 409, 407, 404, 403, 402, 399, 398, 396, 395, 394, 393, 393, 392, 392, 391, 390, 390, 389, 389, 388, 388, 388, 389, 390, 392, 392, 395, 399, 405, 411, 414, 415, 419, 421, 423, 423, 424, 424, 427, 427, 428, 428, 427, 427, 427, 427, 427, 427, 427, 427, 428, 429, 429, 429, 430, 430, 430, 435, 435, 433, 431, 428, 424, 419, 418, 415, 415, 414, 413, 412, 408, 405, 403, 401, 400, 397, 393, 392, 392, 392, 396, 397, 399, 399, 402, 406, 409, 410, 413, 415, 416, 418, 418, 417, 417, 414, 413, 411, 410, 409, 406, 403, 397, 394, 393, 392, 385, 384, 383, 382, 381, 380, 380, 377, 375, 373, 373, 371, 371, 372, 373, 374, 375, 376, 380, 384, 384, 387, 389, 390, 393, 393, 402, 403, 405, 406, 407, 407, 405, 403, 399, 398, 398, 398, 398, 398, 398, 398, 396, 396, 395, 394, 393, 392, 392, 391, 390, 390, 389, 388, 388, 388, 387, 385, 384, 384, 383, 383, 383, 384, 384, 384, 384, 384, 384, 384, 384, 383, 383, 382, 385, 385, 386, 386, 386, 386, 387, 387, 388, 389, 391, 391, 391, 392, 393, 395, 395, 396, 397, 398, 398, 399, 399, 399, 399, 399, 399, 399, 399, 399, 399, 401, 403, 403, 402, 402, 402, 402, 402, 402, 402, 403, 404, 407, 410, 411, 413, 417, 420, 425, 427, 429, 431, 432, 433, 433, 434, 435, 436, 437, 437, 441, 442, 442, 443, 444, 444, 444, 439, 439, 440, 442, 443, 443, 443, 443, 443, 441, 441, 439, 428, 426, 423, 419, 409, 410, 412, 413, 420, 420, 420, 421, 421, 421, 421, 421, 421, 421, 424, 425, 425, 429, 429, 436, 437, 437, 441, 450, 451, 452, 452, 453, 453, 453, 455, 455, 454, 454, 450, 449, 439, 439, 438, 438, 438, 438, 437, 437, 437, 437, 436, 436, 435, 435, 434, 434, 433, 433, 432, 432, 429, 429, 429, 428, 428, 428, 429, 431, 432, 432, 439, 440, 441, 442, 442, 442, 442, 429, 428, 425, 424, 423, 418, 415, 414, 414, 412, 412, 408, 408, 407, 406, 406, 405, 402, 402, 401, 400, 411, 411, 410, 410, 410, 408, 408, 407, 407, 407, 407, 407, 407, 407, 406, 406, 411, 411, 415, 422, 424, 433, 439, 441, 451, 452, 453, 454, 454, 454, 453, 443, 443, 442, 442, 438, 437, 438, 438, 441, 442, 443, 459, 460, 464, 464, 462, 459, 460, 463, 463, 463, 463, 463, 463, 463, 462, 462, 461, 461, 460, 459, 459, 458, 457, 455, 454, 454, 453, 453, 453, 452, 451, 450, 443, 442, 438, 434, 429, 429, 424, 423, 422, 422, 422, 422, 422, 421]}}, {"type": "Feature", "geometry": {"type": "LineString", "coordinates": [[-97.48133, 29.72044], [-97.48133, 29.72043], [-97.48139, 29.72035], [-97.48193, 29.71977], [-97.48254, 29.71911], [-97.48269, 29.71896], [-97.48272, 29.71892], [-97.48284, 29.71879], [-97.48331, 29.71829], [-97.48357, 29.71798], [-97.48382, 29.71767], [-97.48384, 29.71763], [-97.48392, 29.71752], [-97.48395, 29.71748], [-97.48398, 29.71743], [-97.48402, 29.71736], [-97.48418, 29.7171], [-97.48421, 29.71704], [-97.48436, 29.71676], [-97.48447, 29.71654], [-97.48453, 29.71641], [-97.48461, 29.71621], [-97.48463, 29.71617], [-97.48467, 29.71604], [-97.48468, 29.716], [-97.48473, 29.71586], [-97.48476, 29.71574], [-97.48476, 29.71574], [-97.48483, 29.7155], [-97.48487, 29.7153], [-97.4849, 29.71516], [-97.48491, 29.71514], [-97.48491, 29.71512], [-97.48512, 29.71374], [-97.48513, 29.71369], [-97.48515, 29.71356], [-97.48516, 29.71351], [-97.48518, 29.71338], [-97.4852, 29.71326], [-97.48544, 29.71164], [-97.48554, 29.71094], [-97.48565, 29.71023], [-97.48571, 29.70989], [-97.48587, 29.70871], [-97.48599, 29.70801], [-97.486, 29.70791], [-97.48616, 29.70697], [-97.48619, 29.70674], [-97.48627, 29.70621], [-97.4863, 29.70603], [-97.48637, 29.70552], [-97.48638, 29.7055], [-97.48643, 29.70519], [-97.48649, 29.70493], [-97.48653, 29.70479], [-97.48658, 29.70467], [-97.48668, 29.70441], [-97.4868, 29.70416], [-97.48682, 29.70412], [-97.48686, 29.70406], [-97.48702, 29.70382], [-97.48714, 29.70366], [-97.48719, 29.7036], [-97.48726, 29.70351], [-97.48738, 29.70337], [-97.48758, 29.70316], [-97.48766, 29.70309], [-97.48778, 29.70299], [-97.48781, 29.70297], [-97.488, 29.70282], [-97.48824, 29.70266]]}, "properties": {"surface": "pavement", "label": "Pavement", "color": "#4A5568", "miles": 1.34, "start_mi": 56.45, "end_mi": 57.78, "road": "FM 1386", "elev_ft": [420, 420, 417, 431, 436, 435, 435, 435, 440, 440, 441, 441, 442, 442, 442, 443, 445, 445, 447, 448, 449, 451, 451, 451, 452, 451, 451, 451, 449, 448, 447, 447, 447, 442, 442, 442, 442, 442, 441, 440, 440, 440, 440, 440, 442, 442, 443, 443, 442, 441, 438, 438, 436, 434, 433, 432, 431, 429, 429, 428, 427, 427, 427, 427, 427, 428, 428, 430, 430, 431, 431]}}, {"type": "Feature", "geometry": {"type": "LineString", "coordinates": [[-97.48846, 29.70253], [-97.48846, 29.70253], [-97.48845, 29.7025], [-97.48841, 29.70246], [-97.48836, 29.70242], [-97.48829, 29.70241], [-97.48823, 29.70241], [-97.4882, 29.70241], [-97.488, 29.70242], [-97.48779, 29.70242], [-97.48759, 29.70243], [-97.48738, 29.70243], [-97.48676, 29.70245], [-97.48614, 29.70247], [-97.48596, 29.70247], [-97.4851, 29.70249], [-97.48492, 29.70249], [-97.48469, 29.7025], [-97.48469, 29.7025], [-97.48458, 29.70248], [-97.48451, 29.70245], [-97.48443, 29.7024], [-97.48437, 29.70235], [-97.4843, 29.70229], [-97.48426, 29.70224], [-97.48423, 29.70219], [-97.48421, 29.7021], [-97.4842, 29.70205], [-97.4842, 29.70186], [-97.4842, 29.70182], [-97.4842, 29.70112], [-97.48418, 29.70056], [-97.48418, 29.70042], [-97.48418, 29.70038], [-97.48417, 29.70002], [-97.48415, 29.69921], [-97.48415, 29.69912], [-97.48415, 29.69894], [-97.48416, 29.69827], [-97.48415, 29.69791], [-97.48415, 29.69786], [-97.48415, 29.69768], [-97.48414, 29.69755], [-97.48414, 29.6975], [-97.48413, 29.69732], [-97.48412, 29.69683], [-97.48412, 29.69681], [-97.48412, 29.69669], [-97.48412, 29.69647], [-97.48412, 29.69629], [-97.48412, 29.69611], [-97.48412, 29.69593], [-97.48411, 29.69492], [-97.48408, 29.69402], [-97.48407, 29.69341], [-97.48403, 29.69318], [-97.48403, 29.69304], [-97.48403, 29.69272], [-97.48403, 29.69268], [-97.48403, 29.69268], [-97.48403, 29.6925], [-97.48405, 29.69236], [-97.48405, 29.69231], [-97.48407, 29.69218], [-97.48408, 29.69215], [-97.48411, 29.69205], [-97.48413, 29.69201], [-97.48418, 29.69191], [-97.48427, 29.69181], [-97.48438, 29.69173], [-97.48453, 29.69161], [-97.48469, 29.69149], [-97.48484, 29.69137], [-97.485, 29.69125], [-97.48515, 29.69113], [-97.48524, 29.69106], [-97.48528, 29.69102], [-97.48528, 29.69102], [-97.4853, 29.691], [-97.48553, 29.69081], [-97.48576, 29.69064], [-97.48607, 29.6904], [-97.4862, 29.6903], [-97.48638, 29.69017], [-97.48663, 29.68999], [-97.48732, 29.68945], [-97.4876, 29.68923], [-97.48762, 29.68921], [-97.4877, 29.68915], [-97.48775, 29.68905], [-97.48769, 29.68891], [-97.48752, 29.68873], [-97.48741, 29.68863], [-97.48726, 29.68849], [-97.487, 29.68823], [-97.48677, 29.688], [-97.48606, 29.68731], [-97.48562, 29.68688], [-97.4852, 29.68646], [-97.48465, 29.68595], [-97.48459, 29.68586], [-97.4846, 29.68578], [-97.48461, 29.68576], [-97.48468, 29.6857], [-97.48474, 29.68566], [-97.48554, 29.68508], [-97.48569, 29.68496], [-97.48585, 29.68484], [-97.48632, 29.68449], [-97.4864, 29.68442], [-97.48667, 29.68423], [-97.48679, 29.68414], [-97.48679, 29.68414], [-97.4874, 29.68366], [-97.48756, 29.68354], [-97.48756, 29.68353], [-97.48819, 29.68307], [-97.48832, 29.68297], [-97.48834, 29.68295], [-97.48857, 29.68277], [-97.48883, 29.68257], [-97.48925, 29.68225], [-97.48929, 29.68221], [-97.48934, 29.68217], [-97.48944, 29.68209], [-97.4896, 29.68197], [-97.48979, 29.68181], [-97.4899, 29.68172], [-97.49013, 29.68154], [-97.49056, 29.6812], [-97.49067, 29.68112], [-97.49074, 29.68106], [-97.49103, 29.68083], [-97.49103, 29.68083], [-97.49159, 29.68039], [-97.49164, 29.68036], [-97.49174, 29.68027], [-97.49228, 29.67985], [-97.49261, 29.67958], [-97.49266, 29.67955], [-97.49271, 29.67951], [-97.49303, 29.67925], [-97.49313, 29.67919], [-97.49323, 29.67911], [-97.49363, 29.67888], [-97.49366, 29.67886], [-97.49368, 29.67884], [-97.49386, 29.67871], [-97.49395, 29.67865], [-97.49398, 29.67862], [-97.49409, 29.67851], [-97.49414, 29.67846], [-97.49433, 29.67828], [-97.49437, 29.67825], [-97.49455, 29.6781], [-97.4953, 29.67753], [-97.49545, 29.67741], [-97.49553, 29.67735], [-97.49561, 29.67729], [-97.49576, 29.67717], [-97.49581, 29.67713], [-97.49587, 29.67708], [-97.49591, 29.67705], [-97.49642, 29.67667], [-97.49654, 29.67658], [-97.49659, 29.67654], [-97.49669, 29.67646], [-97.49677, 29.6764], [-97.49685, 29.67634], [-97.4969, 29.67631], [-97.49701, 29.67623], [-97.4971, 29.67616], [-97.49716, 29.67611], [-97.49733, 29.67598], [-97.49746, 29.67586], [-97.49761, 29.67573], [-97.49781, 29.67555], [-97.49795, 29.67544], [-97.49803, 29.67537], [-97.49821, 29.67524], [-97.49828, 29.67518], [-97.49876, 29.67484], [-97.4989, 29.67474], [-97.49906, 29.67462], [-97.49922, 29.67451], [-97.49937, 29.6744], [-97.49938, 29.67439], [-97.49985, 29.67404], [-97.49992, 29.674], [-97.50007, 29.67388], [-97.50009, 29.67386], [-97.50011, 29.67384], [-97.50014, 29.67379], [-97.50016, 29.67374], [-97.50017, 29.67371], [-97.50018, 29.67368], [-97.50018, 29.67362], [-97.50017, 29.67355], [-97.49991, 29.67267], [-97.49986, 29.67245], [-97.49981, 29.67227], [-97.4998, 29.67222], [-97.49976, 29.67205], [-97.49956, 29.67122], [-97.49945, 29.67077], [-97.49935, 29.6704], [-97.49934, 29.67034], [-97.49933, 29.67029], [-97.49932, 29.67026], [-97.49933, 29.67021], [-97.49933, 29.67018], [-97.49934, 29.67016], [-97.49937, 29.6701], [-97.49944, 29.67005], [-97.49949, 29.67003], [-97.49954, 29.67002], [-97.49964, 29.67001], [-97.50004, 29.67001], [-97.50037, 29.67001], [-97.50044, 29.67001], [-97.50052, 29.66999], [-97.50059, 29.66994], [-97.50063, 29.66987], [-97.50064, 29.66983], [-97.50064, 29.66979], [-97.50062, 29.6697], [-97.50058, 29.66958], [-97.50049, 29.66936], [-97.50048, 29.66934], [-97.50057, 29.66916], [-97.50057, 29.66916], [-97.50096, 29.66907], [-97.50137, 29.66898], [-97.50157, 29.66893], [-97.50164, 29.66892], [-97.50168, 29.66891], [-97.50222, 29.66881], [-97.50227, 29.6688], [-97.50274, 29.66868], [-97.50317, 29.66859], [-97.50352, 29.66853], [-97.50395, 29.66844]]}, "properties": {"surface": "unknown", "label": "Unverified", "color": "#9A9389", "miles": 3.42, "start_mi": 57.78, "end_mi": 61.21, "road": "County Road 281", "elev_ft": [432, 432, 432, 433, 433, 434, 434, 434, 433, 432, 432, 431, 427, 425, 424, 419, 418, 418, 418, 418, 418, 417, 417, 417, 417, 418, 417, 417, 417, 417, 420, 424, 424, 424, 426, 427, 427, 427, 426, 423, 422, 420, 419, 418, 416, 407, 407, 405, 405, 406, 409, 411, 422, 427, 430, 434, 436, 437, 437, 437, 437, 436, 435, 434, 434, 433, 433, 432, 432, 431, 430, 427, 426, 427, 429, 431, 432, 432, 433, 439, 445, 446, 445, 443, 440, 433, 430, 430, 429, 429, 428, 427, 427, 426, 423, 420, 417, 413, 408, 409, 410, 410, 410, 409, 409, 408, 409, 409, 408, 408, 407, 407, 407, 404, 403, 403, 398, 396, 396, 392, 401, 413, 414, 415, 416, 417, 417, 417, 418, 422, 423, 424, 427, 427, 432, 432, 432, 434, 434, 434, 434, 434, 434, 434, 433, 433, 433, 432, 433, 433, 435, 435, 437, 437, 438, 448, 450, 451, 452, 452, 452, 452, 453, 450, 448, 448, 447, 445, 444, 444, 442, 442, 441, 441, 442, 443, 447, 449, 451, 453, 454, 460, 462, 464, 465, 466, 466, 465, 465, 465, 465, 465, 465, 465, 465, 465, 465, 465, 464, 464, 464, 464, 464, 463, 461, 460, 460, 460, 460, 460, 460, 460, 459, 459, 460, 460, 460, 463, 464, 464, 464, 465, 465, 465, 465, 464, 464, 464, 464, 464, 464, 464, 464, 464, 464, 464, 464, 464, 464, 464, 464, 463]}}]}