{"type": "FeatureCollection", "features": [{"type": "Feature", "geometry": {"type": "LineString", "coordinates": [[-97.50395, 29.66845], [-97.50437, 29.66835], [-97.50461, 29.66829], [-97.50477, 29.66827], [-97.50531, 29.66816], [-97.50585, 29.66804], [-97.50578, 29.66782], [-97.50578, 29.66782], [-97.50564, 29.66733], [-97.5056, 29.66707], [-97.50537, 29.66631]]}, "properties": {"surface": "unknown", "label": "Unverified", "color": "#9A9389", "miles": 0.24, "start_mi": 0.0, "end_mi": 0.24, "road": "North 2nd Street", "elev_ft": [463, 463, 464, 464, 464, 463, 463, 463, 463, 463, 463]}}, {"type": "Feature", "geometry": {"type": "LineString", "coordinates": [[-97.50532, 29.66606], [-97.50517, 29.66555], [-97.50501, 29.66504], [-97.50501, 29.66504], [-97.50477, 29.66417], [-97.50452, 29.66329], [-97.50427, 29.66242], [-97.50402, 29.66155], [-97.50378, 29.66068], [-97.50374, 29.66039], [-97.5037, 29.65982], [-97.50371, 29.65953], [-97.50375, 29.65925], [-97.50381, 29.65899], [-97.50402, 29.65824], [-97.50422, 29.65744], [-97.50431, 29.65696], [-97.5044, 29.65629], [-97.50449, 29.65554], [-97.50458, 29.6548], [-97.50467, 29.65405], [-97.50477, 29.6533], [-97.50479, 29.65295], [-97.50478, 29.65225], [-97.50476, 29.65209], [-97.50464, 29.65127], [-97.50452, 29.65045], [-97.5044, 29.64963], [-97.50428, 29.6488], [-97.50416, 29.64798], [-97.50404, 29.64716], [-97.50401, 29.64704], [-97.50395, 29.64687], [-97.50387, 29.64672], [-97.50376, 29.64658], [-97.50312, 29.64592], [-97.50248, 29.64526], [-97.50248, 29.64526], [-97.50206, 29.64483]]}, "properties": {"surface": "pavement", "label": "Pavement", "color": "#4A5568", "miles": 1.53, "start_mi": 0.24, "end_mi": 1.77, "road": "FM 794", "elev_ft": [463, 463, 460, 460, 453, 453, 451, 448, 442, 440, 438, 436, 435, 434, 434, 433, 429, 425, 421, 421, 421, 416, 414, 415, 414, 409, 404, 402, 396, 393, 391, 391, 391, 390, 389, 386, 383, 383, 385]}}, {"type": "Feature", "geometry": {"type": "LineString", "coordinates": [[-97.50165, 29.6444], [-97.50228, 29.64392], [-97.50292, 29.64343], [-97.50355, 29.64295], [-97.50355, 29.64295], [-97.50425, 29.64242], [-97.50495, 29.64189], [-97.50564, 29.64135], [-97.50622, 29.64095], [-97.50638, 29.64083], [-97.50619, 29.64063], [-97.50582, 29.64028], [-97.50544, 29.63989], [-97.50495, 29.6394], [-97.50446, 29.63892], [-97.50398, 29.63848], [-97.50346, 29.63803], [-97.50303, 29.63762], [-97.50259, 29.63722], [-97.50208, 29.63673], [-97.50157, 29.63624], [-97.50106, 29.63575], [-97.5005, 29.6352], [-97.50037, 29.63505], [-97.50028, 29.63491], [-97.50022, 29.63477], [-97.50019, 29.63463], [-97.50019, 29.63457], [-97.50022, 29.6345], [-97.50028, 29.63444], [-97.50044, 29.63431], [-97.50082, 29.63404], [-97.50159, 29.63345], [-97.50236, 29.63286], [-97.50307, 29.63231], [-97.50378, 29.63176], [-97.50449, 29.63121], [-97.50452, 29.63117], [-97.50453, 29.63113], [-97.50452, 29.63105], [-97.50451, 29.631], [-97.50444, 29.63091], [-97.50432, 29.63075], [-97.50392, 29.63031], [-97.50396, 29.63028], [-97.50403, 29.6302], [-97.50427, 29.63], [-97.50471, 29.62966], [-97.50514, 29.62933], [-97.50582, 29.62881], [-97.50649, 29.62829], [-97.50717, 29.62777], [-97.50751, 29.6275], [-97.50774, 29.62729], [-97.50786, 29.62714], [-97.50812, 29.62654], [-97.50822, 29.62618], [-97.50836, 29.62572], [-97.5085, 29.62527], [-97.50854, 29.62517], [-97.50861, 29.62501], [-97.50892, 29.62443], [-97.50903, 29.62422], [-97.50934, 29.62346], [-97.50966, 29.62271], [-97.50982, 29.62226], [-97.50996, 29.62175], [-97.5101, 29.62117], [-97.51024, 29.62059], [-97.51032, 29.62034], [-97.51042, 29.62009], [-97.51064, 29.61965], [-97.51086, 29.61921], [-97.51124, 29.61845], [-97.51163, 29.6177], [-97.51202, 29.61695], [-97.5124, 29.61619], [-97.51279, 29.61544], [-97.51283, 29.61533], [-97.51284, 29.61529], [-97.51283, 29.61524], [-97.51282, 29.6152], [-97.51275, 29.61512], [-97.51224, 29.61462], [-97.51174, 29.61411], [-97.51145, 29.61384], [-97.51137, 29.61372], [-97.51134, 29.61367], [-97.51133, 29.61362], [-97.51134, 29.61356], [-97.51137, 29.61351], [-97.51141, 29.61346], [-97.51153, 29.61336], [-97.51231, 29.6128], [-97.51295, 29.61231], [-97.51359, 29.61182], [-97.51412, 29.61143], [-97.51466, 29.61103], [-97.51522, 29.61062], [-97.51584, 29.61016], [-97.51646, 29.60969], [-97.51708, 29.60922], [-97.5171, 29.60917], [-97.51711, 29.60911], [-97.5171, 29.60906], [-97.51707, 29.60901], [-97.5169, 29.60883], [-97.51682, 29.60873], [-97.51678, 29.60864], [-97.51677, 29.6086], [-97.51678, 29.6085], [-97.51682, 29.60841], [-97.51689, 29.6083], [-97.51699, 29.60817], [-97.51709, 29.60807], [-97.51713, 29.60804], [-97.51723, 29.60799], [-97.51735, 29.60794], [-97.51796, 29.60774], [-97.51816, 29.60766], [-97.51837, 29.60754], [-97.51849, 29.60744], [-97.5186, 29.60734], [-97.51874, 29.60719], [-97.51885, 29.60703], [-97.51894, 29.60686], [-97.51901, 29.60668], [-97.51906, 29.60648], [-97.51912, 29.60613], [-97.51918, 29.6055], [-97.51923, 29.60487], [-97.51927, 29.60465], [-97.51945, 29.60408], [-97.51963, 29.60351], [-97.51986, 29.60266], [-97.51999, 29.60218], [-97.52013, 29.6017], [-97.52024, 29.60138], [-97.52043, 29.6009], [-97.52048, 29.60081], [-97.52053, 29.60075], [-97.52059, 29.60068], [-97.52072, 29.60058], [-97.52086, 29.60049], [-97.52121, 29.60032], [-97.52135, 29.60024], [-97.52149, 29.60014], [-97.52155, 29.60008], [-97.52166, 29.59996], [-97.52195, 29.59954], [-97.52224, 29.59912], [-97.52247, 29.59877], [-97.52279, 29.59821], [-97.52312, 29.59765], [-97.52322, 29.59746], [-97.52325, 29.59737], [-97.52328, 29.59728], [-97.52329, 29.59719], [-97.52329, 29.5971], [-97.52317, 29.59642], [-97.52306, 29.59574], [-97.523, 29.59514], [-97.523, 29.59514], [-97.52297, 29.59493], [-97.52294, 29.59481], [-97.52284, 29.59456], [-97.5227, 29.59433], [-97.52244, 29.59391], [-97.52236, 29.59373], [-97.5223, 29.59354], [-97.52222, 29.59279], [-97.52218, 29.59253], [-97.52212, 29.59227], [-97.52204, 29.592], [-97.52185, 29.59145], [-97.52154, 29.59064], [-97.52146, 29.59037], [-97.52145, 29.59029], [-97.52146, 29.59021], [-97.52148, 29.59014], [-97.52152, 29.59007], [-97.52205, 29.58938], [-97.52148, 29.58896], [-97.52092, 29.58854], [-97.52035, 29.58812], [-97.51988, 29.58777], [-97.51948, 29.58748], [-97.51908, 29.58719], [-97.51866, 29.58687], [-97.51824, 29.58655], [-97.51811, 29.58648], [-97.51802, 29.58645], [-97.51794, 29.58644], [-97.51785, 29.58644], [-97.51756, 29.58648], [-97.5174, 29.58651], [-97.51723, 29.58658], [-97.51714, 29.58663], [-97.51706, 29.58669], [-97.5169, 29.58684], [-97.51637, 29.58742], [-97.51603, 29.58777], [-97.5157, 29.58812], [-97.51514, 29.58871], [-97.51458, 29.58929], [-97.51401, 29.58988], [-97.51352, 29.5904], [-97.51303, 29.59093], [-97.51254, 29.59145], [-97.51189, 29.59212], [-97.51125, 29.59279], [-97.5106, 29.59346], [-97.51015, 29.59394], [-97.50969, 29.59442], [-97.50924, 29.5949], [-97.50876, 29.59539], [-97.50828, 29.59589], [-97.5078, 29.59639], [-97.50733, 29.59688], [-97.50687, 29.59738], [-97.50633, 29.59796], [-97.5058, 29.59854], [-97.50518, 29.59917], [-97.505, 29.59933], [-97.5051, 29.59956], [-97.50526, 29.59985], [-97.5055, 29.60031], [-97.50575, 29.60076], [-97.50615, 29.60153], [-97.50654, 29.60224], [-97.50693, 29.60295], [-97.50703, 29.60317], [-97.50726, 29.60395], [-97.50752, 29.60475], [-97.50756, 29.60491], [-97.50756, 29.60498], [-97.50754, 29.60505], [-97.50751, 29.60511], [-97.50747, 29.60516], [-97.50741, 29.60521], [-97.50734, 29.60526], [-97.50681, 29.60556], [-97.50629, 29.60585], [-97.50573, 29.60615], [-97.50518, 29.60646], [-97.50493, 29.60661], [-97.50486, 29.60666], [-97.50474, 29.60679], [-97.50454, 29.60708], [-97.50442, 29.60722], [-97.50435, 29.60728], [-97.50397, 29.60749], [-97.50385, 29.60755], [-97.50357, 29.60767], [-97.5034, 29.60772], [-97.50251, 29.608], [-97.50233, 29.60806], [-97.50214, 29.60815], [-97.50158, 29.60843], [-97.50132, 29.60854], [-97.501, 29.60863], [-97.50059, 29.60871], [-97.5003, 29.60876], [-97.50006, 29.60882], [-97.49963, 29.60895], [-97.49887, 29.60918], [-97.49825, 29.60939], [-97.4976, 29.60959], [-97.49733, 29.60969], [-97.49662, 29.60993], [-97.49591, 29.61017], [-97.4952, 29.61041], [-97.49434, 29.61071], [-97.49347, 29.61101], [-97.49273, 29.61129], [-97.49197, 29.61157], [-97.49108, 29.61188], [-97.4902, 29.61218], [-97.4902, 29.61218], [-97.48955, 29.61241], [-97.4889, 29.61263], [-97.48866, 29.6127], [-97.48842, 29.61274], [-97.48819, 29.61274], [-97.48803, 29.61273], [-97.48785, 29.61269], [-97.48774, 29.61266], [-97.48761, 29.6126], [-97.4874, 29.61247], [-97.4867, 29.61197], [-97.486, 29.61147], [-97.4853, 29.61097], [-97.4846, 29.61047], [-97.4839, 29.60997], [-97.48335, 29.60957], [-97.48279, 29.60916], [-97.48265, 29.60908], [-97.48258, 29.60906], [-97.48251, 29.60905], [-97.48244, 29.60905], [-97.48238, 29.60906], [-97.48231, 29.6091], [-97.48225, 29.60915], [-97.48167, 29.60977], [-97.48109, 29.6104], [-97.48051, 29.61103], [-97.47992, 29.61166], [-97.47934, 29.61229], [-97.47876, 29.61291], [-97.47839, 29.6133], [-97.47803, 29.61369], [-97.47797, 29.61375]]}, "properties": {"surface": "unknown", "label": "Unverified", "color": "#9A9389", "miles": 8.81, "start_mi": 1.77, "end_mi": 10.58, "road": "County Road 232", "elev_ft": [388, 387, 386, 385, 385, 384, 379, 376, 378, 379, 376, 372, 376, 384, 395, 405, 408, 402, 398, 393, 388, 384, 380, 379, 379, 379, 379, 379, 379, 379, 379, 379, 383, 385, 387, 389, 387, 387, 387, 387, 387, 388, 388, 391, 391, 391, 393, 397, 395, 391, 396, 402, 404, 404, 404, 404, 404, 399, 396, 396, 396, 398, 399, 407, 413, 413, 412, 411, 408, 405, 402, 397, 393, 389, 394, 398, 401, 399, 398, 398, 397, 397, 397, 393, 389, 386, 385, 384, 384, 383, 383, 383, 383, 383, 382, 375, 370, 366, 369, 373, 374, 373, 372, 372, 372, 371, 369, 369, 368, 368, 367, 367, 366, 366, 366, 366, 366, 366, 368, 368, 368, 367, 367, 367, 366, 365, 364, 364, 363, 360, 355, 353, 350, 346, 342, 340, 337, 337, 337, 337, 337, 338, 338, 339, 341, 341, 342, 342, 344, 349, 356, 361, 363, 360, 363, 364, 365, 366, 367, 370, 372, 374, 374, 374, 374, 373, 373, 375, 375, 374, 365, 361, 359, 358, 355, 355, 357, 358, 359, 360, 361, 361, 357, 350, 343, 330, 320, 315, 313, 312, 311, 311, 312, 312, 319, 321, 321, 322, 322, 322, 330, 341, 342, 342, 335, 323, 324, 338, 357, 362, 366, 369, 369, 369, 369, 369, 369, 369, 368, 369, 367, 369, 381, 380, 378, 371, 368, 365, 359, 359, 362, 361, 356, 352, 351, 350, 350, 349, 349, 348, 348, 347, 347, 349, 351, 351, 351, 351, 353, 354, 354, 354, 355, 355, 356, 359, 360, 360, 360, 362, 363, 366, 368, 369, 370, 375, 379, 385, 387, 391, 391, 390, 392, 395, 399, 406, 417, 429, 429, 432, 426, 422, 420, 418, 418, 418, 419, 420, 423, 428, 429, 427, 423, 420, 418, 417, 418, 418, 419, 419, 420, 420, 420, 427, 431, 433, 437, 441, 443, 443, 444, 444]}}, {"type": "Feature", "geometry": {"type": "LineString", "coordinates": [[-97.47785, 29.61361], [-97.4777, 29.6134], [-97.47757, 29.61317], [-97.47725, 29.6125], [-97.47693, 29.61183], [-97.4766, 29.61115], [-97.47628, 29.61048], [-97.47601, 29.60966], [-97.47593, 29.60939], [-97.47583, 29.60898]]}, "properties": {"surface": "pavement", "label": "Pavement", "color": "#4A5568", "miles": 0.34, "start_mi": 10.58, "end_mi": 10.92, "road": "FM 794", "elev_ft": [442, 441, 440, 435, 432, 432, 441, 442, 441, 440]}}, {"type": "Feature", "geometry": {"type": "LineString", "coordinates": [[-97.47574, 29.60898], [-97.47568, 29.60897], [-97.47563, 29.60895], [-97.47552, 29.60889], [-97.47472, 29.60832], [-97.47393, 29.60775], [-97.47347, 29.60742], [-97.47335, 29.6073], [-97.47329, 29.60731], [-97.47322, 29.6073], [-97.47314, 29.60731], [-97.47307, 29.60734], [-97.473, 29.60738], [-97.47287, 29.6075], [-97.47236, 29.60807], [-97.47185, 29.60863], [-97.47134, 29.6092], [-97.47083, 29.60977], [-97.47031, 29.61034], [-97.46982, 29.61087], [-97.46933, 29.6114], [-97.46881, 29.61196], [-97.4683, 29.61251], [-97.46805, 29.61276], [-97.4677, 29.61317], [-97.46724, 29.61366], [-97.46688, 29.61406], [-97.46652, 29.61446], [-97.46617, 29.61483], [-97.46583, 29.61521], [-97.4655, 29.61558], [-97.46518, 29.61594], [-97.46481, 29.61634], [-97.46444, 29.61673], [-97.464, 29.61724], [-97.46353, 29.6177], [-97.46318, 29.61807], [-97.46284, 29.61844], [-97.46284, 29.61844], [-97.46228, 29.61903], [-97.46172, 29.61962], [-97.46114, 29.62024], [-97.46057, 29.62087], [-97.46, 29.62149], [-97.4599, 29.62156], [-97.45984, 29.62158], [-97.45978, 29.62158], [-97.4597, 29.62157], [-97.45963, 29.62154], [-97.45956, 29.6215], [-97.45886, 29.62101], [-97.45815, 29.62051], [-97.45761, 29.62014], [-97.45706, 29.61976], [-97.45651, 29.61939], [-97.45639, 29.61932], [-97.45623, 29.61926], [-97.45613, 29.61924], [-97.45604, 29.61922], [-97.45584, 29.61922], [-97.45506, 29.61923], [-97.45415, 29.61923], [-97.45323, 29.61923], [-97.45232, 29.61923], [-97.4518, 29.61923], [-97.45129, 29.61924], [-97.45044, 29.61923], [-97.44966, 29.61924], [-97.44911, 29.61924], [-97.44857, 29.61923], [-97.44798, 29.61924], [-97.4474, 29.61924], [-97.44659, 29.61923], [-97.4459, 29.61923], [-97.4459, 29.62012], [-97.44591, 29.62101], [-97.44591, 29.6219], [-97.44591, 29.62279], [-97.44592, 29.62368], [-97.44592, 29.62457], [-97.44592, 29.62546], [-97.44593, 29.62635], [-97.44592, 29.62702], [-97.44592, 29.62769], [-97.44592, 29.62836], [-97.44593, 29.62918], [-97.44594, 29.63], [-97.44531, 29.62999], [-97.44449, 29.63], [-97.44367, 29.63], [-97.44285, 29.63001], [-97.44196, 29.63002], [-97.44134, 29.63003], [-97.44072, 29.63003], [-97.44059, 29.63004], [-97.44053, 29.63005], [-97.44048, 29.63008], [-97.44044, 29.63012], [-97.44041, 29.63017], [-97.44038, 29.63029], [-97.44039, 29.63086], [-97.4404, 29.63143], [-97.44039, 29.63227], [-97.44039, 29.6331], [-97.44039, 29.63394], [-97.44039, 29.63478], [-97.44039, 29.63562], [-97.44039, 29.63608], [-97.44038, 29.63654], [-97.44039, 29.6374], [-97.44039, 29.63825], [-97.4404, 29.6391], [-97.44039, 29.63973], [-97.44039, 29.64036], [-97.44038, 29.64112], [-97.44037, 29.64187], [-97.4404, 29.64233], [-97.44041, 29.64278], [-97.4404, 29.64365], [-97.4404, 29.64452], [-97.4404, 29.64538], [-97.4404, 29.64625], [-97.4404, 29.64712], [-97.44039, 29.64799], [-97.4404, 29.64862], [-97.4404, 29.64926], [-97.4404, 29.64926], [-97.4404, 29.65005], [-97.4404, 29.65083], [-97.4404, 29.65162], [-97.4404, 29.65185], [-97.44044, 29.65224]]}, "properties": {"surface": "unknown", "label": "Unverified", "color": "#9A9389", "miles": 4.97, "start_mi": 10.92, "end_mi": 15.89, "road": "County Road 284", "elev_ft": [440, 440, 440, 440, 446, 447, 445, 445, 445, 444, 444, 444, 444, 444, 444, 439, 435, 432, 433, 430, 428, 432, 432, 431, 428, 429, 433, 438, 439, 438, 436, 429, 431, 437, 441, 446, 448, 448, 448, 452, 456, 455, 449, 445, 444, 444, 443, 442, 442, 441, 433, 430, 431, 432, 428, 427, 427, 428, 428, 429, 432, 430, 427, 422, 419, 416, 428, 427, 423, 411, 422, 428, 435, 438, 441, 438, 437, 438, 438, 436, 438, 444, 448, 453, 453, 450, 444, 442, 439, 437, 435, 435, 437, 439, 439, 439, 439, 439, 440, 440, 443, 445, 447, 444, 443, 442, 436, 435, 433, 437, 444, 446, 446, 441, 432, 428, 432, 435, 441, 442, 439, 432, 433, 437, 442, 441, 441, 437, 434, 435, 435, 437]}}, {"type": "Feature", "geometry": {"type": "LineString", "coordinates": [[-97.44072, 29.65223], [-97.44156, 29.65222], [-97.44239, 29.6522], [-97.44284, 29.65221], [-97.44364, 29.65219], [-97.44445, 29.65217], [-97.445, 29.65215], [-97.44555, 29.65213], [-97.44653, 29.65212], [-97.44751, 29.65211], [-97.44849, 29.6521], [-97.44951, 29.65211], [-97.45052, 29.65211], [-97.45155, 29.65212], [-97.45258, 29.65212], [-97.4536, 29.65213], [-97.45463, 29.65213], [-97.45533, 29.65215], [-97.45602, 29.65216], [-97.45671, 29.65217], [-97.45745, 29.65217], [-97.45818, 29.65217], [-97.45891, 29.65217], [-97.45979, 29.65218], [-97.46067, 29.65219], [-97.46085, 29.65218], [-97.46101, 29.65216], [-97.46109, 29.65214], [-97.46123, 29.65209], [-97.46136, 29.65202], [-97.46159, 29.65188], [-97.46219, 29.65145], [-97.46279, 29.65102], [-97.46319, 29.65072], [-97.46333, 29.65061], [-97.46346, 29.65049], [-97.46367, 29.65024], [-97.46377, 29.65016], [-97.46398, 29.65002], [-97.46413, 29.64991], [-97.46461, 29.64952], [-97.46536, 29.64895], [-97.46611, 29.64838], [-97.46683, 29.64782], [-97.46755, 29.64725], [-97.46766, 29.64719], [-97.46774, 29.64717], [-97.46781, 29.6472], [-97.46788, 29.64726], [-97.46844, 29.64795], [-97.469, 29.64863], [-97.46948, 29.6492], [-97.46981, 29.64958], [-97.46981, 29.64958], [-97.46981, 29.64958]]}, "properties": {"surface": "two_track", "label": "Ranch two-track", "color": "#6B5A45", "miles": 1.96, "start_mi": 15.89, "end_mi": 17.85, "road": "County Road 283", "elev_ft": [439, 426, 410, 413, 417, 412, 412, 424, 439, 445, 459, 462, 466, 466, 457, 448, 438, 436, 431, 428, 420, 413, 411, 424, 432, 433, 433, 433, 433, 434, 434, 434, 434, 431, 431, 431, 431, 431, 430, 431, 436, 444, 448, 449, 456, 457, 458, 458, 457, 453, 449, 448, 453, 453, 453]}}, {"type": "Feature", "geometry": {"type": "LineString", "coordinates": [[-97.47024, 29.65007], [-97.47062, 29.65048], [-97.47127, 29.65114], [-97.47168, 29.65155], [-97.47208, 29.65196], [-97.47265, 29.65257], [-97.47321, 29.65319], [-97.47339, 29.65338], [-97.47375, 29.65379], [-97.47421, 29.65427], [-97.47467, 29.65474], [-97.47514, 29.65522], [-97.47551, 29.65556], [-97.47604, 29.65604], [-97.47656, 29.65651], [-97.47666, 29.65659], [-97.47673, 29.65662], [-97.47678, 29.65664], [-97.47692, 29.65664], [-97.47738, 29.65656], [-97.47761, 29.65654], [-97.47798, 29.65653], [-97.4782, 29.65654], [-97.47869, 29.65661], [-97.47936, 29.65671], [-97.48002, 29.65682], [-97.48077, 29.65692], [-97.48151, 29.65702], [-97.48226, 29.65714], [-97.48273, 29.6572], [-97.48297, 29.65721], [-97.48309, 29.65721], [-97.48335, 29.6572], [-97.48362, 29.65717], [-97.48414, 29.65709], [-97.48467, 29.657], [-97.48484, 29.657], [-97.48492, 29.657], [-97.485, 29.65702], [-97.48507, 29.65705], [-97.48514, 29.65709], [-97.48527, 29.65719], [-97.48546, 29.65736], [-97.48586, 29.65775], [-97.48626, 29.65813], [-97.48688, 29.65875], [-97.4875, 29.65937], [-97.48809, 29.65995], [-97.48868, 29.66053], [-97.48927, 29.66111], [-97.48986, 29.66169], [-97.49045, 29.66227], [-97.49099, 29.66283], [-97.4911, 29.66291], [-97.49116, 29.66294], [-97.49122, 29.66295], [-97.49128, 29.66295], [-97.49133, 29.66294], [-97.49139, 29.66293], [-97.49145, 29.66289], [-97.49157, 29.66281], [-97.492, 29.66247], [-97.492, 29.66247], [-97.49255, 29.66204], [-97.4926, 29.66201], [-97.49266, 29.66199], [-97.49271, 29.66199], [-97.49279, 29.662], [-97.49285, 29.66204], [-97.49289, 29.66208], [-97.49298, 29.66219], [-97.49348, 29.66292], [-97.49388, 29.66349], [-97.49442, 29.66423], [-97.49496, 29.66498], [-97.49529, 29.66543], [-97.49532, 29.66548], [-97.49532, 29.66559], [-97.49536, 29.66569], [-97.4955, 29.66586], [-97.49567, 29.66598], [-97.49578, 29.66604], [-97.49585, 29.66606], [-97.4961, 29.66624], [-97.49635, 29.66638], [-97.49678, 29.6666], [-97.49696, 29.66667], [-97.49701, 29.66668], [-97.49706, 29.66667], [-97.49727, 29.66657], [-97.49738, 29.66653], [-97.49746, 29.66652], [-97.49754, 29.66652], [-97.49798, 29.66662], [-97.49859, 29.66678], [-97.49871, 29.6668], [-97.49884, 29.6668], [-97.49896, 29.66679], [-97.49914, 29.66674], [-97.49954, 29.66662], [-97.49965, 29.66659], [-97.49978, 29.66658], [-97.49993, 29.66658], [-97.50001, 29.66661], [-97.50005, 29.66667], [-97.50006, 29.66672], [-97.50006, 29.66672], [-97.50019, 29.6672], [-97.4999, 29.66726], [-97.49992, 29.6673], [-97.5, 29.66765], [-97.50015, 29.66823], [-97.50036, 29.66892], [-97.50036, 29.66892], [-97.50039, 29.66901], [-97.50044, 29.66907], [-97.50049, 29.6691], [-97.50056, 29.66913], [-97.50071, 29.66913], [-97.50133, 29.669], [-97.50195, 29.66885], [-97.50195, 29.66885], [-97.50214, 29.6688], [-97.50286, 29.66866], [-97.50286, 29.66866], [-97.5032, 29.66859], [-97.50348, 29.66855], [-97.50395, 29.66845]]}, "properties": {"surface": "unknown", "label": "Unverified", "color": "#9A9389", "miles": 2.79, "start_mi": 17.85, "end_mi": 20.64, "road": "County Road 283", "elev_ft": [454, 448, 443, 440, 437, 433, 426, 422, 427, 433, 436, 440, 442, 438, 433, 432, 431, 431, 432, 432, 433, 433, 432, 432, 436, 437, 438, 447, 450, 455, 456, 457, 457, 457, 456, 455, 454, 454, 454, 454, 453, 453, 451, 446, 443, 447, 449, 448, 443, 438, 434, 434, 436, 437, 437, 437, 438, 438, 438, 438, 438, 435, 435, 432, 432, 432, 432, 432, 432, 432, 432, 433, 438, 441, 447, 450, 450, 450, 450, 451, 451, 451, 451, 451, 451, 452, 452, 452, 452, 452, 451, 451, 450, 450, 450, 451, 451, 451, 451, 452, 452, 452, 452, 452, 452, 453, 453, 455, 454, 455, 456, 460, 463, 463, 463, 463, 463, 464, 464, 464, 464, 464, 464, 464, 464, 464, 464, 463]}}]}