{"type": "FeatureCollection", "features": [{"type": "Feature", "geometry": {"type": "LineString", "coordinates": [[-96.86494, 30.70675], [-96.86499, 30.70669], [-96.8651, 30.7066], [-96.86533, 30.70647], [-96.86559, 30.70636], [-96.86568, 30.70633], [-96.86585, 30.70623], [-96.86585, 30.70623], [-96.86588, 30.7062], [-96.86588, 30.7062], [-96.8658899, 30.70622], [-96.86628, 30.70606], [-96.8664, 30.70601], [-96.86733, 30.70563], [-96.86739, 30.7056], [-96.8677, 30.70548], [-96.86882, 30.70505], [-96.8692499, 30.70488], [-96.87014, 30.70455]]}, "properties": {"surface": "two_track", "label": "Ranch two-track", "color": "#6B5A45", "miles": 0.35, "start_mi": 0.0, "end_mi": 0.35, "road": "", "elev_ft": [493, 494, 494, 495, 496, 496, 497, 497, 497, 497, 497, 496, 495, 489, 489, 489, 496, 496, 496]}}, {"type": "Feature", "geometry": {"type": "LineString", "coordinates": [[-96.87088, 30.70428], [-96.87088, 30.70428], [-96.87076, 30.70405], [-96.87052, 30.70356], [-96.8702, 30.70289], [-96.87012, 30.70273], [-96.87005, 30.70259], [-96.87004, 30.70256], [-96.8698, 30.70206], [-96.86972, 30.70189], [-96.86964, 30.70173], [-96.86948, 30.70139], [-96.86946, 30.70136], [-96.8693399, 30.70106], [-96.86919, 30.70072], [-96.86903, 30.70035], [-96.8689, 30.70006], [-96.8686, 30.69939], [-96.86853, 30.69922], [-96.86843, 30.69901], [-96.86811, 30.69821], [-96.86805, 30.69803], [-96.86791, 30.69769], [-96.86784, 30.69752], [-96.86778, 30.69735], [-96.86776, 30.69731], [-96.86703, 30.69548], [-96.86685, 30.69505], [-96.8668299, 30.69489], [-96.86686, 30.69479], [-96.86688, 30.69472], [-96.8670099, 30.6946], [-96.86714, 30.69455], [-96.86732, 30.69447], [-96.86764, 30.69438], [-96.8678599, 30.69432], [-96.86792, 30.69431], [-96.86825, 30.69424], [-96.86853, 30.69418], [-96.86881, 30.69407], [-96.869, 30.69398], [-96.8691, 30.69395], [-96.86914, 30.69393], [-96.86937, 30.69383], [-96.86955, 30.69369], [-96.86964, 30.69363], [-96.86969, 30.69355], [-96.8697, 30.69349], [-96.86971, 30.69336], [-96.86967, 30.69325], [-96.86939, 30.69264], [-96.86923, 30.69231], [-96.8692, 30.69223], [-96.86908, 30.69197], [-96.86901, 30.6918], [-96.86872, 30.69113], [-96.86847, 30.69044], [-96.86824, 30.68994], [-96.86806, 30.68954], [-96.86776, 30.68868], [-96.86748, 30.68805], [-96.86733, 30.68772], [-96.8670999, 30.68722], [-96.86688, 30.68688], [-96.8666, 30.68628], [-96.86642, 30.68581], [-96.86599, 30.68479], [-96.86564, 30.68395], [-96.8648, 30.68191], [-96.86445, 30.68107], [-96.86424, 30.68056], [-96.86403, 30.68005], [-96.86381, 30.67954], [-96.86318, 30.67802], [-96.8629, 30.67734], [-96.86284, 30.67718], [-96.86283, 30.67717], [-96.86273, 30.67694], [-96.86268, 30.67683], [-96.86239, 30.67616], [-96.86232, 30.67599], [-96.86211, 30.67549], [-96.8619, 30.67498], [-96.86148, 30.67396], [-96.86113, 30.67311], [-96.86082, 30.67235], [-96.86078, 30.67227], [-96.86064, 30.67193], [-96.86057, 30.67176], [-96.86042, 30.67142], [-96.85999, 30.67041], [-96.85964, 30.66956], [-96.85956, 30.66939], [-96.8595, 30.66922], [-96.85936, 30.66888], [-96.8592199, 30.66854], [-96.85908, 30.66821], [-96.85894, 30.66787], [-96.85873, 30.66736], [-96.85859, 30.66702], [-96.85852, 30.66685], [-96.85841, 30.66658], [-96.85827, 30.66624], [-96.85806, 30.66573], [-96.85795, 30.66546], [-96.85786, 30.66523], [-96.8578, 30.6651], [-96.8576, 30.66465], [-96.85756, 30.66456], [-96.85741, 30.66422], [-96.8572, 30.66371], [-96.85699, 30.66321], [-96.8569, 30.66301], [-96.85684, 30.66287], [-96.8567, 30.66253], [-96.85656, 30.66219], [-96.85635, 30.66168], [-96.85621, 30.66135], [-96.85607, 30.66102], [-96.85606, 30.66101], [-96.85595, 30.6607], [-96.85586, 30.6605], [-96.8556399, 30.65999], [-96.85542, 30.65949], [-96.85527, 30.65915], [-96.85483, 30.65814], [-96.85438, 30.65709], [-96.85424, 30.65679], [-96.85414, 30.65658], [-96.85404, 30.65637], [-96.85401, 30.65629], [-96.85397, 30.65617], [-96.8539, 30.65585], [-96.85391, 30.65541], [-96.85396, 30.65523], [-96.8543, 30.654], [-96.85441, 30.6536], [-96.85466, 30.65297], [-96.85471, 30.65285], [-96.85492, 30.6521], [-96.85508, 30.65153], [-96.85529, 30.65115], [-96.85542, 30.65087], [-96.85542, 30.65066], [-96.85534, 30.65039], [-96.85533, 30.65034], [-96.85494, 30.64936], [-96.85467, 30.64868], [-96.85446, 30.64817], [-96.85415, 30.64738], [-96.85413, 30.64732], [-96.85352, 30.64587], [-96.8534899, 30.64575], [-96.85347, 30.64566], [-96.85348, 30.6456], [-96.8534899, 30.64556]]}, "properties": {"surface": "caliche", "label": "Caliche / gravel", "color": "#C98A24", "miles": 4.41, "start_mi": 0.35, "end_mi": 4.76, "road": "County Road 330", "elev_ft": [493, 493, 490, 487, 481, 482, 483, 484, 492, 492, 492, 491, 491, 485, 480, 484, 486, 486, 485, 484, 470, 469, 459, 455, 461, 461, 496, 504, 505, 506, 507, 507, 507, 507, 505, 504, 503, 506, 505, 501, 499, 499, 500, 502, 503, 503, 503, 503, 504, 506, 517, 522, 523, 523, 522, 517, 509, 507, 505, 505, 504, 503, 498, 499, 502, 502, 490, 485, 493, 493, 493, 492, 484, 449, 432, 423, 423, 420, 425, 438, 439, 432, 440, 447, 462, 486, 489, 493, 492, 488, 460, 449, 447, 444, 440, 442, 451, 463, 485, 492, 494, 493, 488, 484, 482, 478, 474, 457, 453, 446, 453, 469, 473, 474, 472, 472, 460, 441, 439, 439, 439, 441, 454, 471, 481, 474, 487, 491, 492, 493, 493, 494, 495, 496, 494, 502, 503, 506, 507, 516, 528, 538, 543, 547, 553, 554, 572, 577, 581, 571, 571, 556, 554, 553, 553, 552]}}, {"type": "Feature", "geometry": {"type": "LineString", "coordinates": [[-96.85355, 30.64548], [-96.85363, 30.64543], [-96.85374, 30.64539], [-96.85419, 30.64533], [-96.85543, 30.64517], [-96.85667, 30.64501], [-96.85714, 30.64496], [-96.85729, 30.64492], [-96.8579, 30.6448], [-96.8579, 30.6448], [-96.8579, 30.6447], [-96.85783, 30.64459], [-96.85778, 30.64454], [-96.85751, 30.64427], [-96.85729, 30.64396], [-96.85717, 30.64379], [-96.85708, 30.64364], [-96.85685, 30.64324], [-96.8561, 30.6421], [-96.85607, 30.64207], [-96.85591, 30.64185], [-96.85544, 30.64143], [-96.8550999, 30.6412], [-96.85478, 30.64099], [-96.85473, 30.64095], [-96.85396, 30.64035], [-96.85335, 30.63988], [-96.85315, 30.63979], [-96.85277, 30.6396], [-96.85203, 30.6393], [-96.85139, 30.63904], [-96.8509, 30.63887], [-96.85005, 30.63883], [-96.84986, 30.63882], [-96.84951, 30.6388], [-96.84923, 30.63871], [-96.849, 30.63841], [-96.84894, 30.63834], [-96.84867, 30.63775], [-96.84844, 30.63725], [-96.84827, 30.63692], [-96.84786, 30.6361], [-96.84736, 30.63511], [-96.84707, 30.63453], [-96.84703, 30.63445], [-96.84666, 30.6338], [-96.84643, 30.63342], [-96.84604, 30.63309], [-96.84604, 30.63309], [-96.84555, 30.63322], [-96.84495, 30.63337], [-96.84397, 30.63368], [-96.84338, 30.63386], [-96.84318, 30.63392], [-96.842, 30.63428], [-96.8418, 30.63434], [-96.84083, 30.63465], [-96.84063, 30.63471], [-96.83945, 30.63509], [-96.83926, 30.63515], [-96.83847, 30.6354], [-96.83828, 30.63546], [-96.83749, 30.63571], [-96.8373, 30.63577], [-96.83651, 30.63602], [-96.83632, 30.63608], [-96.83592, 30.63621], [-96.83534, 30.63639], [-96.83357, 30.63696], [-96.83298, 30.63714], [-96.83259, 30.63727], [-96.8318, 30.6375], [-96.8316, 30.63756], [-96.8314, 30.63762], [-96.83101, 30.63773], [-96.83081, 30.63779], [-96.83, 30.63803], [-96.82935, 30.63825], [-96.82857, 30.6385], [-96.82838, 30.63857], [-96.82818, 30.63863], [-96.82799, 30.6387], [-96.8277899, 30.63876], [-96.8276, 30.63883], [-96.82746, 30.63887], [-96.82706, 30.63898], [-96.82686, 30.63904], [-96.82666, 30.63909], [-96.82646, 30.63915], [-96.82561, 30.6394], [-96.82508, 30.63956], [-96.82469, 30.63969], [-96.82391, 30.63994], [-96.82373, 30.64], [-96.82315, 30.64018], [-96.82312, 30.64019], [-96.82294, 30.64027], [-96.82252, 30.64045], [-96.82238, 30.64052], [-96.82203, 30.64072], [-96.82167, 30.64091], [-96.82137, 30.64121], [-96.8211, 30.64152], [-96.82101, 30.64171], [-96.82083, 30.64203], [-96.82066, 30.64236], [-96.82062, 30.64243], [-96.82042, 30.64286], [-96.82016, 30.6434], [-96.81993, 30.64404], [-96.81992, 30.64407], [-96.81998, 30.64446], [-96.81997, 30.64458], [-96.81994, 30.64482], [-96.81986, 30.64532], [-96.81965, 30.64599], [-96.8196, 30.64614], [-96.81961, 30.64647], [-96.81967, 30.64703], [-96.8199, 30.64798], [-96.81996, 30.64829], [-96.82007, 30.64882], [-96.82008, 30.64889], [-96.8202, 30.64953], [-96.82037, 30.65042], [-96.8204, 30.65059], [-96.82041, 30.65078], [-96.82043, 30.65132], [-96.82044, 30.65148], [-96.82046, 30.65186], [-96.82047, 30.65198], [-96.82046, 30.65217], [-96.82042, 30.65235], [-96.8203, 30.65253], [-96.82019, 30.65265], [-96.82003, 30.65276], [-96.81986, 30.65287], [-96.81905, 30.65326], [-96.81894, 30.6534], [-96.81893, 30.65351], [-96.819, 30.65366], [-96.81902, 30.6537], [-96.81913, 30.65393], [-96.8192, 30.65417], [-96.81925, 30.65458], [-96.81923, 30.65489], [-96.8192, 30.6551], [-96.81919, 30.65522], [-96.81909, 30.65616], [-96.81909, 30.65618], [-96.81896, 30.65652], [-96.81879, 30.65657], [-96.8187, 30.6566], [-96.8187, 30.6566], [-96.81892, 30.65706], [-96.81901, 30.65727], [-96.81914, 30.65756], [-96.81932, 30.65795], [-96.81938, 30.65809], [-96.81946, 30.6582], [-96.81949, 30.65826], [-96.81957, 30.65847], [-96.81969, 30.65873], [-96.81982, 30.65907], [-96.81982, 30.65907]]}, "properties": {"surface": "unknown", "label": "Unverified", "color": "#9A9389", "miles": 4.31, "start_mi": 4.76, "end_mi": 9.07, "road": "County Road 328", "elev_ft": [552, 552, 552, 551, 540, 531, 528, 527, 526, 526, 527, 528, 529, 536, 541, 542, 543, 546, 539, 539, 539, 539, 538, 538, 538, 538, 540, 540, 540, 538, 533, 531, 531, 532, 537, 538, 535, 534, 532, 530, 528, 523, 516, 509, 509, 512, 518, 525, 525, 527, 527, 527, 531, 533, 543, 540, 529, 528, 518, 516, 503, 504, 500, 503, 512, 510, 500, 490, 473, 468, 464, 459, 458, 456, 451, 451, 450, 450, 452, 456, 459, 461, 463, 463, 462, 459, 457, 454, 452, 444, 441, 446, 456, 453, 446, 446, 447, 453, 456, 462, 467, 472, 481, 485, 487, 488, 488, 485, 479, 475, 476, 476, 478, 479, 479, 482, 482, 491, 502, 514, 517, 522, 523, 520, 515, 514, 514, 515, 517, 519, 521, 523, 524, 526, 528, 530, 531, 537, 538, 539, 540, 540, 541, 542, 543, 544, 543, 542, 537, 537, 535, 532, 531, 531, 530, 531, 535, 537, 537, 536, 536, 532, 530, 528, 528]}}, {"type": "Feature", "geometry": {"type": "LineString", "coordinates": [[-96.8197, 30.65913], [-96.8195099, 30.65923], [-96.81932, 30.65939], [-96.81917, 30.65953], [-96.8191, 30.6596], [-96.81898, 30.65971], [-96.81887, 30.6599], [-96.81875, 30.66008], [-96.81868, 30.66017], [-96.81861, 30.66023], [-96.81858, 30.66025], [-96.81844, 30.66032], [-96.8182, 30.66039], [-96.81804, 30.66043], [-96.81737, 30.66063], [-96.81725, 30.66067], [-96.8169, 30.66076], [-96.81625, 30.6609], [-96.8162399, 30.66091], [-96.81607, 30.66096], [-96.81601, 30.66102], [-96.81602, 30.66109], [-96.81604, 30.66116], [-96.81608, 30.66134], [-96.8162399, 30.66167], [-96.8164, 30.662], [-96.8165099, 30.66227], [-96.81652, 30.66241], [-96.8165, 30.66252], [-96.81649, 30.66253], [-96.81641, 30.66271], [-96.81604, 30.66332], [-96.81603, 30.66333], [-96.81588, 30.66354], [-96.81569, 30.66377], [-96.81552, 30.66392], [-96.81529, 30.66407], [-96.8151, 30.66417], [-96.81475, 30.66431], [-96.81415, 30.66449], [-96.81356, 30.66467], [-96.81319, 30.66479], [-96.81296, 30.6649], [-96.81283, 30.66498], [-96.81273, 30.66507], [-96.81262, 30.66518], [-96.81242, 30.66542], [-96.8121199, 30.66593], [-96.81167, 30.6667], [-96.8116299, 30.66677], [-96.81148, 30.66702], [-96.81126, 30.66731], [-96.8110899, 30.66748], [-96.81097, 30.66757], [-96.81063, 30.66771], [-96.81017, 30.66785], [-96.80993, 30.66792], [-96.80862, 30.66833], [-96.80783, 30.66857], [-96.80737, 30.66871], [-96.80737, 30.66871], [-96.8073, 30.66897], [-96.80722, 30.66923], [-96.80712, 30.66958], [-96.8071, 30.66963], [-96.80692, 30.67013], [-96.8069, 30.67029], [-96.80692, 30.67036], [-96.80691, 30.67041], [-96.80689, 30.67043]]}, "properties": {"surface": "two_track", "label": "Ranch two-track", "color": "#6B5A45", "miles": 1.23, "start_mi": 9.07, "end_mi": 10.3, "road": "County Road 344", "elev_ft": [527, 525, 524, 524, 524, 524, 523, 524, 524, 525, 525, 525, 526, 525, 524, 524, 525, 526, 526, 528, 530, 530, 530, 530, 526, 520, 518, 517, 517, 517, 516, 512, 512, 512, 512, 510, 507, 505, 501, 492, 490, 490, 490, 490, 489, 485, 487, 497, 502, 502, 500, 497, 495, 494, 491, 488, 487, 489, 492, 491, 491, 490, 490, 489, 489, 484, 483, 482, 481, 481]}}, {"type": "Feature", "geometry": {"type": "LineString", "coordinates": [[-96.8068, 30.67046], [-96.80649, 30.67054], [-96.80649, 30.67054], [-96.80654, 30.67071], [-96.80658, 30.67093], [-96.80659, 30.67117], [-96.80659, 30.67117], [-96.80649, 30.67125], [-96.8063899, 30.67132], [-96.8062999, 30.67134], [-96.80611, 30.67133], [-96.80595, 30.67138], [-96.80579, 30.67144], [-96.80516, 30.67174], [-96.805, 30.67182], [-96.80461, 30.67199], [-96.80404, 30.67222], [-96.8036599, 30.67238], [-96.80329, 30.67254], [-96.80267, 30.67279], [-96.80235, 30.67293], [-96.8013, 30.67339], [-96.80105, 30.67352], [-96.80058, 30.67377], [-96.80055, 30.67379], [-96.7998099, 30.67431], [-96.79974, 30.67436], [-96.7996, 30.67448], [-96.79941, 30.67458], [-96.79803, 30.67501], [-96.79689, 30.67536], [-96.7960499, 30.67559], [-96.79603, 30.67559], [-96.79512, 30.67577], [-96.79483, 30.67581], [-96.79471, 30.67582], [-96.79419, 30.67589], [-96.794, 30.67593], [-96.7936, 30.67602], [-96.79351, 30.67604], [-96.79242, 30.67621], [-96.79216, 30.67626], [-96.79155, 30.67638], [-96.79114, 30.67645], [-96.79048, 30.67658], [-96.79032, 30.67661], [-96.78992, 30.67671], [-96.78952, 30.6768], [-96.78922, 30.67687], [-96.78851, 30.67705], [-96.78811, 30.67714], [-96.7878099, 30.67722], [-96.78753, 30.67735], [-96.78727, 30.67747], [-96.78686, 30.67777], [-96.78685, 30.67777], [-96.78648, 30.6782], [-96.78624, 30.67848], [-96.78624, 30.67849], [-96.786, 30.67879], [-96.78579, 30.67907], [-96.7856, 30.6792], [-96.78539, 30.67935], [-96.78477, 30.67973], [-96.78449, 30.6799], [-96.7842299, 30.68001], [-96.78362, 30.68024], [-96.78346, 30.68029], [-96.78307, 30.68042], [-96.78268, 30.68055], [-96.78264, 30.68056], [-96.78189, 30.68079], [-96.7815, 30.68092], [-96.78149, 30.68092], [-96.78129, 30.68096], [-96.78088, 30.68104], [-96.78005, 30.6811], [-96.77985, 30.68111], [-96.77943, 30.68114], [-96.77922, 30.68115], [-96.77869, 30.6812], [-96.7786, 30.68123], [-96.77848, 30.68127], [-96.77793, 30.68154], [-96.77754, 30.6818], [-96.77739, 30.6819], [-96.77721, 30.68202], [-96.77689, 30.68225], [-96.77677, 30.68233], [-96.77621, 30.68264], [-96.77619, 30.68264], [-96.77581, 30.68278], [-96.77484, 30.68313], [-96.77472, 30.68317], [-96.77386, 30.68344], [-96.77327, 30.68362], [-96.77287, 30.68374], [-96.77227, 30.68392], [-96.77169, 30.6841], [-96.77051, 30.68446], [-96.7702599, 30.68454], [-96.76992, 30.68464], [-96.76913, 30.68488], [-96.76873, 30.685], [-96.76814, 30.68517], [-96.76774, 30.68529], [-96.76737, 30.6854], [-96.76676, 30.6856], [-96.76597, 30.68584], [-96.76558, 30.68596], [-96.76499, 30.68614], [-96.76479, 30.68621], [-96.7646, 30.68627], [-96.7644, 30.68633], [-96.7642, 30.68639], [-96.76303, 30.68675], [-96.76282, 30.68681], [-96.76223, 30.68698], [-96.76199, 30.68705], [-96.76133, 30.68744], [-96.76115, 30.68755], [-96.76081, 30.68779], [-96.76047, 30.68795], [-96.76013, 30.6879], [-96.76007, 30.68787], [-96.75971, 30.6877], [-96.75944, 30.68757], [-96.75916, 30.68744], [-96.75877, 30.68726], [-96.75794, 30.68704], [-96.75735, 30.68694], [-96.75717, 30.68693], [-96.75686, 30.6869], [-96.75625, 30.6869], [-96.75556, 30.68693], [-96.75551, 30.68689], [-96.75526, 30.68673], [-96.75521, 30.68665], [-96.75476, 30.68584], [-96.7545899, 30.68553], [-96.75458, 30.68551], [-96.75435, 30.68517], [-96.75432, 30.68503], [-96.75423, 30.68468], [-96.75405, 30.68398], [-96.75393, 30.68351], [-96.75366, 30.68295], [-96.75318, 30.68247], [-96.75317, 30.68239], [-96.75309, 30.68203], [-96.75304, 30.68177], [-96.75301, 30.68168], [-96.75291, 30.68125], [-96.75288, 30.68115], [-96.75283, 30.68098], [-96.75274, 30.68064], [-96.75273, 30.68063], [-96.75259, 30.6801], [-96.75255, 30.67994], [-96.7525, 30.67956], [-96.75252, 30.67939], [-96.75264, 30.67831], [-96.75265, 30.67813], [-96.75267, 30.67799], [-96.75254, 30.67706], [-96.75246, 30.67653], [-96.75242, 30.67617], [-96.75237, 30.67582], [-96.75232, 30.67545], [-96.75228, 30.6751], [-96.75226, 30.67492], [-96.75225, 30.67485], [-96.75221, 30.67474], [-96.75207, 30.67441], [-96.75192, 30.67407], [-96.75157, 30.67322], [-96.75114, 30.67221], [-96.75085, 30.67153], [-96.75064, 30.67102], [-96.75057, 30.67086], [-96.75024, 30.67007], [-96.7500699, 30.66996], [-96.75, 30.66996], [-96.74966, 30.66997], [-96.74939, 30.67004], [-96.74908, 30.67013], [-96.7486, 30.67029], [-96.74817, 30.67043], [-96.74782, 30.67055], [-96.74704, 30.67081], [-96.74685, 30.67088], [-96.74588, 30.6712], [-96.74575, 30.67126], [-96.74563, 30.6713], [-96.74549, 30.67133], [-96.74542, 30.67134], [-96.7452799, 30.67134], [-96.7451899, 30.67134], [-96.74507, 30.67132], [-96.74452, 30.67122], [-96.7441599, 30.67119], [-96.74411, 30.67118], [-96.74404, 30.67117], [-96.74395, 30.67113], [-96.74392, 30.67111], [-96.74386, 30.67108], [-96.74352, 30.67062], [-96.74345, 30.67052], [-96.74289, 30.66976], [-96.74252, 30.66925], [-96.7422, 30.66877], [-96.7422, 30.66877], [-96.74208, 30.66845], [-96.74182, 30.66777], [-96.74176, 30.66762], [-96.74169, 30.66742], [-96.7416, 30.66721], [-96.74148, 30.66692], [-96.7414299, 30.66681], [-96.74133, 30.66658], [-96.74123, 30.66636], [-96.74083, 30.6654], [-96.74048, 30.66457], [-96.74043, 30.66444], [-96.74039, 30.6643], [-96.74036, 30.66416], [-96.74032, 30.66338], [-96.74033, 30.66255], [-96.7403099, 30.66204], [-96.74029, 30.66169], [-96.74024, 30.66092], [-96.74014, 30.66003], [-96.74014, 30.65989], [-96.74012, 30.65958], [-96.74015, 30.65845], [-96.74016, 30.65819], [-96.74017, 30.65748], [-96.74017, 30.65743], [-96.74017, 30.65659], [-96.74016, 30.65603], [-96.74015, 30.65576], [-96.7401299, 30.65522], [-96.74011, 30.65475], [-96.7401, 30.6545], [-96.74009, 30.65414], [-96.74008, 30.65396], [-96.74007, 30.65363], [-96.74007, 30.6536], [-96.74006, 30.65288], [-96.74006, 30.65273], [-96.74006, 30.65234], [-96.74006, 30.65198], [-96.74007, 30.65189], [-96.74007, 30.65176], [-96.74005, 30.65152], [-96.7400399, 30.65144], [-96.73999, 30.65117], [-96.73999, 30.65107], [-96.73998, 30.65092], [-96.73998, 30.65079], [-96.73999, 30.65073], [-96.74002, 30.65031], [-96.74002, 30.65014], [-96.74002, 30.64978], [-96.74, 30.64893], [-96.73999, 30.64832], [-96.73996, 30.64803], [-96.73996, 30.648], [-96.7399, 30.64754], [-96.7399, 30.64731], [-96.7399, 30.64716], [-96.73989, 30.6467], [-96.73989, 30.64624], [-96.7399, 30.64602], [-96.73988, 30.64522], [-96.73988, 30.64516], [-96.73983, 30.64372], [-96.73975, 30.64102], [-96.73972, 30.64004], [-96.73972, 30.63994], [-96.73972, 30.63935], [-96.7397, 30.63868], [-96.73971, 30.63707], [-96.7397, 30.63654], [-96.7397, 30.63641], [-96.73969, 30.63622], [-96.73969, 30.63546], [-96.73969, 30.63537], [-96.73968, 30.63489], [-96.73968, 30.63475], [-96.73967, 30.63452], [-96.73966, 30.63403], [-96.73965, 30.63331], [-96.73964, 30.63259], [-96.73962, 30.63115], [-96.73959, 30.62971], [-96.73959, 30.62953], [-96.73957, 30.62899], [-96.73957, 30.62891], [-96.73956, 30.62857], [-96.73957, 30.62845], [-96.73959, 30.62829], [-96.73965, 30.62808], [-96.73966, 30.62806], [-96.73972, 30.62792], [-96.73982, 30.62773], [-96.74, 30.62742], [-96.74058, 30.62646], [-96.7408899, 30.62595], [-96.74153, 30.62486], [-96.74166, 30.62466], [-96.742, 30.6241], [-96.74202, 30.62407], [-96.74235, 30.62361], [-96.74238, 30.62358], [-96.74248, 30.62345], [-96.74261, 30.62332], [-96.74274, 30.62321], [-96.74285, 30.62315], [-96.74298, 30.62311], [-96.7431, 30.6231], [-96.74336, 30.62309], [-96.74461, 30.62305], [-96.74489, 30.62305], [-96.74524, 30.62304], [-96.74533, 30.62304], [-96.74546, 30.62303], [-96.74558, 30.62302], [-96.74565, 30.623], [-96.7456799, 30.62299], [-96.74576, 30.62296], [-96.74582, 30.62291], [-96.74587, 30.62285], [-96.74591, 30.62277], [-96.74593, 30.62268], [-96.7459499, 30.62221], [-96.74596, 30.62187], [-96.746, 30.62113], [-96.74605, 30.62005], [-96.74607, 30.61973], [-96.74617, 30.61745], [-96.74617, 30.61735], [-96.7462, 30.61673], [-96.74626, 30.61484], [-96.7463, 30.61379], [-96.7463099, 30.61367], [-96.74632, 30.61358], [-96.74695, 30.6131], [-96.74728, 30.61286], [-96.74746, 30.61278], [-96.74767, 30.61276], [-96.74849, 30.61276], [-96.74923, 30.61276], [-96.75037, 30.61275], [-96.75142, 30.61274], [-96.75381, 30.61273], [-96.75381, 30.61273], [-96.75387, 30.61329], [-96.7539199, 30.61338], [-96.75407, 30.61347], [-96.75427, 30.6135], [-96.75462, 30.61352], [-96.7546799, 30.61353], [-96.75712, 30.61359], [-96.75733, 30.61359], [-96.75762, 30.6136], [-96.75811, 30.61366], [-96.75878, 30.61378], [-96.7598, 30.61397], [-96.7602, 30.61405], [-96.76061, 30.61413], [-96.76143, 30.61428], [-96.76147, 30.61429], [-96.7615299, 30.61431], [-96.7616199, 30.61433], [-96.76174, 30.61441], [-96.76178, 30.61446], [-96.76181, 30.61452], [-96.76182, 30.61459], [-96.76182, 30.61467], [-96.76181, 30.61495], [-96.76181, 30.61517], [-96.76175, 30.61589], [-96.76172, 30.61637], [-96.7617, 30.61669], [-96.76169, 30.61679], [-96.76166, 30.61739], [-96.76166, 30.61741], [-96.76158, 30.61858], [-96.76154, 30.61925], [-96.76152, 30.61961], [-96.7615, 30.6201], [-96.76155, 30.62023], [-96.7624, 30.62047], [-96.76279, 30.62059], [-96.76303, 30.62066], [-96.76304, 30.62066], [-96.76328, 30.62078], [-96.76388, 30.6211], [-96.76389, 30.62111], [-96.76457, 30.62152], [-96.76528, 30.62191], [-96.76631, 30.62248], [-96.76658, 30.62265], [-96.76711, 30.62291], [-96.76736, 30.62304], [-96.76758, 30.62312], [-96.76783, 30.62318], [-96.76808, 30.62323], [-96.76884, 30.62338], [-96.7689, 30.6234], [-96.7693, 30.6235], [-96.7697, 30.62359], [-96.7707, 30.62384], [-96.77073, 30.62385], [-96.77172, 30.62406], [-96.77233, 30.62419], [-96.77314, 30.62437], [-96.7745599, 30.62467], [-96.77517, 30.6248], [-96.7754, 30.62485], [-96.77658, 30.62511], [-96.77811, 30.62544], [-96.77821, 30.62546], [-96.77863, 30.62556], [-96.77901, 30.62565], [-96.77958, 30.62578], [-96.78, 30.62587], [-96.78034, 30.62594], [-96.78156, 30.6262], [-96.78174, 30.62624], [-96.78278, 30.62645], [-96.78314, 30.62652], [-96.78359, 30.62662], [-96.78444, 30.6268], [-96.78463, 30.62686], [-96.78474, 30.62692], [-96.7848099, 30.62699], [-96.78486, 30.62707], [-96.78488, 30.62718], [-96.78492, 30.62729], [-96.78492, 30.62746], [-96.78493, 30.62766], [-96.78493, 30.62822], [-96.78495, 30.63016], [-96.78496, 30.63136], [-96.78498, 30.63186], [-96.78501, 30.63205], [-96.7850799, 30.63212], [-96.78516, 30.63214], [-96.78523, 30.63217], [-96.78568, 30.6323], [-96.78579, 30.63231], [-96.78613, 30.63236], [-96.78643, 30.63238], [-96.78718, 30.6324], [-96.78778, 30.6324], [-96.78879, 30.63237], [-96.78941, 30.63235], [-96.78953, 30.63235], [-96.79034, 30.63234], [-96.7916, 30.63232], [-96.79256, 30.63231], [-96.79275, 30.6323], [-96.79292, 30.63228], [-96.79312, 30.63221], [-96.79323, 30.63214], [-96.79323, 30.63214], [-96.7935399, 30.6325], [-96.79385, 30.63285], [-96.79407, 30.63311], [-96.79417, 30.63324], [-96.79417, 30.63324], [-96.79425, 30.63318], [-96.79433, 30.63312], [-96.79453, 30.63295], [-96.79477, 30.63279], [-96.79485, 30.63272], [-96.79499, 30.63259], [-96.79512, 30.63247], [-96.79553, 30.63203], [-96.79631, 30.63119], [-96.79657, 30.63091], [-96.7971, 30.63035], [-96.79722, 30.63022], [-96.79727, 30.63018], [-96.79732, 30.63015], [-96.7974, 30.63011], [-96.79741, 30.63011], [-96.79751, 30.63008], [-96.79777, 30.63001], [-96.79897, 30.62963], [-96.80012, 30.62926], [-96.80053, 30.62909], [-96.80102, 30.62889], [-96.80103, 30.62888], [-96.80144, 30.62866], [-96.80174, 30.6285], [-96.8018, 30.62848], [-96.80185, 30.62846], [-96.80197, 30.62844], [-96.80231, 30.62848], [-96.80241, 30.62846], [-96.80282, 30.62836], [-96.80362, 30.62817], [-96.80423, 30.62802], [-96.80562, 30.62768], [-96.8056299, 30.62768], [-96.8058099, 30.62764], [-96.80598, 30.6276], [-96.80628, 30.62747], [-96.80686, 30.62721], [-96.8075099, 30.62692], [-96.80811, 30.62673], [-96.80909, 30.62643], [-96.80988, 30.62619], [-96.81054, 30.62598], [-96.81096, 30.62585], [-96.81115, 30.62579], [-96.81121, 30.62577], [-96.81135, 30.62573], [-96.81137, 30.62573], [-96.81151, 30.62572], [-96.8116, 30.62578], [-96.81167, 30.62588], [-96.81168, 30.62589], [-96.81174, 30.62604], [-96.81175, 30.62605], [-96.81182, 30.62622], [-96.81204, 30.62672], [-96.8121199, 30.62689], [-96.81214, 30.62694], [-96.81225, 30.62723], [-96.8123899, 30.62757], [-96.81245, 30.62774], [-96.81275, 30.62851], [-96.81286, 30.62876], [-96.81299, 30.62908], [-96.813, 30.6291], [-96.81308, 30.62927], [-96.8133, 30.62977], [-96.8135999, 30.63045], [-96.81389, 30.63112], [-96.8141799, 30.63177], [-96.81426, 30.63196], [-96.81429, 30.63205], [-96.81443, 30.63238], [-96.81447, 30.63247], [-96.81449, 30.63251], [-96.8145399, 30.63264], [-96.81477, 30.63314], [-96.81477, 30.63314], [-96.81483, 30.6333], [-96.81491, 30.63348], [-96.81498, 30.63365], [-96.8154799, 30.63483], [-96.81584, 30.63568], [-96.81595, 30.63593], [-96.81603, 30.63619], [-96.81608, 30.63635], [-96.8162399, 30.63656], [-96.8163299, 30.63662], [-96.81666, 30.63684], [-96.81686, 30.63698], [-96.8175, 30.63738], [-96.81767, 30.63748], [-96.81818, 30.6378], [-96.81846, 30.63798], [-96.81869, 30.63811], [-96.81887, 30.6382], [-96.81904, 30.6383], [-96.8194, 30.6385], [-96.81957, 30.6386], [-96.81983, 30.63874], [-96.82008, 30.6389], [-96.82114, 30.63976], [-96.8212999, 30.63988], [-96.8212999, 30.63989], [-96.82134, 30.63994], [-96.82138, 30.64002], [-96.82162, 30.64074], [-96.82167, 30.64091], [-96.82167, 30.64091], [-96.82203, 30.64072], [-96.82238, 30.64052], [-96.82252, 30.64045], [-96.82294, 30.64027], [-96.82312, 30.64019], [-96.82315, 30.64018], [-96.82373, 30.64], [-96.82391, 30.63994], [-96.82469, 30.63969], [-96.82508, 30.63956], [-96.82561, 30.6394], [-96.82646, 30.63915], [-96.82666, 30.63909], [-96.82686, 30.63904], [-96.82706, 30.63898], [-96.82746, 30.63887], [-96.8276, 30.63883], [-96.8277899, 30.63876], [-96.82799, 30.6387], [-96.82818, 30.63863], [-96.82838, 30.63857], [-96.82857, 30.6385], [-96.82935, 30.63825], [-96.83, 30.63803], [-96.83081, 30.63779], [-96.83101, 30.63773], [-96.8314, 30.63762], [-96.8316, 30.63756], [-96.8318, 30.6375], [-96.83259, 30.63727], [-96.83298, 30.63714], [-96.83357, 30.63696], [-96.83534, 30.63639], [-96.83592, 30.63621], [-96.83632, 30.63608], [-96.83651, 30.63602], [-96.8373, 30.63577], [-96.83749, 30.63571], [-96.83828, 30.63546], [-96.83847, 30.6354], [-96.83926, 30.63515], [-96.83945, 30.63509], [-96.84063, 30.63471], [-96.84083, 30.63465], [-96.8418, 30.63434], [-96.842, 30.63428], [-96.84318, 30.63392], [-96.84338, 30.63386], [-96.84397, 30.63368], [-96.84495, 30.63337], [-96.84555, 30.63322], [-96.84604, 30.63309], [-96.84604, 30.63309], [-96.84643, 30.63342], [-96.84666, 30.6338], [-96.84703, 30.63445], [-96.84707, 30.63453], [-96.84736, 30.63511], [-96.84786, 30.6361], [-96.84827, 30.63692], [-96.84844, 30.63725], [-96.84867, 30.63775], [-96.84894, 30.63834], [-96.849, 30.63841], [-96.84923, 30.63871], [-96.84951, 30.6388], [-96.84986, 30.63882], [-96.85005, 30.63883], [-96.8509, 30.63887], [-96.85139, 30.63904], [-96.85203, 30.6393], [-96.85277, 30.6396], [-96.85315, 30.63979], [-96.85335, 30.63988], [-96.85396, 30.64035], [-96.85473, 30.64095], [-96.85478, 30.64099], [-96.85544, 30.64143], [-96.85591, 30.64185], [-96.85607, 30.64207], [-96.8561, 30.6421], [-96.85685, 30.64324], [-96.85708, 30.64364], [-96.85717, 30.64379], [-96.85729, 30.64396], [-96.85751, 30.64427], [-96.85778, 30.64454], [-96.85783, 30.64459], [-96.8579, 30.6447], [-96.8579, 30.6448], [-96.8579, 30.6448], [-96.85729, 30.64492], [-96.85714, 30.64496], [-96.85667, 30.64501], [-96.85543, 30.64517], [-96.85419, 30.64533], [-96.85374, 30.64539], [-96.85363, 30.64543], [-96.85355, 30.64548]]}, "properties": {"surface": "unknown", "label": "Unverified", "color": "#9A9389", "miles": 18.47, "start_mi": 10.3, "end_mi": 28.76, "road": "County Road 364", "elev_ft": [480, 477, 477, 475, 473, 469, 469, 468, 467, 466, 466, 465, 464, 465, 466, 469, 474, 470, 464, 445, 440, 431, 428, 436, 437, 444, 444, 444, 445, 445, 456, 461, 460, 456, 456, 456, 458, 459, 459, 458, 441, 435, 428, 437, 455, 457, 460, 457, 452, 442, 442, 445, 451, 458, 463, 463, 476, 476, 476, 477, 477, 476, 476, 473, 470, 467, 457, 455, 452, 452, 453, 463, 461, 461, 459, 451, 431, 427, 424, 425, 423, 422, 423, 429, 432, 431, 428, 420, 417, 402, 401, 396, 401, 400, 410, 410, 407, 404, 399, 393, 391, 386, 368, 359, 355, 351, 350, 352, 364, 369, 388, 392, 393, 392, 390, 385, 384, 378, 374, 376, 380, 387, 393, 393, 393, 391, 387, 388, 389, 381, 374, 373, 371, 367, 370, 370, 366, 363, 346, 337, 337, 331, 332, 334, 335, 335, 335, 332, 333, 335, 335, 335, 331, 330, 326, 326, 326, 332, 332, 332, 331, 344, 346, 347, 350, 351, 353, 357, 364, 370, 370, 369, 368, 362, 353, 344, 353, 352, 351, 351, 343, 340, 339, 334, 331, 331, 331, 333, 337, 344, 343, 347, 349, 351, 352, 353, 353, 353, 351, 336, 330, 330, 331, 334, 335, 338, 338, 338, 345, 353, 357, 357, 361, 365, 365, 364, 364, 364, 364, 364, 362, 364, 368, 368, 368, 367, 372, 382, 382, 381, 372, 369, 369, 370, 378, 379, 382, 382, 383, 381, 383, 386, 394, 397, 396, 390, 384, 383, 370, 369, 366, 364, 363, 362, 359, 357, 344, 344, 347, 351, 352, 363, 365, 367, 379, 388, 393, 393, 402, 404, 406, 409, 413, 415, 424, 425, 432, 422, 424, 424, 422, 419, 409, 406, 406, 404, 406, 405, 406, 406, 408, 412, 417, 422, 427, 439, 442, 447, 447, 447, 447, 448, 448, 448, 449, 448, 448, 448, 448, 448, 448, 447, 447, 447, 448, 448, 449, 449, 450, 450, 450, 455, 465, 466, 466, 466, 467, 467, 467, 467, 467, 466, 466, 465, 464, 457, 453, 447, 440, 438, 433, 432, 429, 422, 418, 417, 415, 413, 414, 416, 417, 419, 420, 423, 427, 436, 436, 437, 438, 439, 439, 440, 440, 453, 455, 457, 459, 460, 462, 462, 460, 449, 449, 449, 448, 448, 448, 448, 448, 448, 446, 444, 441, 445, 449, 449, 457, 457, 465, 468, 467, 465, 464, 453, 451, 453, 454, 459, 464, 464, 468, 469, 467, 467, 465, 462, 460, 459, 453, 440, 441, 444, 448, 454, 454, 453, 452, 453, 460, 462, 465, 466, 457, 456, 456, 459, 461, 464, 468, 479, 480, 484, 485, 486, 487, 488, 488, 489, 489, 490, 490, 493, 496, 500, 507, 506, 503, 502, 501, 502, 502, 502, 502, 504, 507, 511, 517, 521, 521, 521, 521, 523, 523, 522, 521, 521, 521, 521, 522, 524, 524, 524, 524, 524, 525, 526, 527, 528, 528, 529, 528, 533, 531, 520, 518, 517, 517, 516, 516, 516, 513, 503, 486, 476, 465, 465, 459, 472, 473, 474, 474, 473, 473, 473, 463, 455, 442, 442, 444, 445, 445, 446, 446, 446, 444, 439, 430, 433, 435, 436, 439, 440, 442, 444, 448, 448, 450, 451, 451, 453, 453, 453, 454, 455, 456, 462, 463, 461, 461, 460, 457, 449, 442, 434, 434, 435, 437, 438, 439, 440, 447, 447, 448, 451, 453, 465, 477, 479, 482, 483, 479, 478, 474, 470, 460, 460, 458, 452, 445, 445, 447, 451, 452, 455, 458, 468, 467, 467, 467, 466, 467, 467, 467, 462, 456, 453, 447, 446, 446, 453, 456, 446, 441, 444, 452, 454, 457, 459, 462, 463, 463, 461, 459, 456, 452, 450, 450, 451, 451, 456, 458, 459, 464, 468, 473, 490, 500, 510, 512, 503, 500, 504, 503, 516, 518, 528, 529, 540, 543, 533, 531, 527, 527, 527, 525, 525, 518, 512, 509, 509, 516, 523, 528, 530, 532, 534, 535, 538, 537, 532, 531, 531, 533, 538, 540, 540, 540, 538, 538, 538, 539, 539, 539, 539, 546, 543, 542, 541, 536, 529, 528, 527, 526, 526, 527, 528, 531, 540, 551, 552, 552, 552]}}, {"type": "Feature", "geometry": {"type": "LineString", "coordinates": [[-96.8534899, 30.64556], [-96.85348, 30.6456], [-96.85347, 30.64566], [-96.8534899, 30.64575], [-96.85352, 30.64587], [-96.85413, 30.64732], [-96.85415, 30.64738], [-96.85446, 30.64817], [-96.85467, 30.64868], [-96.85494, 30.64936], [-96.85533, 30.65034], [-96.85534, 30.65039], [-96.85542, 30.65066], [-96.85542, 30.65087], [-96.85529, 30.65115], [-96.85508, 30.65153], [-96.85492, 30.6521], [-96.85471, 30.65285], [-96.85466, 30.65297], [-96.85441, 30.6536], [-96.8543, 30.654], [-96.85396, 30.65523], [-96.85391, 30.65541], [-96.8539, 30.65585], [-96.85397, 30.65617], [-96.85401, 30.65629], [-96.85404, 30.65637], [-96.85414, 30.65658], [-96.85424, 30.65679], [-96.85438, 30.65709], [-96.85483, 30.65814], [-96.85527, 30.65915], [-96.85542, 30.65949], [-96.8556399, 30.65999], [-96.85586, 30.6605], [-96.85595, 30.6607], [-96.85606, 30.66101], [-96.85607, 30.66102], [-96.85621, 30.66135], [-96.85635, 30.66168], [-96.85656, 30.66219], [-96.8567, 30.66253], [-96.85684, 30.66287], [-96.8569, 30.66301], [-96.85699, 30.66321], [-96.8572, 30.66371], [-96.85741, 30.66422], [-96.85756, 30.66456], [-96.8576, 30.66465], [-96.8578, 30.6651], [-96.85786, 30.66523], [-96.85795, 30.66546], [-96.85806, 30.66573], [-96.85827, 30.66624], [-96.85841, 30.66658], [-96.85852, 30.66685], [-96.85859, 30.66702], [-96.85873, 30.66736], [-96.85894, 30.66787], [-96.85908, 30.66821], [-96.8592199, 30.66854], [-96.85936, 30.66888], [-96.8595, 30.66922], [-96.85956, 30.66939], [-96.85964, 30.66956], [-96.85999, 30.67041], [-96.86042, 30.67142], [-96.86057, 30.67176], [-96.86064, 30.67193], [-96.86078, 30.67227], [-96.86082, 30.67235], [-96.86113, 30.67311], [-96.86148, 30.67396], [-96.8619, 30.67498], [-96.86211, 30.67549], [-96.86232, 30.67599], [-96.86239, 30.67616], [-96.86268, 30.67683], [-96.86273, 30.67694], [-96.86283, 30.67717], [-96.86284, 30.67718], [-96.8629, 30.67734], [-96.86318, 30.67802], [-96.8632499, 30.67818], [-96.86381, 30.67954], [-96.86403, 30.68005], [-96.86424, 30.68056], [-96.86445, 30.68107], [-96.8648, 30.68191], [-96.86564, 30.68395], [-96.86599, 30.68479], [-96.86642, 30.68581], [-96.8666, 30.68628], [-96.86688, 30.68688], [-96.8670999, 30.68722], [-96.86733, 30.68772], [-96.86748, 30.68805], [-96.86776, 30.68868], [-96.86806, 30.68954], [-96.86824, 30.68994], [-96.86847, 30.69044], [-96.86872, 30.69113], [-96.86901, 30.6918], [-96.86908, 30.69197], [-96.8691599, 30.69214], [-96.8692, 30.69223], [-96.86923, 30.69231], [-96.86931, 30.69247], [-96.86939, 30.69264], [-96.86967, 30.69325], [-96.86969, 30.69331], [-96.86971, 30.69336], [-96.8697, 30.69349], [-96.86969, 30.69355], [-96.86964, 30.69363], [-96.86955, 30.69369], [-96.86937, 30.69383], [-96.86914, 30.69393], [-96.8691, 30.69395], [-96.869, 30.69398], [-96.86881, 30.69407], [-96.86853, 30.69418], [-96.86825, 30.69424], [-96.86792, 30.69431], [-96.8678599, 30.69432], [-96.86764, 30.69438], [-96.86732, 30.69447], [-96.86714, 30.69455], [-96.8670099, 30.6946], [-96.86688, 30.69472], [-96.86686, 30.69479], [-96.8668299, 30.69489], [-96.86685, 30.69505], [-96.86703, 30.69548], [-96.8673, 30.69616], [-96.86776, 30.69731], [-96.86778, 30.69735], [-96.86784, 30.69752], [-96.86791, 30.69769], [-96.86805, 30.69803], [-96.86811, 30.69821], [-96.86843, 30.69901], [-96.86853, 30.69922], [-96.8686, 30.69939], [-96.8689, 30.70006], [-96.86903, 30.70035], [-96.86919, 30.70072], [-96.8693399, 30.70106], [-96.86946, 30.70136], [-96.86948, 30.70139], [-96.86964, 30.70173], [-96.86972, 30.70189], [-96.8698, 30.70206], [-96.87004, 30.70256], [-96.87005, 30.70259], [-96.87012, 30.70273], [-96.8702, 30.70289], [-96.87052, 30.70356], [-96.87076, 30.70405], [-96.87088, 30.70428], [-96.87088, 30.70428]]}, "properties": {"surface": "caliche", "label": "Caliche / gravel", "color": "#C98A24", "miles": 4.41, "start_mi": 28.76, "end_mi": 33.17, "road": "County Road 330", "elev_ft": [552, 553, 553, 554, 556, 571, 571, 581, 577, 572, 554, 553, 547, 543, 538, 528, 516, 507, 506, 503, 502, 494, 496, 495, 494, 493, 493, 492, 491, 487, 474, 481, 471, 454, 441, 439, 439, 439, 441, 460, 472, 472, 474, 473, 469, 453, 446, 453, 457, 474, 478, 482, 484, 488, 493, 494, 492, 485, 463, 451, 442, 440, 444, 447, 449, 460, 488, 492, 493, 489, 486, 462, 447, 440, 432, 439, 438, 425, 420, 423, 423, 432, 449, 454, 484, 492, 493, 493, 493, 485, 490, 502, 502, 499, 498, 503, 504, 505, 505, 507, 509, 517, 522, 523, 523, 523, 522, 520, 517, 506, 505, 504, 503, 503, 503, 503, 502, 500, 499, 499, 501, 505, 506, 503, 504, 505, 507, 507, 507, 507, 506, 505, 504, 496, 485, 461, 461, 455, 459, 469, 470, 484, 485, 486, 486, 484, 480, 485, 491, 491, 492, 492, 492, 484, 483, 482, 481, 487, 490, 493, 493]}}, {"type": "Feature", "geometry": {"type": "LineString", "coordinates": [[-96.87014, 30.70455], [-96.8692499, 30.70488], [-96.86882, 30.70505], [-96.8677, 30.70548], [-96.86739, 30.7056], [-96.86733, 30.70563], [-96.8664, 30.70601], [-96.86628, 30.70606], [-96.86585, 30.70623], [-96.86585, 30.70623], [-96.86568, 30.70633], [-96.86559, 30.70636], [-96.86533, 30.70647], [-96.8651, 30.7066], [-96.86499, 30.70669], [-96.86494, 30.70675]]}, "properties": {"surface": "two_track", "label": "Ranch two-track", "color": "#6B5A45", "miles": 0.35, "start_mi": 33.17, "end_mi": 33.52, "road": "", "elev_ft": [496, 496, 496, 489, 489, 489, 495, 496, 497, 497, 496, 496, 495, 494, 494, 493]}}]}