{"type": "FeatureCollection", "features": [{"type": "Feature", "geometry": {"type": "LineString", "coordinates": [[-96.86466, 30.70853], [-96.8647699, 30.7085], [-96.86516, 30.70838], [-96.86541, 30.70833], [-96.86557, 30.70828], [-96.86568, 30.70824], [-96.86572, 30.70822], [-96.86576, 30.7082], [-96.86579, 30.70818], [-96.86582, 30.70815], [-96.86584, 30.70812], [-96.86591, 30.708], [-96.86591, 30.708], [-96.8656, 30.70782], [-96.86557, 30.7078], [-96.86539, 30.7077], [-96.8651299, 30.70762], [-96.8651, 30.70761], [-96.86494, 30.70754], [-96.86488, 30.70748], [-96.86487, 30.70745], [-96.86485, 30.70737], [-96.86487, 30.70714], [-96.86485, 30.70698], [-96.86483, 30.70688], [-96.86483, 30.70688], [-96.86489, 30.70681], [-96.86499, 30.70669], [-96.8651, 30.7066], [-96.86533, 30.70647], [-96.86559, 30.70636], [-96.86568, 30.70633], [-96.86585, 30.70623], [-96.86585, 30.70623], [-96.86628, 30.70606], [-96.8664, 30.70601], [-96.86733, 30.70563], [-96.86739, 30.7056], [-96.8677, 30.70548], [-96.86882, 30.70505], [-96.8692499, 30.70488], [-96.87014, 30.70455]]}, "properties": {"surface": "two_track", "label": "Ranch two-track", "color": "#6B5A45", "miles": 0.56, "start_mi": 0.0, "end_mi": 0.56, "road": "West Avenue E", "elev_ft": [508, 508, 505, 503, 502, 501, 501, 500, 500, 500, 500, 499, 499, 499, 498, 498, 497, 497, 497, 496, 496, 495, 494, 493, 493, 493, 493, 494, 494, 495, 496, 496, 497, 497, 496, 495, 489, 489, 489, 496, 496, 496]}}, {"type": "Feature", "geometry": {"type": "LineString", "coordinates": [[-96.87088, 30.70428], [-96.87088, 30.70428], [-96.87076, 30.70405], [-96.87052, 30.70356], [-96.8702, 30.70289], [-96.87012, 30.70273], [-96.87005, 30.70259], [-96.87004, 30.70256], [-96.8698, 30.70206], [-96.86972, 30.70189], [-96.86964, 30.70173], [-96.86948, 30.70139], [-96.86946, 30.70136], [-96.8693399, 30.70106], [-96.86919, 30.70072], [-96.86903, 30.70035], [-96.8689, 30.70006], [-96.8686, 30.69939], [-96.86853, 30.69922], [-96.86843, 30.69901], [-96.86811, 30.69821], [-96.86805, 30.69803], [-96.86791, 30.69769], [-96.86784, 30.69752], [-96.86778, 30.69735], [-96.86776, 30.69731], [-96.86703, 30.69548], [-96.86685, 30.69505], [-96.8668299, 30.69489], [-96.86686, 30.69479], [-96.86688, 30.69472], [-96.8670099, 30.6946], [-96.86714, 30.69455], [-96.86732, 30.69447], [-96.86764, 30.69438], [-96.8678599, 30.69432], [-96.86792, 30.69431], [-96.86825, 30.69424], [-96.86853, 30.69418], [-96.86881, 30.69407], [-96.869, 30.69398], [-96.8691, 30.69395], [-96.86914, 30.69393], [-96.86937, 30.69383], [-96.86955, 30.69369], [-96.86964, 30.69363], [-96.86969, 30.69355], [-96.8697, 30.69349], [-96.86971, 30.69336], [-96.86967, 30.69325], [-96.86939, 30.69264], [-96.86923, 30.69231], [-96.8692, 30.69223], [-96.86908, 30.69197], [-96.86901, 30.6918], [-96.86872, 30.69113], [-96.86847, 30.69044], [-96.86824, 30.68994], [-96.86806, 30.68954], [-96.86776, 30.68868], [-96.86748, 30.68805], [-96.86733, 30.68772], [-96.8670999, 30.68722], [-96.86688, 30.68688], [-96.8666, 30.68628], [-96.86642, 30.68581], [-96.86599, 30.68479], [-96.86564, 30.68395], [-96.8648, 30.68191], [-96.86445, 30.68107], [-96.86424, 30.68056], [-96.86415, 30.68036], [-96.86403, 30.68005], [-96.86381, 30.67954], [-96.86318, 30.67802], [-96.8629, 30.67734], [-96.86284, 30.67718], [-96.86283, 30.67717], [-96.86273, 30.67694], [-96.86268, 30.67683], [-96.86239, 30.67616], [-96.86232, 30.67599], [-96.86211, 30.67549], [-96.8619, 30.67498], [-96.86148, 30.67396], [-96.86113, 30.67311], [-96.86082, 30.67235], [-96.86078, 30.67227], [-96.86064, 30.67193], [-96.86057, 30.67176], [-96.86042, 30.67142], [-96.85999, 30.67041], [-96.85964, 30.66956], [-96.85956, 30.66939], [-96.8595, 30.66922], [-96.85936, 30.66888], [-96.8592199, 30.66854], [-96.85908, 30.66821], [-96.85894, 30.66787], [-96.85873, 30.66736], [-96.85859, 30.66702], [-96.85852, 30.66685], [-96.85841, 30.66658], [-96.85827, 30.66624], [-96.85806, 30.66573], [-96.85795, 30.66546], [-96.85786, 30.66523], [-96.8578, 30.6651], [-96.8576, 30.66465], [-96.85756, 30.66456], [-96.85741, 30.66422], [-96.8572, 30.66371], [-96.85699, 30.66321], [-96.8569, 30.66301], [-96.85684, 30.66287], [-96.8567, 30.66253], [-96.85656, 30.66219], [-96.85635, 30.66168], [-96.85621, 30.66135], [-96.85607, 30.66102], [-96.85606, 30.66101], [-96.85595, 30.6607], [-96.85586, 30.6605], [-96.8556399, 30.65999], [-96.85542, 30.65949], [-96.85527, 30.65915], [-96.85483, 30.65814], [-96.85438, 30.65709], [-96.85424, 30.65679], [-96.85414, 30.65658], [-96.85404, 30.65637], [-96.85401, 30.65629], [-96.85397, 30.65617], [-96.8539, 30.65585], [-96.85391, 30.65541], [-96.85396, 30.65523], [-96.8543, 30.654], [-96.85441, 30.6536], [-96.85466, 30.65297], [-96.85471, 30.65285], [-96.85492, 30.6521], [-96.85508, 30.65153], [-96.85529, 30.65115], [-96.85542, 30.65087], [-96.85542, 30.65066], [-96.85534, 30.65039], [-96.85533, 30.65034], [-96.85494, 30.64936], [-96.85467, 30.64868], [-96.85446, 30.64817], [-96.85415, 30.64738], [-96.85413, 30.64732], [-96.85352, 30.64587], [-96.8534899, 30.64575], [-96.85347, 30.64566], [-96.85348, 30.6456], [-96.8534899, 30.64556]]}, "properties": {"surface": "caliche", "label": "Caliche / gravel", "color": "#C98A24", "miles": 4.41, "start_mi": 0.56, "end_mi": 4.97, "road": "County Road 330", "elev_ft": [493, 493, 490, 487, 481, 482, 483, 484, 492, 492, 492, 491, 491, 485, 480, 484, 486, 486, 485, 484, 470, 469, 459, 455, 461, 461, 496, 504, 505, 506, 507, 507, 507, 507, 505, 504, 503, 506, 505, 501, 499, 499, 500, 502, 503, 503, 503, 503, 504, 506, 517, 522, 523, 523, 522, 517, 509, 507, 505, 505, 504, 503, 498, 499, 502, 502, 490, 485, 493, 493, 493, 492, 492, 484, 449, 432, 423, 423, 420, 425, 438, 439, 432, 440, 447, 462, 486, 489, 493, 492, 488, 460, 449, 447, 444, 440, 442, 451, 463, 485, 492, 494, 493, 488, 484, 482, 478, 474, 457, 453, 446, 453, 469, 473, 474, 472, 472, 460, 441, 439, 439, 439, 441, 454, 471, 481, 474, 487, 491, 492, 493, 493, 494, 495, 496, 494, 502, 503, 506, 507, 516, 528, 538, 543, 547, 553, 554, 572, 577, 581, 571, 571, 556, 554, 553, 553, 552]}}, {"type": "Feature", "geometry": {"type": "LineString", "coordinates": [[-96.85355, 30.64548], [-96.85363, 30.64543], [-96.85374, 30.64539], [-96.85419, 30.64533], [-96.85543, 30.64517], [-96.85667, 30.64501], [-96.85714, 30.64496], [-96.85729, 30.64492], [-96.8579, 30.6448], [-96.8579, 30.6448], [-96.8579, 30.6447], [-96.85783, 30.64459], [-96.85778, 30.64454], [-96.85751, 30.64427], [-96.85729, 30.64396], [-96.85717, 30.64379], [-96.85708, 30.64364], [-96.85685, 30.64324], [-96.8561, 30.6421], [-96.85607, 30.64207], [-96.85591, 30.64185], [-96.85544, 30.64143], [-96.85478, 30.64099], [-96.85473, 30.64095], [-96.85396, 30.64035], [-96.85335, 30.63988], [-96.85315, 30.63979], [-96.85278, 30.63961], [-96.85203, 30.6393], [-96.85139, 30.63904], [-96.8509, 30.63887], [-96.85005, 30.63883], [-96.84986, 30.63882], [-96.84951, 30.6388], [-96.84923, 30.63871], [-96.849, 30.63841], [-96.84894, 30.63834], [-96.84867, 30.63775], [-96.84844, 30.63725], [-96.84827, 30.63692], [-96.84786, 30.6361], [-96.84736, 30.63511], [-96.84707, 30.63453], [-96.84703, 30.63445], [-96.84666, 30.6338], [-96.84643, 30.63342], [-96.84604, 30.63309], [-96.84604, 30.63309], [-96.8466399, 30.63292], [-96.84725, 30.63275], [-96.84783, 30.63258], [-96.8498199, 30.63202], [-96.85021, 30.63191], [-96.85099, 30.63169], [-96.85185, 30.63145], [-96.85403, 30.63083], [-96.85483, 30.63061], [-96.85518, 30.63051], [-96.85542, 30.63043], [-96.8569799, 30.62991], [-96.85737, 30.62978], [-96.85795, 30.62959], [-96.85815, 30.62952], [-96.85874, 30.62934], [-96.85884, 30.6293], [-96.85912, 30.62921], [-96.85971, 30.629], [-96.86009, 30.62887], [-96.86068, 30.62867], [-96.86106, 30.62853], [-96.86151, 30.62838], [-96.86279, 30.62789], [-96.86336, 30.62768], [-96.86393, 30.62746], [-96.86394, 30.62746], [-96.86431, 30.62729], [-96.86444, 30.62722], [-96.86469, 30.62715], [-96.86509, 30.62704], [-96.86516, 30.62703], [-96.86584, 30.62688], [-96.8659, 30.62686], [-96.86662, 30.62663], [-96.86669, 30.62665], [-96.86675, 30.62667], [-96.86685, 30.62677], [-96.86711, 30.62748], [-96.86738, 30.62812], [-96.86752, 30.62846], [-96.86788, 30.62931], [-96.86793, 30.62941], [-96.86823, 30.63015], [-96.8687099, 30.6313], [-96.86874, 30.63133], [-96.86875, 30.63135], [-96.86878, 30.63137], [-96.86883, 30.63138], [-96.86892, 30.63136], [-96.86931, 30.63124], [-96.87128, 30.63062], [-96.87147, 30.63057], [-96.87266, 30.63017], [-96.87284, 30.63011], [-96.87323, 30.62999], [-96.87382, 30.6298], [-96.87477, 30.62949], [-96.87477, 30.62949]]}, "properties": {"surface": "unknown", "label": "Unverified", "color": "#9A9389", "miles": 3.44, "start_mi": 4.97, "end_mi": 8.41, "road": "County Road 328", "elev_ft": [552, 552, 552, 551, 540, 531, 528, 527, 526, 526, 527, 528, 529, 536, 541, 542, 543, 546, 539, 539, 539, 539, 538, 538, 538, 540, 540, 540, 538, 533, 531, 531, 532, 537, 538, 535, 534, 532, 530, 528, 523, 516, 509, 509, 512, 518, 525, 525, 517, 510, 501, 490, 490, 483, 493, 504, 513, 517, 520, 554, 555, 548, 543, 527, 524, 514, 502, 496, 486, 480, 472, 467, 463, 461, 460, 468, 475, 485, 492, 492, 488, 488, 493, 494, 495, 497, 508, 513, 514, 510, 509, 505, 509, 509, 510, 509, 509, 509, 506, 481, 477, 461, 461, 461, 463, 468, 468]}}, {"type": "Feature", "geometry": {"type": "LineString", "coordinates": [[-96.87511, 30.63015], [-96.87546, 30.6308], [-96.87581, 30.63146], [-96.8763, 30.63238], [-96.87633, 30.63244], [-96.87644, 30.63263], [-96.8766799, 30.63288], [-96.87671, 30.63291], [-96.87699, 30.63327], [-96.87711, 30.63345], [-96.87714, 30.63365], [-96.87701, 30.63396], [-96.87656, 30.63437], [-96.87655, 30.63439], [-96.87598, 30.63538], [-96.87569, 30.63583], [-96.8756499, 30.63589], [-96.87563, 30.63637], [-96.8756499, 30.6365], [-96.8757399, 30.637], [-96.87577, 30.63808], [-96.8758, 30.63916], [-96.8758299, 30.64024], [-96.87585, 30.64132], [-96.87587, 30.64186], [-96.87588, 30.64224], [-96.87584, 30.64272], [-96.87585, 30.64276], [-96.87605, 30.64331], [-96.87612, 30.64362], [-96.87629, 30.6445], [-96.87635, 30.64468], [-96.8764, 30.64485], [-96.87646, 30.64502], [-96.87661, 30.64518], [-96.87674, 30.6453], [-96.87676, 30.64533], [-96.87689, 30.64549], [-96.87697, 30.6456], [-96.87702, 30.64568], [-96.8770399, 30.6458], [-96.87699, 30.64591], [-96.87697, 30.64594], [-96.8766, 30.64647], [-96.87639, 30.64668], [-96.87605, 30.64701], [-96.87573, 30.64707], [-96.87564, 30.64708], [-96.87509, 30.64709], [-96.8745, 30.64722], [-96.87425, 30.64728], [-96.87367, 30.64751], [-96.87367, 30.64751], [-96.87325, 30.64737], [-96.87298, 30.64727], [-96.87253, 30.64707], [-96.87242, 30.64702], [-96.87237, 30.64696], [-96.87229, 30.64688], [-96.87184, 30.64634], [-96.87163, 30.64614], [-96.87137, 30.64611], [-96.87114, 30.64613], [-96.87097, 30.64618], [-96.87069, 30.64626], [-96.8702799, 30.64637], [-96.86981, 30.64631], [-96.86929, 30.64604], [-96.86884, 30.64587], [-96.86876, 30.64584], [-96.86849, 30.64574], [-96.86825, 30.64568], [-96.86783, 30.64569], [-96.86755, 30.6457], [-96.8671899, 30.64571], [-96.8670099, 30.6457], [-96.86684, 30.6457], [-96.86644, 30.64561], [-96.86638, 30.6456], [-96.86559, 30.64536], [-96.86549, 30.64533], [-96.8649499, 30.64512], [-96.86463, 30.64509], [-96.86386, 30.64505], [-96.86327, 30.64501], [-96.8631, 30.64498], [-96.86296, 30.64493], [-96.86294, 30.64492], [-96.86269, 30.64469], [-96.86247, 30.64454], [-96.86225, 30.6445], [-96.86209, 30.64451], [-96.86168, 30.64452], [-96.86165, 30.64452], [-96.86002, 30.64469], [-96.85907, 30.64479], [-96.85877, 30.64479], [-96.8584599, 30.64478]]}, "properties": {"surface": "two_track", "label": "Ranch two-track", "color": "#6B5A45", "miles": 2.38, "start_mi": 8.41, "end_mi": 10.79, "road": "County Road 328", "elev_ft": [473, 480, 489, 500, 501, 501, 503, 504, 506, 505, 503, 502, 504, 505, 516, 522, 522, 523, 523, 522, 527, 522, 524, 530, 530, 527, 525, 525, 523, 523, 522, 521, 521, 520, 517, 515, 515, 514, 515, 515, 516, 517, 518, 527, 528, 530, 531, 531, 532, 534, 534, 531, 531, 531, 537, 546, 548, 549, 549, 542, 540, 539, 538, 538, 536, 534, 529, 524, 521, 520, 519, 522, 529, 530, 530, 532, 534, 535, 535, 529, 528, 525, 524, 522, 523, 523, 522, 522, 518, 516, 513, 511, 510, 511, 518, 533, 533, 532]}}, {"type": "Feature", "geometry": {"type": "LineString", "coordinates": [[-96.8579, 30.6448], [-96.8579, 30.6448], [-96.85729, 30.64492], [-96.85714, 30.64496], [-96.85667, 30.64501], [-96.85543, 30.64517], [-96.85419, 30.64533], [-96.85374, 30.64539], [-96.85363, 30.64543], [-96.85355, 30.64548]]}, "properties": {"surface": "unknown", "label": "Unverified", "color": "#9A9389", "miles": 0.26, "start_mi": 10.79, "end_mi": 11.05, "road": "County Road 330", "elev_ft": [526, 526, 527, 528, 531, 540, 551, 552, 552, 552]}}, {"type": "Feature", "geometry": {"type": "LineString", "coordinates": [[-96.8534899, 30.64556], [-96.85348, 30.6456], [-96.85347, 30.64566], [-96.8534899, 30.64575], [-96.85352, 30.64587], [-96.85413, 30.64732], [-96.85415, 30.64738], [-96.85446, 30.64817], [-96.85467, 30.64868], [-96.85494, 30.64936], [-96.85533, 30.65034], [-96.85534, 30.65039], [-96.85542, 30.65066], [-96.85542, 30.65087], [-96.85529, 30.65115], [-96.85508, 30.65153], [-96.85492, 30.6521], [-96.85471, 30.65285], [-96.85466, 30.65297], [-96.85441, 30.6536], [-96.8543, 30.654], [-96.85396, 30.65523], [-96.85391, 30.65541], [-96.8539, 30.65585], [-96.85397, 30.65617], [-96.85401, 30.65629], [-96.85404, 30.65637], [-96.85414, 30.65658], [-96.85424, 30.65679], [-96.85438, 30.65709], [-96.85483, 30.65814], [-96.85527, 30.65915], [-96.85542, 30.65949], [-96.8556399, 30.65999], [-96.85586, 30.6605], [-96.85595, 30.6607], [-96.85606, 30.66101], [-96.85607, 30.66102], [-96.85621, 30.66135], [-96.85635, 30.66168], [-96.85656, 30.66219], [-96.8567, 30.66253], [-96.85684, 30.66287], [-96.8569, 30.66301], [-96.85699, 30.66321], [-96.8572, 30.66371], [-96.85741, 30.66422], [-96.85756, 30.66456], [-96.8576, 30.66465], [-96.8578, 30.6651], [-96.85786, 30.66523], [-96.85795, 30.66546], [-96.85806, 30.66573], [-96.85827, 30.66624], [-96.85841, 30.66658], [-96.85852, 30.66685], [-96.85859, 30.66702], [-96.85873, 30.66736], [-96.85894, 30.66787], [-96.85908, 30.66821], [-96.8592199, 30.66854], [-96.85936, 30.66888], [-96.8595, 30.66922], [-96.85956, 30.66939], [-96.85964, 30.66956], [-96.85999, 30.67041], [-96.86042, 30.67142], [-96.86057, 30.67176], [-96.86064, 30.67193], [-96.86078, 30.67227], [-96.86082, 30.67235], [-96.86113, 30.67311], [-96.86148, 30.67396], [-96.8619, 30.67498], [-96.86211, 30.67549], [-96.86232, 30.67599], [-96.86239, 30.67616], [-96.86268, 30.67683], [-96.86273, 30.67694], [-96.86283, 30.67717], [-96.86284, 30.67718], [-96.8629, 30.67734], [-96.86318, 30.67802], [-96.86381, 30.67954], [-96.86403, 30.68005], [-96.86424, 30.68056], [-96.86445, 30.68107], [-96.8648, 30.68191], [-96.86564, 30.68395], [-96.86599, 30.68479], [-96.86642, 30.68581], [-96.8666, 30.68628], [-96.86688, 30.68688], [-96.8670999, 30.68722], [-96.86733, 30.68772], [-96.86748, 30.68805], [-96.86776, 30.68868], [-96.86806, 30.68954], [-96.86824, 30.68994], [-96.86847, 30.69044], [-96.86872, 30.69113], [-96.86901, 30.6918], [-96.86908, 30.69197], [-96.8692, 30.69223], [-96.86923, 30.69231], [-96.86939, 30.69264], [-96.86967, 30.69325], [-96.86971, 30.69336], [-96.8697, 30.69349], [-96.86969, 30.69355], [-96.86964, 30.69363], [-96.86955, 30.69369], [-96.86937, 30.69383], [-96.86914, 30.69393], [-96.8691, 30.69395], [-96.869, 30.69398], [-96.86881, 30.69407], [-96.86853, 30.69418], [-96.86825, 30.69424], [-96.86792, 30.69431], [-96.8678599, 30.69432], [-96.86764, 30.69438], [-96.86732, 30.69447], [-96.86714, 30.69455], [-96.8670099, 30.6946], [-96.86688, 30.69472], [-96.86686, 30.69479], [-96.8668299, 30.69489], [-96.86685, 30.69505], [-96.86703, 30.69548], [-96.86776, 30.69731], [-96.86778, 30.69735], [-96.86784, 30.69752], [-96.86791, 30.69769], [-96.86805, 30.69803], [-96.86811, 30.69821], [-96.86843, 30.69901], [-96.86853, 30.69922], [-96.8686, 30.69939], [-96.8689, 30.70006], [-96.86903, 30.70035], [-96.86909, 30.70051], [-96.86909, 30.70051], [-96.86919, 30.70072], [-96.8693399, 30.70106], [-96.86946, 30.70136], [-96.86948, 30.70139], [-96.86964, 30.70173], [-96.86972, 30.70189], [-96.8698, 30.70206], [-96.87004, 30.70256], [-96.87005, 30.70259], [-96.87012, 30.70273], [-96.8702, 30.70289], [-96.87052, 30.70356], [-96.87076, 30.70405], [-96.87088, 30.70428], [-96.87088, 30.70428]]}, "properties": {"surface": "caliche", "label": "Caliche / gravel", "color": "#C98A24", "miles": 4.41, "start_mi": 11.05, "end_mi": 15.46, "road": "County Road 330", "elev_ft": [552, 553, 553, 554, 556, 571, 571, 581, 577, 572, 554, 553, 547, 543, 538, 528, 516, 507, 506, 503, 502, 494, 496, 495, 494, 493, 493, 492, 491, 487, 474, 481, 471, 454, 441, 439, 439, 439, 441, 460, 472, 472, 474, 473, 469, 453, 446, 453, 457, 474, 478, 482, 484, 488, 493, 494, 492, 485, 463, 451, 442, 440, 444, 447, 449, 460, 488, 492, 493, 489, 486, 462, 447, 440, 432, 439, 438, 425, 420, 423, 423, 432, 449, 484, 492, 493, 493, 493, 485, 490, 502, 502, 499, 498, 503, 504, 505, 505, 507, 509, 517, 522, 523, 523, 522, 517, 506, 504, 503, 503, 503, 503, 502, 500, 499, 499, 501, 505, 506, 503, 504, 505, 507, 507, 507, 507, 506, 505, 504, 496, 461, 461, 455, 459, 469, 470, 484, 485, 486, 486, 484, 482, 482, 480, 485, 491, 491, 492, 492, 492, 484, 483, 482, 481, 487, 490, 493, 493]}}, {"type": "Feature", "geometry": {"type": "LineString", "coordinates": [[-96.87014, 30.70455], [-96.8692499, 30.70488], [-96.86882, 30.70505], [-96.8677, 30.70548], [-96.86739, 30.7056], [-96.86733, 30.70563], [-96.8664, 30.70601], [-96.86628, 30.70606], [-96.86585, 30.70623], [-96.86585, 30.70623], [-96.86568, 30.70633], [-96.86559, 30.70636], [-96.86533, 30.70647], [-96.8651, 30.7066], [-96.86499, 30.70669], [-96.86489, 30.70681], [-96.86483, 30.70688], [-96.86485, 30.70698], [-96.86485, 30.70698], [-96.86487, 30.70714], [-96.86485, 30.70737], [-96.86487, 30.70745], [-96.86488, 30.70748], [-96.86494, 30.70754], [-96.8651299, 30.70762], [-96.86539, 30.7077], [-96.86557, 30.7078], [-96.8656, 30.70782], [-96.86591, 30.708], [-96.86591, 30.708], [-96.86584, 30.70812], [-96.86582, 30.70815], [-96.86579, 30.70818], [-96.86576, 30.7082], [-96.86572, 30.70822], [-96.86568, 30.70824], [-96.86557, 30.70828], [-96.86541, 30.70833], [-96.86516, 30.70838], [-96.86496, 30.70844], [-96.86496, 30.70844]]}, "properties": {"surface": "two_track", "label": "Ranch two-track", "color": "#6B5A45", "miles": 0.54, "start_mi": 15.46, "end_mi": 16.0, "road": "West Avenue E", "elev_ft": [496, 496, 496, 489, 489, 489, 495, 496, 497, 497, 496, 496, 495, 494, 494, 493, 493, 493, 493, 494, 495, 496, 496, 497, 497, 498, 498, 499, 499, 499, 500, 500, 500, 500, 501, 501, 502, 503, 505, 507, 507]}}]}