{"type": "FeatureCollection", "features": [{"type": "Feature", "geometry": {"type": "LineString", "coordinates": [[-96.3588, 33.16226], [-96.3588, 33.16226], [-96.3588, 33.16226], [-96.35874, 33.16227], [-96.35852, 33.162889], [-96.3583, 33.1635], [-96.35808, 33.16411], [-96.358, 33.16426], [-96.358, 33.16426], [-96.35784, 33.164589], [-96.35776, 33.16478], [-96.3575, 33.16532], [-96.35732, 33.165619], [-96.35732, 33.165619], [-96.35701, 33.16614], [-96.35689, 33.16637], [-96.35648, 33.16691], [-96.3561, 33.16734], [-96.3561, 33.16734], [-96.35571, 33.16778], [-96.35547, 33.168], [-96.35476, 33.16856], [-96.35432, 33.16886], [-96.35432, 33.16886], [-96.35368, 33.16928], [-96.35317, 33.16953], [-96.3527, 33.16981], [-96.35187, 33.17025], [-96.35105, 33.170699], [-96.35105, 33.170699], [-96.35044, 33.17102], [-96.34983, 33.171349], [-96.34922, 33.17168], [-96.34842, 33.17212], [-96.34762, 33.172559], [-96.34762, 33.172559], [-96.34675, 33.173029], [-96.34588, 33.173499], [-96.34502, 33.17398], [-96.34415, 33.17445], [-96.34415, 33.17445], [-96.34346, 33.17483], [-96.34276, 33.175199], [-96.34207, 33.175579], [-96.34138, 33.17596], [-96.34052, 33.17644], [-96.34052, 33.17644], [-96.34004, 33.17671], [-96.33936, 33.17707], [-96.33867, 33.177439], [-96.33799, 33.177799], [-96.33752, 33.17807], [-96.33688, 33.17842], [-96.33688, 33.17842], [-96.33616, 33.17882], [-96.33543, 33.17922], [-96.3347, 33.17962], [-96.33397, 33.18002], [-96.33325, 33.180419], [-96.33325, 33.180419], [-96.33249, 33.18083], [-96.33173, 33.18124], [-96.33097, 33.18164], [-96.3303, 33.18204], [-96.32964, 33.18244], [-96.32964, 33.18244], [-96.32929, 33.18265], [-96.32897, 33.182879], [-96.32824, 33.183459], [-96.3275, 33.18404], [-96.32676, 33.18462]]}, "properties": {"surface": "pavement", "label": "Pavement", "color": "#4A5568", "miles": 2.47, "start_mi": 0.0, "end_mi": 2.47, "road": "Northeast Texas Trail", "elev_ft": [640, 640, 640, 640, 640, 644, 647, 648, 648, 649, 650, 650, 652, 652, 659, 655, 654, 658, 658, 659, 659, 659, 663, 663, 662, 664, 666, 666, 668, 668, 664, 660, 660, 660, 662, 662, 660, 664, 670, 680, 680, 680, 680, 680, 680, 679, 679, 680, 680, 680, 680, 680, 672, 672, 670, 668, 660, 650, 660, 660, 662, 670, 670, 673, 671, 671, 670, 670, 663, 660, 655]}}, {"type": "Feature", "geometry": {"type": "LineString", "coordinates": [[-96.32639, 33.18493], [-96.32639, 33.18493], [-96.32576, 33.18544], [-96.32513, 33.18596], [-96.32451, 33.18647], [-96.32388, 33.18699], [-96.32325, 33.1875], [-96.32325, 33.1875], [-96.3228, 33.187869], [-96.32235, 33.18824], [-96.32161, 33.18883], [-96.32087, 33.18941], [-96.32013, 33.189999], [-96.32013, 33.189999], [-96.31991, 33.19017], [-96.31932, 33.190669], [-96.31873, 33.19118], [-96.31823, 33.19158], [-96.31773, 33.19198], [-96.31773, 33.19198], [-96.31712, 33.19247], [-96.31651, 33.19295], [-96.3159, 33.19344], [-96.3153, 33.19393], [-96.3153, 33.19393], [-96.31468, 33.194429], [-96.31407, 33.19493], [-96.31345, 33.195439], [-96.31284, 33.19594], [-96.31284, 33.19594], [-96.31222, 33.19644], [-96.31161, 33.196939], [-96.31099, 33.19744], [-96.31038, 33.19794], [-96.31038, 33.19794], [-96.30988, 33.198349], [-96.30939, 33.198749], [-96.30877, 33.19923], [-96.30816, 33.19971], [-96.30789, 33.19993], [-96.30789, 33.19993], [-96.30735, 33.20036], [-96.30682, 33.2008], [-96.30612, 33.20136], [-96.30541, 33.20192], [-96.30471, 33.20248], [-96.30471, 33.20248], [-96.30404, 33.20303], [-96.30336, 33.20357], [-96.30268, 33.20411], [-96.302, 33.204659], [-96.30149, 33.20509], [-96.30097, 33.20552], [-96.30046, 33.20595], [-96.30046, 33.20595], [-96.29976, 33.20653], [-96.29902, 33.20713], [-96.29829, 33.20772], [-96.29755, 33.20832], [-96.29706, 33.2087], [-96.29656, 33.20908], [-96.29619, 33.2094], [-96.29619, 33.2094], [-96.29589, 33.20966], [-96.29579, 33.209719], [-96.29551, 33.20993], [-96.29519, 33.21024], [-96.29488, 33.21049], [-96.29488, 33.21049], [-96.29431, 33.21096], [-96.29374, 33.211419], [-96.29317, 33.211889], [-96.29317, 33.211889], [-96.29272, 33.21226], [-96.29227, 33.212629], [-96.29174, 33.21306], [-96.29121, 33.213479], [-96.29121, 33.213479], [-96.29079, 33.21381], [-96.29036, 33.214149], [-96.2901, 33.21435], [-96.28967, 33.214709], [-96.28924, 33.215069], [-96.28886, 33.21539], [-96.28848, 33.21571], [-96.28807, 33.21602], [-96.28807, 33.21602], [-96.2875, 33.21644], [-96.28703, 33.21685], [-96.28703, 33.21685], [-96.28685, 33.217], [-96.28611, 33.21761], [-96.28536, 33.21821], [-96.28536, 33.21821], [-96.28475, 33.21871], [-96.28414, 33.219209], [-96.28354, 33.21971], [-96.28293, 33.22021], [-96.28293, 33.22021], [-96.28231, 33.2207], [-96.2817, 33.2212], [-96.2813, 33.22151], [-96.28089, 33.22182], [-96.28089, 33.22182]]}, "properties": {"surface": "two_track", "label": "Ranch two-track", "color": "#6B5A45", "miles": 3.66, "start_mi": 2.47, "end_mi": 6.13, "road": "Northeast Texas Trail", "elev_ft": [651, 651, 650, 651, 656, 658, 660, 660, 660, 660, 658, 650, 641, 641, 640, 640, 636, 640, 640, 640, 640, 640, 640, 640, 640, 640, 642, 650, 655, 655, 663, 670, 671, 671, 671, 672, 672, 671, 674, 677, 677, 680, 680, 685, 688, 689, 689, 690, 690, 688, 681, 680, 680, 676, 676, 675, 680, 687, 689, 690, 690, 680, 680, 680, 680, 680, 677, 676, 676, 673, 670, 669, 669, 664, 660, 658, 656, 656, 653, 651, 650, 650, 650, 650, 650, 650, 650, 651, 650, 650, 650, 645, 646, 646, 647, 650, 650, 652, 652, 660, 660, 662, 666, 666]}}, {"type": "Feature", "geometry": {"type": "LineString", "coordinates": [[-96.28073, 33.221939], [-96.28081, 33.22205], [-96.28082, 33.22214], [-96.28074, 33.22222], [-96.28069, 33.222279], [-96.28065, 33.22238], [-96.28061, 33.22252], [-96.28059, 33.22276], [-96.28055, 33.22345], [-96.28052, 33.22415], [-96.28049, 33.22484], [-96.28046, 33.22554], [-96.28046, 33.22554], [-96.28043, 33.2263], [-96.2804, 33.22706], [-96.28038, 33.22713], [-96.28035, 33.227179], [-96.2803, 33.22722], [-96.28023, 33.227249], [-96.2801, 33.227269], [-96.27949, 33.227249], [-96.27889, 33.22724], [-96.27785, 33.22722], [-96.2768, 33.2272], [-96.27616, 33.22719], [-96.27552, 33.22717], [-96.27552, 33.22717], [-96.27496, 33.22715], [-96.27485, 33.227159], [-96.2746, 33.22723], [-96.27446, 33.22731], [-96.27415, 33.22755], [-96.27345, 33.22816], [-96.27291, 33.22856], [-96.27236, 33.22899], [-96.27216, 33.22918], [-96.27202, 33.229349], [-96.27198, 33.22946], [-96.27196, 33.22961], [-96.27194, 33.23046], [-96.27192, 33.231319], [-96.27192, 33.231969], [-96.27192, 33.231969], [-96.27192, 33.23257], [-96.27192, 33.233159], [-96.27191, 33.23399], [-96.2719, 33.23482], [-96.27189, 33.23565], [-96.27188, 33.23648], [-96.27188, 33.23648], [-96.27187, 33.236829], [-96.27281, 33.23687], [-96.27361, 33.23687], [-96.27442, 33.23688], [-96.27477, 33.23688], [-96.27491, 33.2369], [-96.275, 33.236919], [-96.27505, 33.23695], [-96.27509, 33.23699], [-96.27512, 33.23708], [-96.27515, 33.237209], [-96.27518, 33.23743], [-96.27514, 33.23828], [-96.27509, 33.23912], [-96.27505, 33.23996], [-96.27505, 33.24024], [-96.27505, 33.24024], [-96.27502, 33.24053], [-96.275, 33.240609], [-96.27495, 33.240679], [-96.27488, 33.24072], [-96.27479, 33.24076], [-96.27465, 33.24076], [-96.27366, 33.24074], [-96.27268, 33.24071], [-96.27169, 33.24069], [-96.2707, 33.24066], [-96.26971, 33.24064], [-96.26969, 33.241329], [-96.26968, 33.24203], [-96.26965, 33.2427], [-96.26962, 33.24337], [-96.26959, 33.24403], [-96.26959, 33.24403], [-96.26957, 33.24467], [-96.26955, 33.2453], [-96.26953, 33.245939], [-96.26953, 33.24666], [-96.26953, 33.24739], [-96.26951, 33.24748], [-96.26949, 33.247529], [-96.26943, 33.24756], [-96.26938, 33.24758], [-96.26926, 33.24759], [-96.2687, 33.247549], [-96.26806, 33.24756], [-96.26743, 33.24754], [-96.2668, 33.24752], [-96.26622, 33.2475], [-96.26564, 33.24749], [-96.26564, 33.24749], [-96.26469, 33.24747], [-96.26374, 33.24745], [-96.26278, 33.24743], [-96.26253, 33.247439], [-96.26235, 33.247439], [-96.26189, 33.247349], [-96.26156, 33.24734], [-96.26108, 33.24732], [-96.26076, 33.247329], [-96.26074, 33.2479], [-96.26071, 33.24848], [-96.26071, 33.24924], [-96.2607, 33.25], [-96.26066, 33.25033], [-96.26064, 33.25043], [-96.26061, 33.25048], [-96.26048, 33.25066], [-96.26006, 33.25112], [-96.26006, 33.25112], [-96.25966, 33.25154], [-96.25929, 33.25189], [-96.25893, 33.252249], [-96.25869, 33.25251], [-96.25861, 33.25262], [-96.25853, 33.25285], [-96.25837, 33.25332], [-96.25832, 33.25347], [-96.25815, 33.25387], [-96.2581, 33.25397], [-96.25764, 33.25454], [-96.25762, 33.2546], [-96.25756, 33.25501], [-96.25757, 33.25529], [-96.2576, 33.25558], [-96.25759, 33.25573], [-96.25754, 33.255969], [-96.25752, 33.25603], [-96.2575, 33.25667], [-96.25748, 33.257309], [-96.25747, 33.25777], [-96.25746, 33.25822], [-96.25742, 33.258699], [-96.25737, 33.25918], [-96.25738, 33.25927], [-96.25742, 33.25941], [-96.25745, 33.259459], [-96.25755, 33.25954], [-96.25765, 33.25958], [-96.25776, 33.25961], [-96.2585, 33.25962], [-96.25924, 33.25963], [-96.25997, 33.25965], [-96.26004, 33.25968], [-96.26009, 33.259729], [-96.26015, 33.259819], [-96.26019, 33.25992], [-96.2602, 33.26005], [-96.26018, 33.260779], [-96.26016, 33.26151], [-96.26016, 33.26151], [-96.26005, 33.26234], [-96.26001, 33.26251], [-96.25995, 33.26308], [-96.25996, 33.26319], [-96.26001, 33.2633], [-96.2601, 33.26344], [-96.26031, 33.26371], [-96.2604, 33.263849], [-96.26043, 33.263959], [-96.26043, 33.264049], [-96.26043, 33.264879], [-96.26043, 33.26572], [-96.26043, 33.26656], [-96.26043, 33.26656], [-96.26042, 33.26742], [-96.2604, 33.268279], [-96.26038, 33.26876], [-96.26036, 33.26923], [-96.25931, 33.269199], [-96.25826, 33.26917], [-96.25722, 33.26914], [-96.2562, 33.26909], [-96.25519, 33.26905], [-96.25438, 33.269019], [-96.25358, 33.26899], [-96.25277, 33.26896], [-96.25196, 33.268929], [-96.25196, 33.268929], [-96.25122, 33.26891], [-96.25107, 33.26889], [-96.25092, 33.268859], [-96.2508, 33.26878], [-96.25038, 33.268389], [-96.25015, 33.26821], [-96.24998, 33.26815], [-96.24957, 33.26809], [-96.24943, 33.26804], [-96.24934, 33.26796], [-96.24916, 33.26787], [-96.24883, 33.26756], [-96.24859, 33.267319], [-96.24839, 33.2672], [-96.24826, 33.26715], [-96.2481, 33.26709], [-96.24786, 33.26706], [-96.24704, 33.26703], [-96.24611, 33.26702], [-96.24517, 33.26701], [-96.24424, 33.267], [-96.24331, 33.26699], [-96.24238, 33.266979], [-96.24238, 33.266979], [-96.24167, 33.266979], [-96.24096, 33.266979], [-96.24055, 33.26697], [-96.24054, 33.26775], [-96.24053, 33.26853], [-96.24051, 33.26932], [-96.2405, 33.2701], [-96.24049, 33.27088], [-96.24048, 33.27167], [-96.24046, 33.27245], [-96.24046, 33.27292], [-96.24046, 33.27338], [-96.24045, 33.27385], [-96.24044, 33.27432], [-96.24042, 33.27503], [-96.2404, 33.27574], [-96.24038, 33.276449], [-96.24036, 33.27716], [-96.24035, 33.27779], [-96.24034, 33.27841], [-96.24034, 33.27841], [-96.24033, 33.27906], [-96.2403, 33.27957], [-96.24028, 33.280079], [-96.2411, 33.280099], [-96.24183, 33.28009], [-96.24256, 33.28007], [-96.24329, 33.28006], [-96.24325, 33.28094], [-96.24321, 33.28182], [-96.24317, 33.28269], [-96.24317, 33.28269], [-96.24315, 33.28333], [-96.24313, 33.283969], [-96.24314, 33.28457], [-96.24314, 33.28517], [-96.24313, 33.28582], [-96.24313, 33.286479], [-96.24313, 33.286569], [-96.24315, 33.28663], [-96.2432, 33.28672], [-96.24333, 33.28676], [-96.24346, 33.286769], [-96.24407, 33.28678], [-96.24479, 33.28678], [-96.24551, 33.28678], [-96.24623, 33.28679], [-96.24623, 33.28679], [-96.24698, 33.28679], [-96.24804, 33.2868], [-96.2491, 33.28681], [-96.25016, 33.28682], [-96.25031, 33.28685], [-96.25038, 33.28692], [-96.2504, 33.287], [-96.25039, 33.28765], [-96.25043, 33.28851], [-96.25045, 33.288739], [-96.2505, 33.2889], [-96.25059, 33.28913], [-96.25067, 33.28929], [-96.25071, 33.28944], [-96.25075, 33.28967], [-96.25074, 33.290129], [-96.25074, 33.29059], [-96.25073, 33.291289], [-96.25071, 33.29199], [-96.25071, 33.29199], [-96.2507, 33.29272], [-96.25068, 33.29346], [-96.25067, 33.29419], [-96.25068, 33.29478], [-96.25071, 33.295119], [-96.25069, 33.29582], [-96.25067, 33.29652], [-96.25066, 33.29722], [-96.25066, 33.29722], [-96.25064, 33.298029], [-96.25062, 33.29884], [-96.25061, 33.29965], [-96.2506, 33.30016], [-96.2506, 33.300669], [-96.24962, 33.30068], [-96.24859, 33.30068], [-96.24756, 33.300669]]}, "properties": {"surface": "unknown", "label": "Unverified", "color": "#9A9389", "miles": 9.16, "start_mi": 6.13, "end_mi": 15.29, "road": "County Road 1100", "elev_ft": [667, 667, 667, 668, 668, 669, 670, 670, 674, 673, 672, 670, 670, 672, 671, 671, 671, 671, 671, 672, 673, 676, 679, 683, 688, 690, 690, 692, 695, 698, 698, 699, 701, 699, 700, 700, 700, 700, 703, 712, 716, 716, 716, 716, 716, 715, 715, 717, 714, 714, 713, 709, 707, 699, 698, 696, 695, 694, 694, 693, 692, 691, 693, 696, 699, 699, 699, 697, 697, 697, 698, 698, 699, 702, 705, 709, 710, 712, 715, 717, 719, 719, 716, 716, 715, 709, 702, 690, 677, 677, 677, 678, 678, 679, 684, 683, 681, 687, 682, 680, 680, 675, 667, 658, 657, 657, 658, 659, 659, 659, 656, 655, 654, 652, 652, 652, 652, 652, 657, 657, 662, 666, 666, 666, 667, 667, 658, 653, 648, 649, 657, 657, 665, 671, 673, 672, 670, 669, 654, 656, 663, 673, 670, 668, 668, 669, 669, 668, 667, 664, 656, 657, 653, 653, 653, 652, 652, 652, 652, 654, 654, 645, 642, 642, 642, 642, 642, 642, 642, 642, 642, 640, 647, 652, 652, 657, 658, 654, 650, 659, 670, 665, 660, 679, 669, 657, 653, 647, 647, 638, 637, 636, 636, 635, 632, 630, 623, 628, 633, 632, 632, 633, 634, 635, 636, 639, 643, 654, 662, 663, 667, 677, 677, 682, 678, 675, 669, 666, 661, 658, 657, 663, 668, 670, 675, 679, 681, 682, 678, 679, 679, 669, 675, 675, 685, 685, 683, 669, 660, 650, 648, 655, 653, 652, 652, 655, 658, 656, 650, 652, 653, 653, 653, 652, 650, 648, 639, 638, 648, 650, 650, 643, 648, 650, 638, 635, 634, 635, 640, 648, 643, 640, 635, 634, 633, 635, 641, 641, 636, 634, 634, 621, 618, 613, 605, 598, 603, 611, 621, 621, 627, 618, 601, 611, 620, 616, 617, 629]}}, {"type": "Feature", "geometry": {"type": "LineString", "coordinates": [[-96.24653, 33.300669], [-96.2459, 33.30068], [-96.24527, 33.300669], [-96.24465, 33.30066], [-96.24465, 33.30066], [-96.24364, 33.30064], [-96.24264, 33.30063]]}, "properties": {"surface": "pavement", "label": "Pavement", "color": "#4A5568", "miles": 0.22, "start_mi": 15.29, "end_mi": 15.51, "road": "FM 1562", "elev_ft": [640, 647, 651, 653, 653, 653, 657]}}, {"type": "Feature", "geometry": {"type": "LineString", "coordinates": [[-96.24259, 33.301], [-96.24256, 33.3018], [-96.24254, 33.30259], [-96.24252, 33.30339], [-96.24249, 33.30419], [-96.2425, 33.30457], [-96.24247, 33.30505], [-96.24247, 33.30505], [-96.24245, 33.30556], [-96.24242, 33.30607], [-96.2424, 33.30672], [-96.24238, 33.30736], [-96.24236, 33.30801], [-96.24236, 33.30848], [-96.24236, 33.30895], [-96.24237, 33.30951], [-96.24237, 33.30951], [-96.24239, 33.31033], [-96.24242, 33.31114], [-96.24244, 33.31196], [-96.24236, 33.31268], [-96.24229, 33.3134], [-96.24222, 33.31412], [-96.24222, 33.31412], [-96.24215, 33.31486], [-96.24209, 33.3156], [-96.24203, 33.316339], [-96.24196, 33.317079], [-96.24192, 33.317929], [-96.24188, 33.318779], [-96.24188, 33.318779], [-96.24183, 33.31953], [-96.24179, 33.32029], [-96.24174, 33.32104], [-96.24169, 33.3218], [-96.24131, 33.32177], [-96.24045, 33.32173], [-96.2396, 33.3217], [-96.23875, 33.321669], [-96.238, 33.32165], [-96.23724, 33.32163], [-96.23665, 33.32163], [-96.23607, 33.32163], [-96.23526, 33.32157], [-96.23446, 33.32152], [-96.23382, 33.3215], [-96.23317, 33.32148], [-96.23317, 33.32148], [-96.2322, 33.32145], [-96.23124, 33.32142], [-96.23028, 33.321399], [-96.22964, 33.32139], [-96.229, 33.321379], [-96.22826, 33.32135], [-96.22752, 33.32133], [-96.22681, 33.3213], [-96.2261, 33.32127], [-96.22592, 33.32124], [-96.22587, 33.32123], [-96.22578, 33.32115], [-96.22572, 33.32108], [-96.2257, 33.32098], [-96.22574, 33.320189], [-96.22579, 33.3194], [-96.22579, 33.3194], [-96.22582, 33.31879], [-96.22586, 33.31817], [-96.22589, 33.31756], [-96.22593, 33.31694], [-96.22597, 33.316319], [-96.22596, 33.31624], [-96.22594, 33.31619], [-96.22588, 33.316119], [-96.22585, 33.3161], [-96.22559, 33.31607], [-96.22479, 33.316049], [-96.22398, 33.316029], [-96.22318, 33.316], [-96.22219, 33.31597], [-96.2212, 33.31593], [-96.22021, 33.3159], [-96.22021, 33.3159], [-96.2196, 33.31588], [-96.21861, 33.31586], [-96.21762, 33.31584], [-96.21662, 33.31582], [-96.21556, 33.31579], [-96.21449, 33.315759], [-96.21356, 33.31572], [-96.21264, 33.31568], [-96.21171, 33.31564], [-96.21171, 33.31564], [-96.21089, 33.31561], [-96.21006, 33.315579], [-96.20924, 33.31554], [-96.20833, 33.31551], [-96.20743, 33.315489], [-96.20652, 33.31546], [-96.20561, 33.31543], [-96.20471, 33.315399], [-96.20471, 33.315399], [-96.20399, 33.31537], [-96.20376, 33.315379], [-96.20369, 33.31539], [-96.20362, 33.31542], [-96.20355, 33.31546], [-96.20347, 33.31553], [-96.20342, 33.31562], [-96.20339, 33.31573], [-96.20338, 33.31588], [-96.20337, 33.316409], [-96.20336, 33.31693], [-96.20337, 33.31733], [-96.20335, 33.3175], [-96.20333, 33.31759], [-96.2033, 33.31765], [-96.20324, 33.31774], [-96.20309, 33.31774], [-96.20203, 33.31774], [-96.20097, 33.31774], [-96.19991, 33.317749], [-96.19991, 33.317749], [-96.19918, 33.317749], [-96.19826, 33.31774], [-96.19725, 33.31774], [-96.19623, 33.31774], [-96.19522, 33.31774], [-96.1942, 33.31774], [-96.19319, 33.31774], [-96.19218, 33.31774], [-96.19218, 33.31774], [-96.19164, 33.317729], [-96.19109, 33.31772], [-96.19111, 33.316969], [-96.19112, 33.316229], [-96.19115, 33.315739], [-96.19119, 33.31525], [-96.1912, 33.31479], [-96.1912, 33.31434], [-96.19122, 33.31384], [-96.19123, 33.313339], [-96.19123, 33.313339], [-96.19128, 33.31252], [-96.19128, 33.311839], [-96.1913, 33.31105], [-96.19132, 33.31025], [-96.19134, 33.30946], [-96.19134, 33.308999], [-96.19134, 33.30854], [-96.19137, 33.30783], [-96.19137, 33.30783], [-96.19139, 33.307029], [-96.19143, 33.30668], [-96.19145, 33.30622], [-96.19148, 33.30576], [-96.1915, 33.30505], [-96.19152, 33.30434], [-96.19154, 33.30363], [-96.19154, 33.30363], [-96.19156, 33.30277], [-96.19158, 33.30191], [-96.19159, 33.301049], [-96.19161, 33.30019], [-96.19163, 33.29969], [-96.19166, 33.29919], [-96.19166, 33.29919], [-96.19168, 33.29872], [-96.1917, 33.29825], [-96.19171, 33.2982], [-96.19173, 33.29804], [-96.19176, 33.29734], [-96.19178, 33.296639], [-96.19178, 33.296639], [-96.1918, 33.29619], [-96.19182, 33.29574], [-96.19181, 33.29547], [-96.19181, 33.29536]]}, "properties": {"surface": "unknown", "label": "Unverified", "color": "#9A9389", "miles": 6.41, "start_mi": 15.51, "end_mi": 21.93, "road": "County Road 1147", "elev_ft": [651, 651, 653, 648, 641, 647, 651, 651, 657, 659, 666, 666, 663, 663, 660, 657, 657, 653, 652, 653, 648, 639, 623, 623, 613, 605, 609, 618, 633, 644, 644, 649, 654, 653, 651, 653, 654, 641, 634, 630, 631, 643, 649, 660, 658, 651, 648, 648, 656, 645, 656, 667, 677, 680, 676, 666, 649, 657, 659, 662, 662, 662, 656, 652, 652, 662, 661, 658, 662, 658, 656, 655, 654, 654, 656, 655, 661, 668, 679, 692, 695, 695, 690, 688, 685, 686, 680, 677, 675, 673, 670, 670, 665, 660, 660, 663, 668, 672, 680, 686, 686, 691, 690, 690, 690, 690, 690, 689, 689, 689, 689, 690, 692, 692, 692, 692, 692, 692, 691, 689, 682, 682, 678, 670, 671, 674, 672, 671, 669, 666, 666, 664, 663, 663, 663, 662, 662, 661, 661, 660, 660, 660, 658, 657, 656, 653, 652, 651, 650, 650, 650, 649, 649, 649, 650, 651, 652, 654, 654, 657, 661, 663, 663, 661, 659, 659, 656, 654, 653, 652, 651, 651, 651, 652, 653, 654, 654]}}, {"type": "Feature", "geometry": {"type": "LineString", "coordinates": [[-96.19243, 33.29482], [-96.19243, 33.29482], [-96.19286, 33.294449], [-96.19286, 33.294449], [-96.19307, 33.29426], [-96.19334, 33.29401], [-96.19369, 33.293709], [-96.19369, 33.293709], [-96.1941, 33.29337], [-96.1945, 33.29302], [-96.1945, 33.29302], [-96.19496, 33.29263], [-96.19543, 33.29223], [-96.19543, 33.29223], [-96.19589, 33.291829], [-96.19635, 33.29144], [-96.19635, 33.29144], [-96.1968, 33.29104], [-96.19726, 33.29065], [-96.19763, 33.29032], [-96.19763, 33.29032], [-96.19832, 33.28971], [-96.199, 33.289099], [-96.199, 33.289099], [-96.19948, 33.28868], [-96.19995, 33.288249], [-96.20004, 33.28821], [-96.20026, 33.287999], [-96.20093, 33.287419], [-96.20093, 33.287419], [-96.20157, 33.286859], [-96.20222, 33.28631], [-96.20286, 33.28575], [-96.20286, 33.28575], [-96.20331, 33.28537], [-96.20375, 33.28499], [-96.20434, 33.28447], [-96.20493, 33.28394], [-96.20493, 33.28394], [-96.2055, 33.283459], [-96.20608, 33.28298], [-96.20625, 33.282829], [-96.20669, 33.282449], [-96.20713, 33.28208], [-96.20713, 33.28208], [-96.20739, 33.28186], [-96.20751, 33.28173], [-96.20822, 33.28114], [-96.20892, 33.28054], [-96.20962, 33.27995], [-96.20962, 33.27995], [-96.20971, 33.27988], [-96.20981, 33.27977], [-96.21031, 33.27935], [-96.21082, 33.27893], [-96.21151, 33.2783], [-96.21221, 33.27767], [-96.21221, 33.27767], [-96.21266, 33.27727], [-96.2131, 33.27687], [-96.21356, 33.2765], [-96.21401, 33.27613], [-96.21446, 33.27573], [-96.21475, 33.275489], [-96.21505, 33.27527], [-96.21548, 33.27498], [-96.21548, 33.27498], [-96.21571, 33.274839], [-96.21623, 33.27454], [-96.21676, 33.27424], [-96.21757, 33.27376], [-96.21839, 33.27328], [-96.2192, 33.27279], [-96.22002, 33.272309], [-96.22002, 33.272309], [-96.22083, 33.27183], [-96.22165, 33.27135], [-96.22223, 33.27103], [-96.22281, 33.270699], [-96.22307, 33.27051], [-96.22368, 33.27015], [-96.2243, 33.269779], [-96.22498, 33.26939], [-96.22498, 33.26939], [-96.2256, 33.26903], [-96.22622, 33.268659], [-96.22659, 33.268459], [-96.22739, 33.26796], [-96.2281, 33.26747], [-96.2287, 33.26704], [-96.2287, 33.26704], [-96.22922, 33.266599], [-96.22947, 33.26637], [-96.22983, 33.26606], [-96.22992, 33.26596], [-96.23003, 33.26587], [-96.23038, 33.26552], [-96.23056, 33.26532], [-96.23082, 33.265079], [-96.23112, 33.26476], [-96.23137, 33.26446], [-96.23137, 33.26446], [-96.23166, 33.26413], [-96.23217, 33.26352], [-96.23267, 33.26292], [-96.23318, 33.26231], [-96.23368, 33.26171], [-96.23418, 33.26111], [-96.23418, 33.26111], [-96.23474, 33.26044], [-96.23531, 33.25977], [-96.23587, 33.259099], [-96.23643, 33.25842], [-96.237, 33.25775], [-96.237, 33.25775], [-96.23724, 33.257469], [-96.23782, 33.256839], [-96.23818, 33.25649], [-96.23853, 33.25613], [-96.23889, 33.25583], [-96.23917, 33.255609], [-96.23921, 33.25556], [-96.23945, 33.25538], [-96.23987, 33.25504], [-96.2403, 33.254689], [-96.2403, 33.254689], [-96.24097, 33.25414], [-96.24163, 33.2536], [-96.2423, 33.25305], [-96.24297, 33.25251], [-96.24297, 33.25251], [-96.24357, 33.252029], [-96.24417, 33.25155], [-96.24423, 33.25148], [-96.24443, 33.2513], [-96.24468, 33.251109], [-96.24521, 33.2507], [-96.24573, 33.25029], [-96.24573, 33.25029], [-96.2461, 33.25], [-96.24627, 33.249809], [-96.24647, 33.24964], [-96.24678, 33.24939], [-96.24687, 33.24931], [-96.24726, 33.24901], [-96.24726, 33.24901], [-96.24768, 33.24869], [-96.24809, 33.24837], [-96.2484, 33.2481], [-96.24884, 33.24775], [-96.24884, 33.24775], [-96.24956, 33.24719], [-96.25005, 33.24681], [-96.25005, 33.24681], [-96.25041, 33.246519], [-96.25113, 33.24592], [-96.25113, 33.24592], [-96.25156, 33.245559], [-96.25227, 33.24499], [-96.25227, 33.24499], [-96.25284, 33.244529], [-96.25341, 33.24407], [-96.25341, 33.24407], [-96.25405, 33.24355], [-96.2547, 33.243029], [-96.2547, 33.243029], [-96.25533, 33.24253], [-96.25596, 33.24204], [-96.25607, 33.24192], [-96.25639, 33.24168], [-96.25639, 33.24168], [-96.25688, 33.2413], [-96.25728, 33.24098], [-96.25768, 33.24065], [-96.25768, 33.24065], [-96.25823, 33.2402], [-96.25878, 33.239759], [-96.25933, 33.23931], [-96.25933, 33.23931], [-96.25988, 33.23886], [-96.26043, 33.23841], [-96.26099, 33.23796], [-96.26099, 33.23796], [-96.26154, 33.23751], [-96.26209, 33.23707], [-96.26264, 33.23662], [-96.26264, 33.23662], [-96.2634, 33.235999], [-96.26387, 33.235619], [-96.26433, 33.235239], [-96.26433, 33.235239], [-96.26492, 33.23476], [-96.26551, 33.23428], [-96.26609, 33.23381], [-96.26609, 33.23381], [-96.2667, 33.23332], [-96.26731, 33.232819], [-96.26792, 33.232329], [-96.26792, 33.232329], [-96.26854, 33.23184], [-96.26915, 33.23134], [-96.26977, 33.23084], [-96.27044, 33.2303], [-96.27111, 33.22976], [-96.27177, 33.229219], [-96.27243, 33.22869], [-96.2731, 33.22815], [-96.27376, 33.22761], [-96.27442, 33.227069], [-96.27508, 33.226529], [-96.27508, 33.226529], [-96.27548, 33.22621], [-96.27587, 33.22589], [-96.27649, 33.2254], [-96.2771, 33.224919], [-96.27773, 33.2244], [-96.27773, 33.2244], [-96.27819, 33.22401], [-96.27867, 33.22366], [-96.27918, 33.223239], [-96.27969, 33.22282], [-96.27969, 33.22282], [-96.28013, 33.222459], [-96.28058, 33.22209], [-96.28073, 33.221939], [-96.28122, 33.22157], [-96.2817, 33.2212], [-96.28196, 33.22099], [-96.28196, 33.22099], [-96.28269, 33.22039], [-96.28342, 33.2198], [-96.28415, 33.2192], [-96.28415, 33.2192], [-96.28475, 33.21871], [-96.28535, 33.21822], [-96.28577, 33.217869], [-96.2862, 33.217529], [-96.2862, 33.217529], [-96.28685, 33.217], [-96.2875, 33.21644], [-96.28757, 33.216389], [-96.28757, 33.216389], [-96.28806, 33.21602], [-96.28854, 33.215649], [-96.28854, 33.215649], [-96.2892, 33.2151], [-96.28986, 33.21455], [-96.28986, 33.21455], [-96.2901, 33.21435], [-96.29036, 33.214149], [-96.29104, 33.21361], [-96.29172, 33.21307], [-96.29172, 33.21307], [-96.29227, 33.212629], [-96.29298, 33.212049], [-96.2937, 33.21146], [-96.2937, 33.21146], [-96.29444, 33.21085], [-96.29519, 33.21024], [-96.29543, 33.21], [-96.29543, 33.21], [-96.29551, 33.20993], [-96.29579, 33.209719], [-96.29589, 33.20966], [-96.29656, 33.20908], [-96.29706, 33.2087], [-96.29755, 33.20832], [-96.29803, 33.207929], [-96.29803, 33.207929], [-96.29861, 33.20747], [-96.29918, 33.207], [-96.29976, 33.20653], [-96.3005, 33.20591], [-96.30125, 33.20528], [-96.302, 33.204659], [-96.30232, 33.2044], [-96.30232, 33.2044], [-96.30309, 33.20378], [-96.30386, 33.20317], [-96.30463, 33.20255], [-96.3054, 33.20194], [-96.30617, 33.20132], [-96.30617, 33.20132], [-96.30682, 33.2008], [-96.30749, 33.200249], [-96.30816, 33.19971], [-96.30869, 33.199289], [-96.30923, 33.19887], [-96.30923, 33.19887], [-96.30991, 33.19832], [-96.31059, 33.19777], [-96.31127, 33.19722], [-96.31194, 33.196669], [-96.31194, 33.196669], [-96.31256, 33.19616], [-96.31319, 33.19565], [-96.31381, 33.19514], [-96.31443, 33.194629], [-96.31505, 33.194119], [-96.31568, 33.19362], [-96.31631, 33.19312], [-96.31631, 33.19312], [-96.31692, 33.192639], [-96.31752, 33.192149], [-96.31813, 33.19166], [-96.31873, 33.19118], [-96.31932, 33.190669], [-96.31991, 33.19017], [-96.32041, 33.18978], [-96.32091, 33.18938], [-96.32091, 33.18938], [-96.32163, 33.188809], [-96.32235, 33.18824], [-96.32307, 33.187649], [-96.32378, 33.18706], [-96.3245, 33.18648], [-96.3245, 33.18648], [-96.32525, 33.18586], [-96.32601, 33.18524], [-96.32676, 33.18462]]}, "properties": {"surface": "two_track", "label": "Ranch two-track", "color": "#6B5A45", "miles": 10.9, "start_mi": 21.93, "end_mi": 32.83, "road": "Northeast Texas Trail", "elev_ft": [660, 660, 661, 661, 664, 666, 666, 666, 663, 663, 663, 662, 661, 661, 661, 661, 661, 661, 659, 657, 657, 653, 650, 650, 645, 640, 640, 640, 637, 637, 640, 640, 643, 643, 644, 647, 648, 647, 647, 645, 641, 640, 640, 640, 640, 639, 637, 630, 630, 628, 628, 630, 630, 629, 627, 624, 621, 621, 618, 615, 613, 611, 612, 618, 620, 622, 622, 624, 627, 629, 629, 628, 626, 622, 622, 620, 621, 620, 622, 623, 629, 631, 634, 634, 637, 644, 645, 644, 640, 645, 645, 651, 655, 659, 659, 660, 660, 660, 661, 662, 664, 664, 670, 675, 681, 679, 680, 679, 679, 679, 676, 670, 669, 670, 670, 671, 677, 680, 682, 688, 690, 690, 690, 690, 690, 690, 699, 692, 690, 690, 690, 689, 690, 690, 690, 695, 700, 704, 704, 706, 709, 710, 716, 717, 719, 719, 715, 710, 709, 702, 702, 694, 691, 691, 691, 700, 700, 702, 710, 710, 710, 713, 713, 714, 712, 712, 706, 713, 714, 720, 720, 720, 720, 720, 720, 720, 719, 719, 719, 711, 710, 709, 709, 709, 705, 700, 700, 699, 698, 698, 698, 698, 700, 702, 702, 707, 710, 710, 710, 710, 712, 715, 714, 710, 704, 701, 702, 700, 699, 689, 689, 690, 689, 689, 688, 685, 685, 684, 680, 679, 680, 680, 670, 668, 667, 662, 660, 660, 660, 655, 650, 650, 650, 647, 646, 645, 645, 645, 650, 651, 650, 650, 650, 650, 650, 650, 650, 650, 650, 651, 655, 658, 658, 660, 667, 670, 670, 674, 677, 679, 679, 680, 680, 680, 690, 690, 689, 688, 688, 684, 680, 675, 677, 680, 681, 684, 684, 690, 690, 689, 688, 684, 684, 680, 680, 674, 672, 672, 672, 672, 670, 670, 669, 669, 658, 651, 651, 640, 640, 640, 640, 640, 640, 640, 640, 636, 640, 640, 647, 650, 650, 658, 660, 660, 659, 656, 656, 651, 649, 655]}}, {"type": "Feature", "geometry": {"type": "LineString", "coordinates": [[-96.32737, 33.18415], [-96.32797, 33.18367], [-96.32797, 33.18367], [-96.32847, 33.18328], [-96.32897, 33.182879], [-96.32929, 33.18265], [-96.33013, 33.18215], [-96.33097, 33.18164], [-96.33163, 33.181289], [-96.33163, 33.181289], [-96.33223, 33.18096], [-96.33284, 33.180639], [-96.33344, 33.18032], [-96.33422, 33.17989], [-96.33499, 33.17946], [-96.33577, 33.179029], [-96.33577, 33.179029], [-96.33665, 33.17855], [-96.33752, 33.17807], [-96.33799, 33.177799], [-96.33867, 33.177439], [-96.33936, 33.17707], [-96.34004, 33.17671], [-96.34068, 33.17635], [-96.34131, 33.176], [-96.34131, 33.176], [-96.34213, 33.17555], [-96.34295, 33.1751], [-96.34377, 33.17465], [-96.3446, 33.1742], [-96.34542, 33.17376], [-96.34624, 33.17331], [-96.34624, 33.17331], [-96.34699, 33.1729], [-96.34773, 33.17249], [-96.34848, 33.172089], [-96.34922, 33.17168], [-96.34971, 33.171419], [-96.35019, 33.17116], [-96.35019, 33.17116], [-96.35102, 33.17071], [-96.35186, 33.17026], [-96.3527, 33.16981], [-96.35317, 33.16953], [-96.35368, 33.16928], [-96.35377, 33.16922], [-96.35377, 33.16922], [-96.35427, 33.168889], [-96.35476, 33.16856], [-96.35547, 33.168], [-96.35571, 33.16778], [-96.35609, 33.16734], [-96.35648, 33.16691], [-96.35674, 33.16657], [-96.35674, 33.16657], [-96.35689, 33.16637], [-96.35701, 33.16614], [-96.35716, 33.1659], [-96.3575, 33.16532], [-96.35776, 33.16478], [-96.35779, 33.16472], [-96.35779, 33.16472], [-96.35784, 33.164589], [-96.35792, 33.16442], [-96.35808, 33.16411], [-96.3583, 33.16349], [-96.3583, 33.16349], [-96.35852, 33.16288], [-96.35874, 33.16227], [-96.35902, 33.16223]]}, "properties": {"surface": "pavement", "label": "Pavement", "color": "#4A5568", "miles": 2.43, "start_mi": 32.83, "end_mi": 35.26, "road": "Northeast Texas Trail", "elev_ft": [659, 662, 662, 666, 670, 670, 672, 670, 670, 670, 668, 660, 657, 653, 661, 670, 670, 671, 680, 680, 680, 680, 680, 680, 680, 680, 680, 680, 680, 678, 668, 660, 660, 660, 662, 660, 660, 660, 661, 661, 668, 666, 666, 664, 662, 662, 662, 663, 659, 659, 659, 658, 654, 654, 654, 655, 659, 659, 650, 650, 649, 649, 649, 649, 647, 644, 644, 640, 640, 640]}}]}