{"type": "FeatureCollection", "features": [{"type": "Feature", "geometry": {"type": "LineString", "coordinates": [[-96.3588, 33.16226], [-96.3588, 33.16226], [-96.3588, 33.16226], [-96.35874, 33.16227], [-96.35852, 33.162889], [-96.3583, 33.1635], [-96.35808, 33.16411], [-96.35798, 33.164299], [-96.35798, 33.164299], [-96.35784, 33.164589], [-96.35776, 33.16478], [-96.3575, 33.16532], [-96.35737, 33.165529], [-96.35737, 33.165529], [-96.35716, 33.1659], [-96.35701, 33.16614], [-96.35689, 33.16637], [-96.35648, 33.16691], [-96.35589, 33.167569], [-96.35589, 33.167569], [-96.35571, 33.16778], [-96.35547, 33.168], [-96.35495, 33.16841], [-96.35495, 33.16841], [-96.35476, 33.16856], [-96.35421, 33.16893], [-96.35373, 33.169249], [-96.35373, 33.169249], [-96.35368, 33.16928], [-96.35317, 33.16953], [-96.3527, 33.16981], [-96.35199, 33.170189], [-96.35199, 33.170189], [-96.3513, 33.17056], [-96.35061, 33.17093], [-96.34991, 33.17131], [-96.34922, 33.17168], [-96.34859, 33.17202], [-96.34797, 33.17237], [-96.34734, 33.17271], [-96.34646, 33.17319], [-96.34558, 33.17367], [-96.3447, 33.174149], [-96.34382, 33.17463], [-96.34382, 33.17463], [-96.343, 33.175069], [-96.34219, 33.17551], [-96.34138, 33.17596], [-96.34071, 33.17633], [-96.34004, 33.17671], [-96.33928, 33.17711], [-96.33852, 33.17752], [-96.33852, 33.17752], [-96.33799, 33.177799], [-96.33752, 33.17807], [-96.33674, 33.1785], [-96.33596, 33.17893], [-96.33518, 33.17935], [-96.33454, 33.179699], [-96.33391, 33.180059], [-96.33327, 33.18041], [-96.33327, 33.18041], [-96.3325, 33.180819], [-96.33173, 33.18123], [-96.33097, 33.18164], [-96.33029, 33.182049], [-96.32962, 33.18245], [-96.32929, 33.18265], [-96.32897, 33.182879], [-96.32821, 33.18348], [-96.32821, 33.18348], [-96.32749, 33.18405], [-96.32676, 33.18462]]}, "properties": {"surface": "pavement", "label": "Pavement", "color": "#4A5568", "miles": 2.47, "start_mi": 0.0, "end_mi": 2.47, "road": "Northeast Texas Trail", "elev_ft": [640, 640, 640, 640, 640, 644, 647, 648, 648, 649, 650, 650, 650, 650, 659, 659, 655, 654, 658, 658, 659, 659, 659, 659, 659, 662, 662, 662, 662, 664, 666, 666, 666, 667, 666, 660, 660, 660, 661, 662, 660, 667, 676, 680, 680, 680, 680, 680, 680, 680, 680, 680, 680, 680, 680, 671, 670, 664, 660, 650, 660, 660, 662, 670, 670, 673, 671, 670, 670, 663, 663, 660, 655]}}, {"type": "Feature", "geometry": {"type": "LineString", "coordinates": [[-96.32611, 33.18516], [-96.32545, 33.185699], [-96.32479, 33.186239], [-96.32414, 33.18677], [-96.32414, 33.18677], [-96.32354, 33.18726], [-96.32295, 33.18775], [-96.32235, 33.18824], [-96.32173, 33.18873], [-96.32112, 33.18922], [-96.3205, 33.189709], [-96.3205, 33.189709], [-96.31991, 33.19017], [-96.31932, 33.190669], [-96.31873, 33.19118], [-96.31812, 33.19167], [-96.31751, 33.19216], [-96.3169, 33.19265], [-96.31628, 33.19314], [-96.31567, 33.19363], [-96.31505, 33.194119], [-96.31439, 33.19467], [-96.31372, 33.19521], [-96.31306, 33.19576], [-96.31239, 33.196309], [-96.31166, 33.1969], [-96.31094, 33.19749], [-96.31021, 33.198079], [-96.31021, 33.198079], [-96.3098, 33.19842], [-96.30939, 33.198749], [-96.30877, 33.19923], [-96.30816, 33.19971], [-96.30749, 33.200249], [-96.30682, 33.2008], [-96.30613, 33.201349], [-96.30544, 33.2019], [-96.30475, 33.20245], [-96.30406, 33.203], [-96.30338, 33.20355], [-96.30269, 33.20411], [-96.302, 33.204659], [-96.3013, 33.20524], [-96.3006, 33.20583], [-96.2999, 33.20641], [-96.2999, 33.20641], [-96.29931, 33.20689], [-96.29873, 33.207369], [-96.29814, 33.207839], [-96.29755, 33.20832], [-96.29706, 33.2087], [-96.29656, 33.20908], [-96.29589, 33.20966], [-96.29579, 33.209719], [-96.29551, 33.20993], [-96.29519, 33.21024], [-96.29464, 33.21069], [-96.29408, 33.21114], [-96.29353, 33.21159], [-96.29353, 33.21159], [-96.2929, 33.21211], [-96.29227, 33.212629], [-96.29163, 33.21314], [-96.291, 33.21365], [-96.29036, 33.214149], [-96.2901, 33.21435], [-96.28962, 33.21475], [-96.28905, 33.21523], [-96.28848, 33.21571], [-96.2879, 33.21614], [-96.2879, 33.21614], [-96.2875, 33.21644], [-96.28685, 33.217], [-96.28637, 33.21739], [-96.28637, 33.21739], [-96.28586, 33.21781], [-96.28535, 33.21822], [-96.28474, 33.218719], [-96.28414, 33.219209], [-96.28353, 33.21971], [-96.28293, 33.2202], [-96.28293, 33.2202], [-96.28232, 33.2207], [-96.2817, 33.2212], [-96.28122, 33.22157]]}, "properties": {"surface": "two_track", "label": "Ranch two-track", "color": "#6B5A45", "miles": 3.61, "start_mi": 2.47, "end_mi": 6.08, "road": "Northeast Texas Trail", "elev_ft": [650, 651, 654, 658, 658, 660, 660, 660, 660, 651, 648, 648, 640, 640, 636, 640, 640, 640, 640, 640, 640, 640, 651, 652, 661, 670, 670, 671, 671, 672, 672, 671, 674, 680, 680, 685, 688, 689, 690, 690, 688, 681, 680, 679, 674, 674, 680, 683, 688, 689, 690, 690, 680, 680, 680, 677, 675, 671, 670, 670, 666, 660, 658, 654, 651, 650, 650, 650, 650, 650, 650, 651, 650, 646, 646, 645, 646, 647, 650, 650, 652, 652, 660, 660, 662]}}, {"type": "Feature", "geometry": {"type": "LineString", "coordinates": [[-96.28073, 33.221939], [-96.28081, 33.22205], [-96.28082, 33.22214], [-96.28074, 33.22222], [-96.28069, 33.222279], [-96.28065, 33.22238], [-96.28061, 33.22252], [-96.28059, 33.22276], [-96.28055, 33.223619], [-96.28051, 33.22448], [-96.28047, 33.22534], [-96.28043, 33.2262], [-96.2804, 33.22706], [-96.28038, 33.22713], [-96.28035, 33.227179], [-96.2803, 33.22722], [-96.28023, 33.227249], [-96.28023, 33.227249], [-96.2801, 33.227269], [-96.27949, 33.227249], [-96.27889, 33.22724], [-96.27829, 33.22723], [-96.27768, 33.22722], [-96.2768, 33.2272], [-96.27592, 33.227179], [-96.27496, 33.22715], [-96.27485, 33.227159], [-96.2746, 33.22723], [-96.27446, 33.22731], [-96.27415, 33.22755], [-96.27345, 33.22816], [-96.27291, 33.22856], [-96.27236, 33.22899], [-96.27216, 33.22918], [-96.27202, 33.229349], [-96.27198, 33.22946], [-96.27196, 33.22961], [-96.27194, 33.23046], [-96.27192, 33.231319], [-96.27191, 33.23207], [-96.27191, 33.23207], [-96.27192, 33.232619], [-96.27192, 33.233159], [-96.27191, 33.23398], [-96.2719, 33.2348], [-96.27189, 33.235619], [-96.27188, 33.23623], [-96.27187, 33.236829], [-96.27281, 33.23687], [-96.27361, 33.23687], [-96.27442, 33.23688], [-96.27477, 33.23688], [-96.27491, 33.2369], [-96.275, 33.236919], [-96.27505, 33.23695], [-96.27509, 33.23699], [-96.27512, 33.23708], [-96.27515, 33.237209], [-96.27518, 33.23743], [-96.27517, 33.237789], [-96.27517, 33.237789], [-96.27513, 33.238509], [-96.27509, 33.23924], [-96.27505, 33.23996], [-96.27505, 33.24031], [-96.27502, 33.24053], [-96.275, 33.240609], [-96.27495, 33.240679], [-96.27488, 33.24072], [-96.27479, 33.24076], [-96.27465, 33.24076], [-96.27366, 33.24074], [-96.27268, 33.24071], [-96.27169, 33.24069], [-96.2707, 33.24066], [-96.26971, 33.24064], [-96.26969, 33.241329], [-96.26968, 33.24203], [-96.26964, 33.24284], [-96.26961, 33.24365], [-96.26957, 33.244459], [-96.26955, 33.245199], [-96.26953, 33.245939], [-96.26953, 33.24666], [-96.26953, 33.24739], [-96.26951, 33.24748], [-96.26949, 33.247529], [-96.26943, 33.24756], [-96.26938, 33.24758], [-96.26926, 33.24759], [-96.2687, 33.247549], [-96.26806, 33.24756], [-96.26707, 33.24752], [-96.26707, 33.24752], [-96.266, 33.2475], [-96.26493, 33.24748], [-96.26385, 33.24745], [-96.26278, 33.24743], [-96.2625, 33.247439], [-96.2625, 33.247439], [-96.26235, 33.247439], [-96.26189, 33.247349], [-96.26156, 33.24734], [-96.26108, 33.24732], [-96.26076, 33.247329], [-96.26074, 33.2479], [-96.26071, 33.24848], [-96.26071, 33.24924], [-96.2607, 33.25], [-96.26066, 33.25033], [-96.26064, 33.25043], [-96.26061, 33.25048], [-96.26048, 33.25066], [-96.26001, 33.25117], [-96.25966, 33.25154], [-96.25929, 33.25189], [-96.25893, 33.252249], [-96.25869, 33.25251], [-96.25861, 33.25262], [-96.25853, 33.25285], [-96.25837, 33.25332], [-96.25832, 33.25347], [-96.25815, 33.25387], [-96.2581, 33.25397], [-96.25764, 33.25454], [-96.25762, 33.2546], [-96.25756, 33.25501], [-96.25757, 33.25529], [-96.2576, 33.25558], [-96.25759, 33.25573], [-96.25752, 33.25603], [-96.2575, 33.25667], [-96.25748, 33.257309], [-96.25747, 33.25777], [-96.25746, 33.25822], [-96.25742, 33.258699], [-96.25737, 33.25918], [-96.25738, 33.25927], [-96.25742, 33.25941], [-96.25745, 33.259459], [-96.25755, 33.25954], [-96.25765, 33.25958], [-96.25776, 33.25961], [-96.2585, 33.25962], [-96.25924, 33.25963], [-96.25997, 33.25965], [-96.26004, 33.25968], [-96.26009, 33.259729], [-96.26015, 33.259819], [-96.26019, 33.25992], [-96.2602, 33.26005], [-96.26018, 33.26077], [-96.26016, 33.26149], [-96.26005, 33.26234], [-96.26001, 33.26251], [-96.25995, 33.26308], [-96.25996, 33.26319], [-96.26001, 33.2633], [-96.2601, 33.26344], [-96.26031, 33.26371], [-96.2604, 33.263849], [-96.26043, 33.263959], [-96.26043, 33.264049], [-96.26043, 33.264809], [-96.26044, 33.26558], [-96.26044, 33.26635], [-96.26043, 33.266849], [-96.26042, 33.26735], [-96.26042, 33.26735], [-96.26041, 33.267809], [-96.2604, 33.268279], [-96.26038, 33.26876], [-96.26036, 33.26923], [-96.25931, 33.269199], [-96.25826, 33.26917], [-96.25722, 33.26914], [-96.2562, 33.26909], [-96.25519, 33.26905], [-96.2542, 33.26901], [-96.25321, 33.26898], [-96.25221, 33.26894], [-96.25122, 33.26891], [-96.25107, 33.26889], [-96.25092, 33.268859], [-96.2508, 33.26878], [-96.25038, 33.268389], [-96.25015, 33.26821], [-96.24998, 33.26815], [-96.24957, 33.26809], [-96.24943, 33.26804], [-96.24934, 33.26796], [-96.24916, 33.26787], [-96.24883, 33.26756], [-96.24859, 33.267319], [-96.24839, 33.2672], [-96.24826, 33.26715], [-96.2481, 33.26709], [-96.24786, 33.26706], [-96.24704, 33.26703], [-96.24632, 33.26702], [-96.2456, 33.26701], [-96.2456, 33.26701], [-96.24457, 33.267], [-96.24354, 33.26699], [-96.24251, 33.266979], [-96.24174, 33.266979], [-96.24096, 33.266979], [-96.24055, 33.26697], [-96.24054, 33.26775], [-96.24053, 33.26853], [-96.24051, 33.26932], [-96.2405, 33.2701], [-96.24049, 33.27088], [-96.24048, 33.27167], [-96.24046, 33.27245], [-96.24046, 33.27292], [-96.24046, 33.27338], [-96.24045, 33.27385], [-96.24044, 33.27432], [-96.24042, 33.27503], [-96.2404, 33.27574], [-96.24038, 33.276449], [-96.24036, 33.27716], [-96.24035, 33.277839], [-96.24034, 33.27852], [-96.24034, 33.27852], [-96.24033, 33.27906], [-96.2403, 33.27957], [-96.24028, 33.280079], [-96.2411, 33.280099], [-96.24183, 33.28009], [-96.24256, 33.28007], [-96.24329, 33.28006], [-96.24327, 33.28058], [-96.24325, 33.2811], [-96.24322, 33.28174], [-96.24319, 33.28238], [-96.24316, 33.283009], [-96.24315, 33.28349], [-96.24313, 33.283969], [-96.24314, 33.28457], [-96.24314, 33.28517], [-96.24313, 33.28582], [-96.24313, 33.286479], [-96.24313, 33.286569], [-96.24315, 33.28663], [-96.2432, 33.28672], [-96.24333, 33.28676], [-96.24346, 33.286769], [-96.24407, 33.28678], [-96.24504, 33.28678], [-96.24601, 33.28678], [-96.24698, 33.28679], [-96.24799, 33.28679], [-96.24899, 33.2868], [-96.25, 33.28681], [-96.25016, 33.28682], [-96.25031, 33.28685], [-96.25038, 33.28692], [-96.2504, 33.287], [-96.25039, 33.28765], [-96.25043, 33.28851], [-96.25045, 33.288739], [-96.2505, 33.2889], [-96.25059, 33.28913], [-96.25067, 33.28929], [-96.25071, 33.28944], [-96.25075, 33.28967], [-96.25074, 33.290129], [-96.25074, 33.29059], [-96.25073, 33.29131], [-96.25071, 33.292029], [-96.2507, 33.292749], [-96.25068, 33.29347], [-96.25067, 33.29419], [-96.25068, 33.29478], [-96.25071, 33.295119], [-96.25069, 33.295769], [-96.25067, 33.29643], [-96.25066, 33.29728], [-96.25064, 33.298119], [-96.25062, 33.298969], [-96.25061, 33.29981], [-96.25061, 33.29981], [-96.2506, 33.300669]]}, "properties": {"surface": "unknown", "label": "Unverified", "color": "#9A9389", "miles": 8.98, "start_mi": 6.08, "end_mi": 15.07, "road": "County Road 1100", "elev_ft": [667, 667, 667, 668, 668, 669, 670, 670, 674, 672, 670, 672, 671, 671, 671, 671, 671, 671, 672, 673, 676, 678, 679, 683, 689, 692, 695, 698, 698, 699, 701, 699, 700, 700, 700, 700, 703, 712, 716, 716, 716, 716, 716, 715, 715, 717, 715, 713, 709, 707, 699, 698, 696, 695, 694, 694, 693, 692, 691, 692, 692, 694, 697, 699, 699, 697, 697, 697, 698, 698, 699, 702, 705, 709, 710, 712, 715, 717, 719, 718, 716, 710, 702, 690, 677, 677, 677, 678, 678, 679, 684, 683, 686, 686, 681, 677, 668, 658, 657, 657, 657, 658, 659, 659, 659, 656, 655, 654, 652, 652, 652, 652, 652, 659, 662, 666, 666, 666, 667, 667, 658, 653, 648, 649, 657, 657, 665, 671, 673, 672, 669, 654, 656, 663, 673, 670, 668, 668, 669, 669, 668, 667, 664, 656, 657, 653, 653, 653, 652, 652, 652, 652, 654, 645, 642, 642, 642, 642, 642, 642, 642, 642, 642, 640, 646, 651, 653, 657, 657, 659, 658, 654, 650, 659, 670, 665, 660, 679, 666, 652, 650, 638, 637, 636, 636, 635, 632, 630, 623, 628, 633, 632, 632, 633, 634, 635, 636, 639, 643, 653, 659, 659, 663, 664, 675, 682, 678, 675, 669, 666, 661, 658, 657, 663, 668, 670, 675, 679, 681, 682, 678, 679, 679, 669, 677, 677, 685, 685, 683, 669, 660, 650, 648, 653, 655, 654, 652, 653, 656, 658, 656, 650, 652, 653, 653, 653, 652, 650, 648, 639, 643, 651, 643, 648, 651, 640, 638, 635, 634, 635, 640, 648, 643, 640, 635, 634, 633, 635, 641, 641, 636, 634, 621, 617, 613, 605, 598, 603, 609, 622, 627, 616, 600, 600, 620]}}, {"type": "Feature", "geometry": {"type": "LineString", "coordinates": [[-96.25151, 33.30068], [-96.25242, 33.30069], [-96.25347, 33.30068], [-96.25445, 33.30069], [-96.25542, 33.30069], [-96.2564, 33.3007], [-96.25709, 33.30072], [-96.25779, 33.30075], [-96.25849, 33.30077], [-96.25919, 33.30079], [-96.25942, 33.30082], [-96.25968, 33.30086], [-96.26007, 33.30095], [-96.26037, 33.301049], [-96.26115, 33.301409], [-96.26193, 33.301769], [-96.26271, 33.30213]]}, "properties": {"surface": "pavement", "label": "Pavement", "color": "#4A5568", "miles": 0.67, "start_mi": 15.07, "end_mi": 15.74, "road": "FM 1562", "elev_ft": [621, 610, 604, 617, 620, 617, 610, 608, 602, 611, 615, 619, 620, 620, 618, 615, 614]}}, {"type": "Feature", "geometry": {"type": "LineString", "coordinates": [[-96.26266, 33.302439], [-96.26259, 33.30263], [-96.26248, 33.30283], [-96.26231, 33.30312], [-96.26228, 33.303199], [-96.26227, 33.3038], [-96.26226, 33.304389], [-96.26229, 33.304479], [-96.26231, 33.30462], [-96.26237, 33.30472], [-96.26246, 33.30483], [-96.2626, 33.30496], [-96.26278, 33.30509], [-96.26298, 33.3052], [-96.26319, 33.30527], [-96.26337, 33.30531], [-96.26424, 33.30532], [-96.26476, 33.30536], [-96.26497, 33.30541], [-96.26505, 33.305459], [-96.26511, 33.30554], [-96.26514, 33.3056], [-96.26516, 33.305709], [-96.26517, 33.30579], [-96.26514, 33.30668], [-96.2651, 33.30757], [-96.26507, 33.30847], [-96.26504, 33.309359], [-96.265, 33.31025], [-96.26497, 33.311149], [-96.26494, 33.31168], [-96.26491, 33.31221], [-96.26495, 33.312289], [-96.26503, 33.31235], [-96.2651, 33.31239], [-96.26529, 33.31243], [-96.26596, 33.31253], [-96.26615, 33.3126], [-96.26628, 33.312649], [-96.2665, 33.312779], [-96.26657, 33.31284], [-96.26662, 33.3129], [-96.26669, 33.31306], [-96.26669, 33.31328], [-96.26666, 33.3138], [-96.26662, 33.31431], [-96.26658, 33.31521], [-96.26659, 33.31542], [-96.26667, 33.315759], [-96.26669, 33.316139], [-96.26668, 33.31669], [-96.26667, 33.31723], [-96.26663, 33.318019], [-96.26661, 33.31872], [-96.26659, 33.319429], [-96.26656, 33.32013], [-96.26656, 33.32013], [-96.26655, 33.32074], [-96.26654, 33.32136], [-96.26653, 33.32197], [-96.26606, 33.32197], [-96.26551, 33.32195], [-96.26497, 33.32193], [-96.26483, 33.321939], [-96.26477, 33.321959], [-96.26472, 33.322], [-96.26467, 33.32209], [-96.26465, 33.32229], [-96.26465, 33.323079], [-96.26465, 33.32386], [-96.26465, 33.32464], [-96.26465, 33.32542], [-96.26464, 33.32575], [-96.26463, 33.325879], [-96.26454, 33.32602], [-96.2645, 33.32605], [-96.26436, 33.32607], [-96.26387, 33.32604], [-96.26367, 33.32605], [-96.26358, 33.326079], [-96.26351, 33.32613], [-96.26349, 33.326169], [-96.26344, 33.32694], [-96.26342, 33.32763], [-96.26339, 33.328319], [-96.26336, 33.329009], [-96.26333, 33.3297], [-96.2633, 33.33016], [-96.26327, 33.33062], [-96.26326, 33.33108], [-96.26326, 33.331539], [-96.26325, 33.332], [-96.26324, 33.332459], [-96.2632, 33.333329], [-96.26316, 33.33419], [-96.26312, 33.33505], [-96.26308, 33.33591], [-96.26306, 33.336], [-96.26302, 33.33609], [-96.26289, 33.33618], [-96.26277, 33.336199], [-96.2617, 33.33617], [-96.26062, 33.33614], [-96.25955, 33.336109], [-96.2587, 33.3361], [-96.25786, 33.33609], [-96.25699, 33.33608], [-96.25613, 33.33606], [-96.25531, 33.33603], [-96.2545, 33.33599], [-96.2545, 33.33599], [-96.25383, 33.33597], [-96.25316, 33.335949], [-96.25305, 33.33597], [-96.25297, 33.336], [-96.25291, 33.33614], [-96.25289, 33.336239], [-96.25287, 33.33712], [-96.25285, 33.33769], [-96.25283, 33.33826], [-96.25278, 33.339039], [-96.25274, 33.33982], [-96.25271, 33.34044], [-96.25269, 33.34107], [-96.25266, 33.34169], [-96.25265, 33.34232], [-96.25264, 33.342959], [-96.25262, 33.34359], [-96.25259, 33.34436], [-96.25255, 33.34512], [-96.25252, 33.345889], [-96.25251, 33.346429], [-96.2525, 33.34697], [-96.25248, 33.347369], [-96.25244, 33.34801], [-96.2524, 33.34864], [-96.25234, 33.3494], [-96.25227, 33.35015], [-96.25225, 33.35063], [-96.25224, 33.3511], [-96.25221, 33.35157], [-96.25218, 33.35205], [-96.25213, 33.35267], [-96.25209, 33.35329], [-96.25204, 33.35391], [-96.25202, 33.35438], [-96.252, 33.35485], [-96.25196, 33.3553], [-96.25192, 33.355759], [-96.25191, 33.35635], [-96.25189, 33.35694], [-96.25189, 33.35756], [-96.25188, 33.35787], [-96.25186, 33.35866], [-96.25185, 33.35945], [-96.25183, 33.36025], [-96.25182, 33.36104], [-96.2518, 33.36184], [-96.25179, 33.36263], [-96.25177, 33.36343], [-96.25175, 33.36393], [-96.25173, 33.36444], [-96.25172, 33.36518], [-96.2517, 33.366079], [-96.25167, 33.366979], [-96.25164, 33.367669], [-96.25162, 33.36836], [-96.25159, 33.3688], [-96.25159, 33.36948], [-96.25158, 33.36963], [-96.25152, 33.37014], [-96.25146, 33.370649], [-96.25142, 33.37146], [-96.25138, 33.37227], [-96.25134, 33.37308], [-96.2513, 33.37389], [-96.25126, 33.37469], [-96.25122, 33.3755], [-96.25122, 33.3755], [-96.25119, 33.37619], [-96.25115, 33.37688], [-96.25018, 33.376849], [-96.2492, 33.37682], [-96.24822, 33.37679], [-96.24822, 33.37679], [-96.24781, 33.376779], [-96.24769, 33.37682], [-96.24761, 33.37691], [-96.24757, 33.377049], [-96.24758, 33.37726], [-96.24757, 33.37777], [-96.24755, 33.37829], [-96.24754, 33.37881], [-96.24752, 33.3797], [-96.2475, 33.38021], [-96.24748, 33.38073], [-96.24747, 33.38122], [-96.24746, 33.38172], [-96.24744, 33.382379], [-96.24742, 33.38304], [-96.2474, 33.38371], [-96.24735, 33.384529], [-96.24733, 33.384639], [-96.24728, 33.3847], [-96.24725, 33.38479], [-96.24724, 33.38486], [-96.24722, 33.385469], [-96.24719, 33.386069], [-96.24717, 33.38668], [-96.24714, 33.38752], [-96.24711, 33.38835], [-96.24709, 33.38918], [-96.24709, 33.38918], [-96.24707, 33.389809], [-96.24778, 33.38982], [-96.2485, 33.38983], [-96.2486, 33.3898]]}, "properties": {"surface": "unknown", "label": "Unverified", "color": "#9A9389", "miles": 7.28, "start_mi": 15.74, "end_mi": 23.02, "road": "County Road 1135", "elev_ft": [619, 621, 622, 625, 626, 631, 633, 633, 633, 633, 633, 633, 633, 631, 629, 627, 621, 614, 611, 610, 608, 607, 606, 605, 608, 623, 632, 626, 610, 592, 590, 585, 585, 584, 584, 583, 580, 580, 581, 581, 581, 581, 582, 582, 583, 584, 585, 585, 586, 588, 596, 602, 606, 606, 611, 615, 615, 620, 623, 623, 624, 623, 622, 622, 622, 622, 622, 622, 620, 623, 618, 618, 621, 623, 627, 628, 629, 634, 635, 635, 635, 635, 640, 643, 641, 638, 631, 636, 636, 626, 620, 611, 621, 639, 646, 651, 653, 653, 651, 650, 650, 641, 628, 632, 641, 652, 656, 653, 648, 645, 645, 648, 647, 647, 647, 647, 647, 650, 651, 645, 647, 651, 641, 650, 653, 654, 654, 653, 650, 651, 653, 655, 658, 660, 660, 658, 662, 668, 670, 670, 671, 674, 676, 678, 679, 679, 681, 683, 686, 688, 689, 690, 691, 693, 695, 696, 698, 701, 701, 701, 701, 700, 700, 700, 700, 704, 707, 708, 710, 710, 712, 714, 715, 714, 710, 708, 707, 706, 706, 707, 708, 710, 709, 709, 709, 709, 709, 709, 709, 709, 709, 711, 714, 719, 720, 721, 722, 722, 723, 723, 724, 725, 725, 725, 725, 725, 726, 726, 727, 728, 728, 729, 729, 729, 727, 725, 724]}}, {"type": "Feature", "geometry": {"type": "LineString", "coordinates": [[-96.24865, 33.38983], [-96.24877, 33.38985], [-96.24957, 33.38986], [-96.24957, 33.38986], [-96.24993, 33.38986], [-96.25016, 33.389879], [-96.25027, 33.38993], [-96.25035, 33.39], [-96.2504, 33.390099], [-96.25043, 33.390189], [-96.25039, 33.390949], [-96.25035, 33.39171], [-96.25031, 33.39247], [-96.25027, 33.39323], [-96.25023, 33.39399], [-96.25023, 33.39399]]}, "properties": {"surface": "pavement", "label": "Pavement", "color": "#4A5568", "miles": 0.38, "start_mi": 23.02, "end_mi": 23.4, "road": "North Oak Street", "elev_ft": [724, 724, 720, 720, 719, 718, 716, 715, 715, 714, 713, 711, 718, 721, 722, 722]}}, {"type": "Feature", "geometry": {"type": "LineString", "coordinates": [[-96.2502, 33.39477], [-96.25046, 33.39519], [-96.25069, 33.395339], [-96.25097, 33.3954], [-96.25179, 33.39542], [-96.25261, 33.395449], [-96.25342, 33.39548], [-96.25424, 33.39551], [-96.25424, 33.39551], [-96.25513, 33.39555], [-96.25602, 33.39558], [-96.25691, 33.395609], [-96.2578, 33.39564], [-96.2587, 33.39567], [-96.25933, 33.39569], [-96.25997, 33.395699], [-96.25997, 33.395699], [-96.26081, 33.395719], [-96.26165, 33.39575], [-96.26249, 33.39577], [-96.26246, 33.39652], [-96.26242, 33.39728], [-96.26239, 33.39803], [-96.26236, 33.39879], [-96.26233, 33.39954], [-96.26229, 33.4003], [-96.26254, 33.40048], [-96.26345, 33.400509], [-96.26437, 33.40053], [-96.2647, 33.40062], [-96.26486, 33.40076], [-96.26485, 33.40148], [-96.2648, 33.40224], [-96.26475, 33.40301], [-96.26469, 33.403779], [-96.26468, 33.404519], [-96.26466, 33.40527], [-96.26466, 33.40527], [-96.26464, 33.406039], [-96.26462, 33.40682], [-96.2646, 33.40759], [-96.26458, 33.408369], [-96.26456, 33.40914], [-96.26452, 33.4097], [-96.26436, 33.409869], [-96.26427, 33.41042], [-96.26423, 33.41111], [-96.26418, 33.4118], [-96.2641, 33.41232], [-96.26392, 33.41257], [-96.26351, 33.41279], [-96.26302, 33.41304], [-96.26254, 33.41328], [-96.26237, 33.413449], [-96.26214, 33.41379], [-96.2619, 33.414009], [-96.26157, 33.41417], [-96.2612, 33.414189], [-96.26087, 33.41417], [-96.26085, 33.414749], [-96.26084, 33.41534], [-96.26084, 33.41534], [-96.26084, 33.41579], [-96.26083, 33.41624], [-96.26082, 33.41705], [-96.2608, 33.417859], [-96.26076, 33.41845], [-96.26073, 33.41904], [-96.26069, 33.41979], [-96.26066, 33.42054], [-96.26062, 33.42129], [-96.26058, 33.42204], [-96.26056, 33.42273], [-96.26054, 33.423409], [-96.26055, 33.423609], [-96.26061, 33.42374], [-96.26162, 33.42378], [-96.26264, 33.42381], [-96.26365, 33.42385], [-96.26467, 33.423879], [-96.26467, 33.423879], [-96.26487, 33.42389], [-96.26593, 33.4239], [-96.26699, 33.4239], [-96.26706, 33.42389], [-96.26711, 33.423859], [-96.26713, 33.423789], [-96.26715, 33.42333], [-96.2672, 33.42325], [-96.26729, 33.42322], [-96.26736, 33.423209], [-96.26788, 33.4232], [-96.26839, 33.42316], [-96.26892, 33.42308], [-96.26944, 33.42299], [-96.26982, 33.42287], [-96.27045, 33.42264], [-96.27108, 33.42241], [-96.27146, 33.42233], [-96.27194, 33.42232], [-96.27295, 33.422359], [-96.27397, 33.42239], [-96.27499, 33.42242], [-96.27492, 33.42326], [-96.27485, 33.42411], [-96.27482, 33.42421], [-96.27477, 33.424259], [-96.27471, 33.42431], [-96.27463, 33.424329], [-96.27369, 33.42429], [-96.27275, 33.42425], [-96.27181, 33.42421], [-96.27167, 33.42422], [-96.27152, 33.424239], [-96.27142, 33.42427], [-96.27137, 33.424329], [-96.27133, 33.4244], [-96.27132, 33.42503], [-96.2713, 33.42566], [-96.27129, 33.426299], [-96.27128, 33.42683], [-96.27127, 33.42737], [-96.27119, 33.428089], [-96.27111, 33.42882], [-96.27108, 33.42943], [-96.27106, 33.43003], [-96.27106, 33.43003], [-96.27103, 33.43076], [-96.27099, 33.43155], [-96.27095, 33.43234], [-96.27091, 33.43314], [-96.27088, 33.433929], [-96.27086, 33.43455], [-96.27084, 33.43518], [-96.26985, 33.43515], [-96.26885, 33.43513], [-96.26786, 33.43511], [-96.26686, 33.43509], [-96.26587, 33.43507], [-96.26487, 33.435049], [-96.26388, 33.435029], [-96.26364, 33.43502], [-96.26344, 33.43497], [-96.26282, 33.4348], [-96.26258, 33.43472], [-96.26222, 33.43457], [-96.26212, 33.43453], [-96.26193, 33.43443], [-96.26163, 33.43426], [-96.26136, 33.43404], [-96.26076, 33.433439], [-96.26045, 33.433059], [-96.26008, 33.43257], [-96.2597, 33.43208], [-96.25965, 33.43199], [-96.25959, 33.43197], [-96.25954, 33.43197], [-96.2595, 33.43198], [-96.25944, 33.43202], [-96.25943, 33.43272], [-96.25942, 33.43341], [-96.25939, 33.43347], [-96.25934, 33.4335], [-96.25926, 33.43352], [-96.25915, 33.43352], [-96.25817, 33.43349], [-96.25719, 33.433459], [-96.25621, 33.43343], [-96.25544, 33.43341], [-96.25466, 33.4334], [-96.25377, 33.433369], [-96.25288, 33.433349], [-96.25288, 33.433349], [-96.25198, 33.43332], [-96.25108, 33.43329], [-96.25087, 33.43329], [-96.25056, 33.43332], [-96.25044, 33.43331], [-96.25041, 33.43343], [-96.25039, 33.433549], [-96.25036, 33.43385], [-96.25035, 33.434199], [-96.25005, 33.43424], [-96.24988, 33.43426], [-96.24968, 33.43426], [-96.24889, 33.43425], [-96.2481, 33.43424], [-96.24709, 33.434199], [-96.24608, 33.43417], [-96.24506, 33.43414], [-96.24405, 33.4341], [-96.24304, 33.43407], [-96.24202, 33.43403], [-96.24101, 33.433999], [-96.24, 33.43397], [-96.23899, 33.433929], [-96.23899, 33.433929], [-96.23831, 33.433909], [-96.23764, 33.43388], [-96.2375, 33.43377], [-96.23755, 33.43292], [-96.23761, 33.43207], [-96.23766, 33.43121], [-96.23772, 33.43036], [-96.23862, 33.43022], [-96.23886, 33.43002], [-96.23911, 33.429209], [-96.23935, 33.42841], [-96.23935, 33.427999], [-96.23864, 33.42793], [-96.23845, 33.42784], [-96.23849, 33.427059], [-96.23852, 33.42628], [-96.23856, 33.4255], [-96.23859, 33.424709], [-96.23833, 33.424529], [-96.23829, 33.424419], [-96.23829, 33.424329], [-96.23832, 33.42428], [-96.23844, 33.42421]]}, "properties": {"surface": "two_track", "label": "Ranch two-track", "color": "#6B5A45", "miles": 7.81, "start_mi": 23.4, "end_mi": 31.21, "road": "County Road 4670", "elev_ft": [724, 723, 723, 721, 719, 728, 733, 734, 734, 735, 734, 733, 732, 730, 728, 725, 725, 722, 719, 717, 718, 718, 718, 719, 719, 719, 719, 717, 711, 710, 711, 714, 717, 719, 720, 722, 724, 724, 727, 729, 731, 732, 732, 732, 733, 735, 735, 736, 736, 736, 734, 736, 737, 738, 738, 741, 743, 743, 743, 743, 742, 742, 741, 737, 728, 725, 725, 723, 723, 722, 722, 711, 693, 679, 676, 674, 693, 683, 665, 656, 656, 660, 675, 693, 693, 694, 695, 695, 696, 697, 698, 701, 704, 710, 714, 715, 710, 709, 709, 714, 722, 728, 730, 732, 732, 732, 732, 731, 731, 727, 719, 708, 707, 706, 706, 707, 708, 716, 722, 723, 716, 700, 685, 680, 684, 695, 695, 707, 716, 722, 718, 712, 700, 696, 682, 676, 676, 666, 666, 663, 646, 643, 639, 631, 630, 633, 634, 636, 640, 649, 664, 669, 672, 673, 671, 670, 670, 671, 672, 669, 665, 666, 667, 669, 671, 673, 690, 702, 706, 702, 667, 646, 646, 657, 684, 688, 698, 699, 703, 708, 715, 715, 714, 713, 712, 714, 720, 696, 675, 660, 650, 642, 632, 627, 630, 621, 621, 620, 626, 627, 630, 632, 641, 642, 657, 663, 661, 661, 660, 652, 657, 665, 679, 694, 701, 698, 699, 700, 701, 702]}}, {"type": "Feature", "geometry": {"type": "LineString", "coordinates": [[-96.23863, 33.424129], [-96.23867, 33.42399], [-96.23973, 33.42401], [-96.24079, 33.42403], [-96.24162, 33.424059], [-96.24246, 33.42409], [-96.24329, 33.42412], [-96.24343, 33.42405], [-96.24349, 33.42383], [-96.24353, 33.42299], [-96.24353, 33.42299], [-96.24356, 33.42212], [-96.2436, 33.42125], [-96.24362, 33.42076], [-96.24363, 33.42028], [-96.24367, 33.41953], [-96.24371, 33.41878], [-96.24372, 33.41816], [-96.24373, 33.41754], [-96.24374, 33.41691], [-96.24374, 33.41691], [-96.24375, 33.41644], [-96.24376, 33.41596], [-96.24284, 33.41592], [-96.24192, 33.415889], [-96.241, 33.41585], [-96.24008, 33.41581], [-96.23916, 33.415779], [-96.23813, 33.415799], [-96.23709, 33.415819], [-96.23606, 33.41584], [-96.23564, 33.41577], [-96.2353, 33.4155], [-96.23505, 33.41517], [-96.23482, 33.415], [-96.23413, 33.414879], [-96.23413, 33.414879], [-96.23384, 33.41483], [-96.23296, 33.414769], [-96.23265, 33.41479], [-96.23243, 33.414769], [-96.23238, 33.41446], [-96.23241, 33.41416], [-96.23237, 33.41396], [-96.23223, 33.41377]]}, "properties": {"surface": "two_track", "label": "Ranch two-track", "color": "#6B5A45", "miles": 1.6, "start_mi": 31.21, "end_mi": 32.8, "road": "F C 4725", "elev_ft": [705, 706, 712, 717, 712, 693, 677, 676, 677, 684, 684, 693, 703, 717, 722, 724, 726, 732, 732, 731, 731, 728, 725, 715, 715, 709, 701, 696, 690, 687, 684, 691, 692, 692, 692, 694, 694, 695, 700, 710, 718, 717, 714, 713, 713]}}, {"type": "Feature", "geometry": {"type": "LineString", "coordinates": [[-96.23205, 33.41411], [-96.23192, 33.41434], [-96.2316, 33.4147], [-96.23139, 33.414879], [-96.23122, 33.41503], [-96.23104, 33.41518], [-96.23061, 33.41543], [-96.23018, 33.41561], [-96.22945, 33.415889], [-96.22873, 33.416159], [-96.22801, 33.41644], [-96.2275, 33.41667], [-96.22718, 33.41684], [-96.22652, 33.417209], [-96.2257, 33.417679], [-96.22488, 33.418149], [-96.22407, 33.418619], [-96.22325, 33.41908], [-96.22246, 33.419559], [-96.22167, 33.420029], [-96.22134, 33.42026], [-96.22114, 33.42046], [-96.22097, 33.42063], [-96.22082, 33.42083], [-96.22066, 33.421039], [-96.22054, 33.42128]]}, "properties": {"surface": "pavement", "label": "Pavement", "color": "#4A5568", "miles": 0.84, "start_mi": 32.8, "end_mi": 33.65, "road": "Farm-to-Market Road 1553", "elev_ft": [717, 721, 730, 736, 739, 741, 743, 741, 732, 732, 731, 730, 730, 729, 729, 730, 732, 732, 732, 732, 731, 729, 728, 727, 724, 722]}}, {"type": "Feature", "geometry": {"type": "LineString", "coordinates": [[-96.22043, 33.421529], [-96.22013, 33.421349], [-96.22017, 33.42082], [-96.22021, 33.420299], [-96.22004, 33.420029], [-96.21905, 33.41997], [-96.21822, 33.41995], [-96.2174, 33.41993], [-96.21657, 33.41991], [-96.21574, 33.41989], [-96.21574, 33.41989], [-96.21514, 33.41988], [-96.21505, 33.41989], [-96.21494, 33.419939], [-96.21488, 33.420009], [-96.21486, 33.42009], [-96.21482, 33.420319], [-96.21475, 33.42119], [-96.21473, 33.42128], [-96.21467, 33.42132], [-96.21458, 33.42134], [-96.21443, 33.42134], [-96.21354, 33.42131], [-96.21265, 33.42127], [-96.21176, 33.42123], [-96.21087, 33.4212], [-96.21006, 33.42118], [-96.20925, 33.421169], [-96.20843, 33.42116], [-96.20762, 33.421149], [-96.20762, 33.421149], [-96.20689, 33.421129], [-96.20617, 33.42111], [-96.2053, 33.42108], [-96.20443, 33.42105], [-96.20357, 33.42101], [-96.2027, 33.42098], [-96.20255, 33.42108], [-96.2025, 33.42127], [-96.20236, 33.42154], [-96.20174, 33.42195], [-96.20112, 33.422359], [-96.2005, 33.42277], [-96.20009, 33.42284], [-96.19916, 33.4228], [-96.19822, 33.42277], [-96.19729, 33.42273], [-96.19635, 33.4227], [-96.19542, 33.42266], [-96.19542, 33.42266], [-96.19463, 33.422629], [-96.19461, 33.42345], [-96.19458, 33.42428], [-96.19456, 33.4251], [-96.19453, 33.425919], [-96.19452, 33.42613], [-96.19448, 33.426319], [-96.19438, 33.42651], [-96.19418, 33.42681], [-96.194, 33.42705], [-96.19382, 33.4272], [-96.19351, 33.427349], [-96.19319, 33.42748], [-96.19229, 33.42768]]}, "properties": {"surface": "two_track", "label": "Ranch two-track", "color": "#6B5A45", "miles": 2.14, "start_mi": 33.65, "end_mi": 35.79, "road": "County Road 4800", "elev_ft": [720, 721, 726, 727, 726, 723, 721, 719, 716, 712, 712, 709, 709, 709, 709, 709, 710, 713, 714, 714, 714, 714, 713, 711, 707, 701, 698, 694, 678, 670, 670, 684, 690, 697, 701, 711, 718, 718, 716, 714, 706, 687, 697, 706, 717, 723, 727, 728, 725, 725, 733, 720, 712, 708, 701, 698, 693, 693, 694, 693, 693, 694, 694, 690]}}, {"type": "Feature", "geometry": {"type": "LineString", "coordinates": [[-96.19231, 33.427619], [-96.19231, 33.42756], [-96.1923, 33.4275], [-96.19224, 33.42729], [-96.19223, 33.427239], [-96.19224, 33.42714], [-96.19227, 33.42693], [-96.19227, 33.42676], [-96.19226, 33.42645], [-96.19225, 33.4264], [-96.19222, 33.42638], [-96.19158, 33.426229], [-96.19137, 33.4262], [-96.1913, 33.4262], [-96.19122, 33.426209], [-96.19116, 33.42624], [-96.19108, 33.42628]]}, "properties": {"surface": "unknown", "label": "Unverified", "color": "#9A9389", "miles": 0.16, "start_mi": 35.79, "end_mi": 35.95, "road": "", "elev_ft": [692, 693, 694, 695, 696, 697, 699, 700, 704, 705, 705, 703, 702, 701, 700, 700, 699]}}, {"type": "Feature", "geometry": {"type": "LineString", "coordinates": [[-96.19099, 33.42636], [-96.19092, 33.426319], [-96.19009, 33.42586], [-96.18926, 33.4254], [-96.18921, 33.42531], [-96.18918, 33.42522], [-96.1892, 33.42452], [-96.18922, 33.42382], [-96.18924, 33.423119], [-96.18926, 33.42242], [-96.18837, 33.422379], [-96.18748, 33.42234], [-96.1866, 33.4223], [-96.18571, 33.42226], [-96.18571, 33.42226], [-96.18509, 33.42223], [-96.18448, 33.422199], [-96.18454, 33.42131], [-96.18461, 33.42043], [-96.18467, 33.419539], [-96.18473, 33.41865], [-96.1848, 33.417769], [-96.18481, 33.416939], [-96.18482, 33.41611], [-96.18483, 33.41528], [-96.18487, 33.4147], [-96.18492, 33.41413], [-96.18492, 33.41413], [-96.18496, 33.41358], [-96.18498, 33.41294], [-96.185, 33.41232], [-96.18502, 33.41171], [-96.18505, 33.41109], [-96.18509, 33.4104], [-96.18513, 33.409709], [-96.18517, 33.40901], [-96.18522, 33.40834], [-96.18526, 33.40767], [-96.18526, 33.407519], [-96.1852, 33.40741], [-96.18508, 33.407359], [-96.18496, 33.40735], [-96.18435, 33.40735], [-96.18337, 33.40733], [-96.1824, 33.4073], [-96.18143, 33.40728], [-96.18046, 33.407249], [-96.17949, 33.40722], [-96.17924, 33.4072], [-96.17924, 33.4072], [-96.17831, 33.407089], [-96.17833, 33.40641], [-96.17835, 33.40573], [-96.17837, 33.40505], [-96.17843, 33.40432], [-96.17848, 33.40359], [-96.17854, 33.402859], [-96.1786, 33.40213], [-96.17866, 33.4014], [-96.17866, 33.4014], [-96.1787, 33.400869], [-96.17875, 33.40034], [-96.17974, 33.400419], [-96.18074, 33.400489], [-96.18178, 33.400489], [-96.18282, 33.400489], [-96.18385, 33.4005], [-96.18391, 33.40038], [-96.18443, 33.40017], [-96.1846, 33.39952], [-96.18478, 33.39887], [-96.18511, 33.39853], [-96.18557, 33.39839], [-96.18646, 33.3984], [-96.18734, 33.39842], [-96.18823, 33.398429], [-96.18912, 33.39844], [-96.19002, 33.398449], [-96.19092, 33.39846], [-96.19182, 33.39847], [-96.19265, 33.398519], [-96.19348, 33.39856], [-96.19437, 33.3986], [-96.19526, 33.39864], [-96.19616, 33.39867], [-96.197, 33.39871], [-96.19785, 33.39875], [-96.19869, 33.39878], [-96.19869, 33.39878], [-96.1995, 33.39882], [-96.20032, 33.39886], [-96.20113, 33.39889], [-96.20208, 33.39891], [-96.20303, 33.39893], [-96.20398, 33.39895], [-96.20493, 33.39897], [-96.20589, 33.398989], [-96.20684, 33.399009], [-96.20758, 33.399009], [-96.20832, 33.39902], [-96.20895, 33.39906], [-96.20958, 33.39909], [-96.21045, 33.39909], [-96.21132, 33.399079], [-96.21219, 33.399079], [-96.21255, 33.39903], [-96.21259, 33.39818], [-96.21263, 33.397329], [-96.21268, 33.39649], [-96.21272, 33.39564], [-96.21276, 33.394799], [-96.2128, 33.393949], [-96.21285, 33.393099], [-96.21289, 33.39249], [-96.21293, 33.39188], [-96.21298, 33.39126], [-96.21301, 33.39061], [-96.21304, 33.38995], [-96.21308, 33.38929], [-96.21308, 33.38929], [-96.21311, 33.388599], [-96.21314, 33.3879], [-96.21317, 33.38721], [-96.21321, 33.386519], [-96.21325, 33.385669], [-96.2133, 33.38483], [-96.21335, 33.383989], [-96.21339, 33.38315], [-96.21344, 33.3823], [-96.21348, 33.381459], [-96.21353, 33.38062], [-96.21358, 33.379779], [-96.21361, 33.37892], [-96.21364, 33.378059], [-96.21367, 33.3772], [-96.2137, 33.37634], [-96.2137, 33.37634], [-96.21373, 33.37552], [-96.21376, 33.374699], [-96.21357, 33.374679], [-96.2137, 33.3746], [-96.21377, 33.37449], [-96.21379, 33.37431], [-96.21382, 33.37377], [-96.21384, 33.37323], [-96.21385, 33.37303], [-96.21391, 33.37289]]}, "properties": {"surface": "two_track", "label": "Ranch two-track", "color": "#6B5A45", "miles": 6.36, "start_mi": 35.95, "end_mi": 42.31, "road": "County Road 4850", "elev_ft": [698, 698, 701, 704, 706, 707, 710, 712, 718, 721, 722, 726, 731, 732, 732, 732, 731, 732, 732, 730, 725, 719, 717, 714, 716, 719, 721, 721, 720, 716, 710, 707, 707, 709, 709, 706, 702, 697, 696, 695, 697, 698, 701, 707, 710, 718, 727, 730, 729, 729, 722, 720, 719, 719, 720, 720, 720, 719, 718, 718, 716, 715, 717, 713, 707, 704, 700, 700, 699, 698, 693, 689, 687, 683, 679, 670, 668, 677, 680, 687, 692, 697, 700, 703, 703, 699, 691, 684, 684, 679, 684, 683, 681, 671, 676, 682, 683, 684, 681, 679, 681, 683, 686, 690, 693, 694, 702, 705, 710, 713, 712, 712, 711, 712, 710, 709, 708, 707, 705, 705, 702, 699, 697, 694, 691, 688, 684, 682, 681, 676, 672, 667, 662, 656, 665, 676, 676, 682, 688, 688, 689, 690, 691, 693, 692, 692, 692]}}, {"type": "Feature", "geometry": {"type": "LineString", "coordinates": [[-96.21386, 33.37239], [-96.21381, 33.37189], [-96.21385, 33.37108], [-96.21389, 33.370269], [-96.21394, 33.369459], [-96.21398, 33.36865], [-96.21402, 33.36784], [-96.21405, 33.36699], [-96.21408, 33.36613], [-96.21411, 33.36528], [-96.21414, 33.36442], [-96.21414, 33.36442], [-96.21416, 33.36369], [-96.21419, 33.36296], [-96.21353, 33.36294], [-96.21288, 33.36291], [-96.21193, 33.36287], [-96.21099, 33.36282], [-96.21024, 33.36278], [-96.20949, 33.36274], [-96.20875, 33.362699], [-96.20775, 33.362679], [-96.20676, 33.36265], [-96.20577, 33.36263], [-96.20478, 33.3626], [-96.20415, 33.3626], [-96.20352, 33.362609], [-96.20338, 33.362589], [-96.20332, 33.36256], [-96.20329, 33.36253], [-96.20305, 33.36224], [-96.20298, 33.3622], [-96.20291, 33.36218], [-96.20205, 33.36211], [-96.20126, 33.362099], [-96.20055, 33.36207], [-96.19983, 33.36204], [-96.19919, 33.362029], [-96.19856, 33.362029], [-96.19856, 33.362029], [-96.19814, 33.362029], [-96.19733, 33.362009], [-96.19653, 33.36199], [-96.19657, 33.361179], [-96.1966, 33.36038], [-96.19661, 33.35992], [-96.19662, 33.35946], [-96.19665, 33.35897], [-96.19667, 33.35848], [-96.19667, 33.35817], [-96.19671, 33.35757], [-96.19673, 33.356749], [-96.19675, 33.35593], [-96.19677, 33.35512], [-96.19679, 33.3543], [-96.19681, 33.35372], [-96.19683, 33.35314], [-96.19685, 33.35299], [-96.1969, 33.352739], [-96.197, 33.35239], [-96.19701, 33.35222], [-96.19703, 33.351439], [-96.19706, 33.350659], [-96.19708, 33.34988], [-96.19708, 33.34988], [-96.19709, 33.34919], [-96.19711, 33.3485], [-96.19606, 33.34847], [-96.19508, 33.34846], [-96.1941, 33.34845], [-96.19312, 33.348439], [-96.19237, 33.348439], [-96.19163, 33.34843], [-96.19088, 33.348419]]}, "properties": {"surface": "two_track", "label": "Ranch two-track", "color": "#6B5A45", "miles": 2.98, "start_mi": 42.31, "end_mi": 45.28, "road": "County Road 1053", "elev_ft": [688, 692, 697, 701, 698, 694, 692, 690, 691, 692, 693, 693, 692, 691, 691, 688, 682, 678, 671, 668, 662, 663, 670, 677, 682, 683, 682, 682, 682, 682, 682, 681, 681, 677, 673, 670, 669, 671, 674, 674, 677, 681, 681, 679, 677, 677, 676, 674, 673, 673, 672, 670, 666, 662, 661, 659, 658, 658, 658, 657, 657, 655, 653, 651, 651, 649, 646, 646, 645, 643, 638, 636, 639, 644]}}, {"type": "Feature", "geometry": {"type": "LineString", "coordinates": [[-96.19078, 33.347929], [-96.19077, 33.3478], [-96.19066, 33.3472], [-96.19055, 33.3466], [-96.19044, 33.345999], [-96.19036, 33.345419], [-96.19037, 33.34472], [-96.19038, 33.34402], [-96.1904, 33.34321], [-96.19042, 33.342399], [-96.19045, 33.341589], [-96.19047, 33.34078], [-96.19049, 33.33997], [-96.19052, 33.33916], [-96.19054, 33.33835], [-96.19055, 33.33814], [-96.19057, 33.33753], [-96.19059, 33.33693], [-96.19062, 33.33632], [-96.19063, 33.33561], [-96.19064, 33.33489], [-96.19065, 33.33418], [-96.19066, 33.33346], [-96.19069, 33.332569], [-96.19072, 33.33168], [-96.19075, 33.330779], [-96.19078, 33.32989], [-96.19081, 33.328989], [-96.19082, 33.328249], [-96.19084, 33.327509], [-96.19085, 33.32677], [-96.19087, 33.32598], [-96.19089, 33.32518], [-96.19091, 33.32439], [-96.19093, 33.3236], [-96.19096, 33.3228], [-96.19098, 33.32201], [-96.191, 33.32137], [-96.19102, 33.320729], [-96.19105, 33.32009], [-96.19106, 33.31948], [-96.19107, 33.31888], [-96.19107, 33.31888], [-96.19108, 33.3183], [-96.19109, 33.31772], [-96.19111, 33.316969], [-96.19112, 33.316229], [-96.19115, 33.315739], [-96.19119, 33.31525], [-96.1912, 33.31479], [-96.1912, 33.31434], [-96.19122, 33.31386], [-96.19123, 33.31338], [-96.19128, 33.31252], [-96.19128, 33.311839], [-96.1913, 33.31105], [-96.19132, 33.31025], [-96.19134, 33.30946], [-96.19134, 33.308999], [-96.19134, 33.30854], [-96.19136, 33.308079], [-96.19138, 33.30762], [-96.19139, 33.307029], [-96.19143, 33.30668], [-96.19145, 33.30622], [-96.19148, 33.30576], [-96.1915, 33.305149], [-96.19152, 33.30453], [-96.19154, 33.303919], [-96.19155, 33.30314], [-96.19157, 33.30237], [-96.19159, 33.301589], [-96.1916, 33.30081], [-96.19162, 33.30003], [-96.19162, 33.30003], [-96.19166, 33.29914], [-96.1917, 33.29825], [-96.19171, 33.2982], [-96.19173, 33.29804], [-96.19176, 33.29721], [-96.1918, 33.29638], [-96.1918, 33.29638], [-96.19182, 33.29574], [-96.19181, 33.29547], [-96.19181, 33.29536]]}, "properties": {"surface": "unknown", "label": "Unverified", "color": "#9A9389", "miles": 3.64, "start_mi": 45.28, "end_mi": 48.92, "road": "County Road 1048", "elev_ft": [642, 641, 639, 637, 635, 633, 632, 631, 629, 625, 622, 619, 621, 621, 622, 623, 624, 625, 626, 630, 635, 639, 645, 648, 650, 653, 654, 654, 654, 653, 656, 660, 662, 659, 659, 662, 661, 662, 663, 663, 661, 661, 661, 663, 663, 663, 663, 662, 662, 661, 661, 660, 660, 658, 657, 656, 653, 652, 651, 650, 650, 650, 649, 649, 649, 650, 651, 651, 653, 656, 659, 662, 663, 663, 663, 659, 654, 653, 652, 651, 652, 652, 653, 654, 654]}}, {"type": "Feature", "geometry": {"type": "LineString", "coordinates": [[-96.19217, 33.29504], [-96.19217, 33.29504], [-96.19284, 33.294469], [-96.19284, 33.294469], [-96.19317, 33.29417], [-96.19317, 33.29417], [-96.19334, 33.29401], [-96.19375, 33.29366], [-96.19375, 33.29366], [-96.19422, 33.293259], [-96.19469, 33.292859], [-96.19469, 33.292859]]}, "properties": {"surface": "two_track", "label": "Ranch two-track", "color": "#6B5A45", "miles": 0.21, "start_mi": 48.92, "end_mi": 49.13, "road": "Northeast Texas Trail", "elev_ft": [660, 660, 661, 661, 665, 665, 666, 665, 665, 663, 662, 662]}}, {"type": "Feature", "geometry": {"type": "LineString", "coordinates": [[-96.19518, 33.29244], [-96.19515, 33.29238], [-96.19514, 33.29233], [-96.19516, 33.29215], [-96.19523, 33.291649], [-96.19531, 33.291159], [-96.19531, 33.291159], [-96.19538, 33.29061], [-96.19641, 33.29063], [-96.19643, 33.28993], [-96.19644, 33.28924], [-96.19644, 33.28866], [-96.19644, 33.28866], [-96.19647, 33.28811]]}, "properties": {"surface": "unknown", "label": "Unverified", "color": "#9A9389", "miles": 0.36, "start_mi": 49.13, "end_mi": 49.49, "road": "South Second Street", "elev_ft": [661, 661, 660, 659, 656, 653, 653, 649, 657, 651, 646, 643, 643, 641]}}, {"type": "Feature", "geometry": {"type": "LineString", "coordinates": [[-96.1965, 33.287619], [-96.19652, 33.28714], [-96.19656, 33.286389], [-96.19661, 33.28575], [-96.19666, 33.2851], [-96.19671, 33.28445], [-96.19674, 33.28399], [-96.19677, 33.28352], [-96.19679, 33.282899], [-96.19681, 33.28228], [-96.19683, 33.28166], [-96.19685, 33.281129], [-96.19688, 33.28061], [-96.19689, 33.27987], [-96.19689, 33.27913], [-96.19691, 33.278979], [-96.19689, 33.27881], [-96.19687, 33.27875], [-96.19683, 33.2787], [-96.19675, 33.27864], [-96.19667, 33.27861], [-96.19662, 33.278599], [-96.19641, 33.278599], [-96.19641, 33.278599], [-96.19613, 33.27859], [-96.19578, 33.27857], [-96.19568, 33.27854], [-96.19563, 33.278509], [-96.19561, 33.27848], [-96.19559, 33.27844], [-96.19558, 33.27837], [-96.19563, 33.27767], [-96.19568, 33.27698], [-96.1957, 33.27642], [-96.19571, 33.27566], [-96.19573, 33.2749], [-96.19574, 33.27414], [-96.19576, 33.273429], [-96.19578, 33.2734], [-96.19588, 33.2733], [-96.19594, 33.27322], [-96.19614, 33.272869], [-96.19617, 33.27279], [-96.19619, 33.27262], [-96.1962, 33.27176], [-96.19621, 33.27144], [-96.1963, 33.2712], [-96.19635, 33.27111], [-96.19658, 33.2708], [-96.19701, 33.27033], [-96.19744, 33.26985], [-96.19805, 33.26915], [-96.19825, 33.2689], [-96.1984, 33.26874], [-96.19852, 33.268639], [-96.19863, 33.26858], [-96.1988, 33.2685], [-96.19901, 33.26844], [-96.19969, 33.268479], [-96.20037, 33.26851], [-96.20119, 33.26853], [-96.20202, 33.26856], [-96.20232, 33.26853], [-96.20238, 33.2685], [-96.20238, 33.2685], [-96.2024, 33.2685], [-96.20252, 33.268389], [-96.20256, 33.26833], [-96.20261, 33.2682], [-96.20266, 33.26789], [-96.20268, 33.26766], [-96.2027, 33.266759], [-96.20273, 33.26587], [-96.20274, 33.265369], [-96.20274, 33.26487], [-96.20277, 33.26412], [-96.20279, 33.263379], [-96.20281, 33.26263], [-96.20285, 33.26241], [-96.20293, 33.26231], [-96.20298, 33.262259], [-96.20332, 33.26213], [-96.20356, 33.262079], [-96.20422, 33.261969], [-96.20514, 33.2618], [-96.20551, 33.26171], [-96.20573, 33.26167], [-96.20573, 33.26167], [-96.20613, 33.26167], [-96.2063, 33.26168], [-96.20647, 33.26171], [-96.20675, 33.26177], [-96.20709, 33.26182], [-96.20756, 33.26192], [-96.20791, 33.26194], [-96.20888, 33.26196], [-96.20985, 33.26198], [-96.21063, 33.262], [-96.2114, 33.26203], [-96.21244, 33.26204], [-96.21244, 33.26204], [-96.2129, 33.26204], [-96.21361, 33.26204], [-96.21433, 33.26203], [-96.21503, 33.26205], [-96.21573, 33.262079], [-96.21664, 33.262099], [-96.21754, 33.26211], [-96.21837, 33.26212], [-96.2192, 33.26212], [-96.22003, 33.26212], [-96.22003, 33.26212], [-96.22075, 33.26214], [-96.22148, 33.26215], [-96.22236, 33.26215], [-96.22294, 33.26216], [-96.22351, 33.262169], [-96.2236, 33.262189], [-96.2237, 33.26225], [-96.22372, 33.26232], [-96.22372, 33.26247], [-96.2237, 33.262999], [-96.22366, 33.26368], [-96.22362, 33.26436], [-96.22362, 33.26436], [-96.22358, 33.26515], [-96.22358, 33.265389], [-96.22359, 33.26549], [-96.22362, 33.26554], [-96.22368, 33.26561], [-96.22374, 33.26565], [-96.22387, 33.26568], [-96.22453, 33.26568], [-96.2252, 33.26567], [-96.22586, 33.26568], [-96.22652, 33.26569], [-96.22716, 33.26569], [-96.22716, 33.26569], [-96.22818, 33.26569], [-96.22919, 33.26569], [-96.23021, 33.26569], [-96.23112, 33.26569], [-96.23203, 33.2657], [-96.23283, 33.26572], [-96.23362, 33.26574], [-96.23459, 33.265749], [-96.23459, 33.265749], [-96.23532, 33.265749], [-96.23605, 33.26576], [-96.23677, 33.26576], [-96.23753, 33.26576], [-96.23829, 33.26576], [-96.23884, 33.26577], [-96.23939, 33.26578], [-96.23939, 33.26578], [-96.24027, 33.26579], [-96.24032, 33.2658], [-96.24041, 33.26583], [-96.2405, 33.265909]]}, "properties": {"surface": "two_track", "label": "Ranch two-track", "color": "#6B5A45", "miles": 4.5, "start_mi": 49.49, "end_mi": 54.0, "road": "County Road 1089", "elev_ft": [639, 638, 635, 638, 638, 642, 644, 646, 646, 645, 643, 643, 641, 637, 634, 634, 632, 632, 632, 631, 630, 630, 629, 629, 629, 627, 627, 627, 627, 627, 627, 625, 633, 636, 638, 639, 639, 632, 632, 632, 632, 629, 628, 626, 616, 613, 612, 611, 610, 608, 606, 603, 602, 601, 601, 600, 600, 600, 600, 600, 600, 601, 601, 602, 602, 602, 603, 604, 605, 608, 609, 617, 621, 621, 620, 619, 618, 616, 615, 614, 614, 615, 615, 614, 612, 609, 612, 612, 619, 621, 622, 625, 627, 623, 620, 638, 647, 652, 653, 655, 655, 657, 661, 665, 663, 657, 652, 653, 658, 665, 672, 672, 674, 671, 660, 657, 662, 664, 665, 666, 667, 668, 662, 654, 654, 654, 656, 656, 657, 658, 659, 661, 668, 675, 677, 675, 666, 666, 650, 650, 659, 668, 673, 673, 665, 652, 652, 646, 642, 651, 655, 660, 663, 667, 667, 672, 672, 673, 674]}}, {"type": "Feature", "geometry": {"type": "LineString", "coordinates": [[-96.24053, 33.265949], [-96.24086, 33.26569], [-96.24092, 33.26559], [-96.24094, 33.26486], [-96.24097, 33.26413], [-96.24098, 33.263309], [-96.241, 33.262479], [-96.24101, 33.26187], [-96.24102, 33.26127], [-96.24102, 33.26079], [-96.24102, 33.26032], [-96.24104, 33.25968], [-96.24106, 33.25904], [-96.24109, 33.2584], [-96.24108, 33.258249], [-96.24111, 33.25745], [-96.24115, 33.25683], [-96.24119, 33.25621], [-96.24119, 33.25621], [-96.24121, 33.25583], [-96.24125, 33.255719], [-96.2413, 33.25564], [-96.24134, 33.255609], [-96.24151, 33.25555], [-96.24172, 33.25554], [-96.24244, 33.25556], [-96.24316, 33.25558], [-96.24414, 33.255609], [-96.24439, 33.255589], [-96.24444, 33.25555], [-96.2445, 33.25548], [-96.24453, 33.2554], [-96.24455, 33.2553], [-96.24456, 33.254959], [-96.24456, 33.25448], [-96.24455, 33.253999], [-96.24458, 33.25331], [-96.24462, 33.25263], [-96.24462, 33.25263], [-96.24465, 33.251869]]}, "properties": {"surface": "unknown", "label": "Unverified", "color": "#9A9389", "miles": 1.16, "start_mi": 54.0, "end_mi": 55.16, "road": "County Road 1098", "elev_ft": [674, 675, 674, 670, 666, 661, 662, 668, 671, 679, 681, 690, 694, 698, 699, 703, 704, 703, 703, 702, 702, 701, 701, 701, 699, 696, 690, 683, 681, 681, 681, 680, 679, 675, 670, 673, 682, 687, 687, 692]}}, {"type": "Feature", "geometry": {"type": "LineString", "coordinates": [[-96.24468, 33.251109], [-96.24511, 33.25077], [-96.24555, 33.250439], [-96.2461, 33.25], [-96.24627, 33.249809], [-96.24647, 33.24964], [-96.24661, 33.24953], [-96.24661, 33.24953], [-96.24687, 33.24931], [-96.24748, 33.24884], [-96.2481, 33.24837], [-96.2484, 33.2481], [-96.24898, 33.24765], [-96.24956, 33.24719], [-96.25008, 33.24678], [-96.25041, 33.246519], [-96.25089, 33.24613], [-96.25089, 33.24613], [-96.25156, 33.245559], [-96.25197, 33.24524], [-96.25197, 33.24524], [-96.25261, 33.24472], [-96.25325, 33.2442], [-96.25389, 33.243679], [-96.25389, 33.243679], [-96.25445, 33.24324], [-96.25501, 33.24279], [-96.25557, 33.24235], [-96.25557, 33.24235], [-96.25596, 33.24204], [-96.25607, 33.24192], [-96.25648, 33.24161], [-96.25688, 33.2413], [-96.25735, 33.24092], [-96.25735, 33.24092], [-96.25796, 33.24043], [-96.25857, 33.23993], [-96.25857, 33.23993], [-96.25913, 33.23948], [-96.25968, 33.239019], [-96.26024, 33.23857], [-96.26024, 33.23857], [-96.26086, 33.23807], [-96.26147, 33.23756], [-96.26209, 33.23706], [-96.26209, 33.23706], [-96.26275, 33.23653], [-96.2634, 33.235999], [-96.26396, 33.23554], [-96.26396, 33.23554], [-96.26464, 33.23499], [-96.26532, 33.23444], [-96.266, 33.23389], [-96.26668, 33.23334], [-96.26668, 33.23334], [-96.26744, 33.23272], [-96.26821, 33.2321], [-96.26897, 33.231479], [-96.26974, 33.23087], [-96.27048, 33.230269], [-96.27048, 33.230269], [-96.27109, 33.229779], [-96.27109, 33.229779], [-96.2718, 33.2292], [-96.27252, 33.22862], [-96.27323, 33.22804], [-96.27395, 33.227449], [-96.27466, 33.226869], [-96.27538, 33.22629], [-96.27538, 33.22629], [-96.27587, 33.22589], [-96.27649, 33.2254], [-96.2771, 33.224919], [-96.27765, 33.224469], [-96.27819, 33.22401], [-96.27867, 33.22366], [-96.27924, 33.22319], [-96.27924, 33.22319], [-96.27991, 33.22264], [-96.28058, 33.22209], [-96.28073, 33.221939], [-96.28122, 33.22157], [-96.2817, 33.2212], [-96.28205, 33.22091], [-96.28205, 33.22091], [-96.28246, 33.22059], [-96.28286, 33.22026], [-96.2835, 33.21974], [-96.28413, 33.21922], [-96.28477, 33.21869], [-96.28541, 33.21817], [-96.28541, 33.21817], [-96.28613, 33.21759], [-96.28685, 33.217], [-96.2875, 33.21644], [-96.28799, 33.21607], [-96.28848, 33.21571], [-96.28874, 33.21549], [-96.28874, 33.21549], [-96.28942, 33.21492], [-96.2901, 33.21435], [-96.29036, 33.214149], [-96.29097, 33.21367], [-96.29158, 33.213189], [-96.29218, 33.212699], [-96.29218, 33.212699], [-96.29281, 33.21219], [-96.29344, 33.211669], [-96.29399, 33.211219], [-96.29454, 33.210769], [-96.29509, 33.21032], [-96.29509, 33.21032], [-96.29519, 33.21024], [-96.29551, 33.20993], [-96.29579, 33.209719], [-96.29589, 33.20966], [-96.29614, 33.20944], [-96.29614, 33.20944], [-96.29656, 33.20908], [-96.29706, 33.2087], [-96.29755, 33.20832], [-96.29794, 33.20801], [-96.29833, 33.20769], [-96.29833, 33.20769], [-96.29904, 33.20711], [-96.29976, 33.20653], [-96.30042, 33.205979], [-96.30109, 33.205419], [-96.30109, 33.205419], [-96.30154, 33.205039], [-96.302, 33.204659], [-96.3027, 33.20409], [-96.3034, 33.20353], [-96.30411, 33.20297], [-96.30481, 33.20241], [-96.30551, 33.20185], [-96.30551, 33.20185], [-96.30616, 33.20132], [-96.30682, 33.2008], [-96.30749, 33.200249], [-96.30816, 33.19971], [-96.30877, 33.19923], [-96.30939, 33.198749], [-96.31012, 33.19816], [-96.31085, 33.19756], [-96.31085, 33.19756], [-96.31136, 33.197139], [-96.31188, 33.19672], [-96.31239, 33.196309], [-96.31306, 33.19576], [-96.31372, 33.19521], [-96.31439, 33.19467], [-96.31505, 33.194119], [-96.31564, 33.19366], [-96.31564, 33.19366], [-96.31641, 33.19304], [-96.31718, 33.19242], [-96.31796, 33.1918], [-96.31873, 33.19118], [-96.31932, 33.190669], [-96.31991, 33.19017], [-96.3206, 33.18963], [-96.32128, 33.18909], [-96.32196, 33.18855], [-96.32196, 33.18855], [-96.32235, 33.18824], [-96.32286, 33.18782], [-96.32337, 33.187399], [-96.32337, 33.187399], [-96.32405, 33.18685], [-96.32473, 33.18629], [-96.32541, 33.18573], [-96.32608, 33.18518], [-96.32676, 33.18462]]}, "properties": {"surface": "two_track", "label": "Ranch two-track", "color": "#6B5A45", "miles": 6.61, "start_mi": 55.16, "end_mi": 61.76, "road": "Northeast Texas Trail", "elev_ft": [695, 700, 703, 706, 709, 710, 711, 711, 717, 719, 710, 709, 701, 694, 691, 691, 698, 698, 702, 708, 708, 710, 712, 714, 714, 714, 706, 707, 707, 713, 714, 720, 720, 720, 720, 720, 720, 720, 719, 713, 710, 710, 709, 709, 705, 705, 700, 699, 698, 698, 698, 699, 702, 706, 706, 710, 710, 711, 715, 714, 714, 710, 710, 703, 701, 701, 700, 694, 689, 689, 689, 689, 688, 685, 684, 680, 680, 680, 675, 668, 667, 662, 660, 660, 660, 659, 653, 650, 650, 647, 646, 646, 645, 650, 651, 650, 650, 650, 650, 650, 650, 651, 654, 657, 660, 660, 665, 670, 670, 674, 677, 677, 677, 680, 680, 680, 680, 680, 690, 690, 689, 688, 687, 687, 680, 675, 676, 680, 680, 680, 681, 688, 690, 690, 689, 688, 688, 684, 680, 680, 674, 671, 672, 672, 671, 671, 671, 670, 661, 652, 651, 640, 640, 640, 640, 640, 640, 640, 636, 640, 640, 649, 653, 660, 660, 660, 660, 660, 660, 658, 654, 651, 650, 655]}}, {"type": "Feature", "geometry": {"type": "LineString", "coordinates": [[-96.32711, 33.18435], [-96.32711, 33.18435], [-96.32773, 33.18386], [-96.32835, 33.183369], [-96.32897, 33.182879], [-96.32929, 33.18265], [-96.33013, 33.18215], [-96.33097, 33.18164], [-96.33175, 33.18122], [-96.33175, 33.18122], [-96.3326, 33.18077], [-96.33344, 33.18032], [-96.33425, 33.17987], [-96.33506, 33.17942], [-96.33587, 33.17898], [-96.33587, 33.17898], [-96.3367, 33.17852], [-96.33752, 33.17807], [-96.33799, 33.177799], [-96.33883, 33.177349], [-96.33967, 33.17691], [-96.33967, 33.17691], [-96.34004, 33.17671], [-96.34071, 33.17633], [-96.34138, 33.17596], [-96.34225, 33.17548], [-96.34312, 33.17501], [-96.344, 33.174529], [-96.34487, 33.174059], [-96.34487, 33.174059], [-96.34569, 33.173609], [-96.34652, 33.17316], [-96.34734, 33.17271], [-96.34797, 33.17237], [-96.34859, 33.17202], [-96.34922, 33.17168], [-96.35002, 33.17125], [-96.35002, 33.17125], [-96.35091, 33.170769], [-96.35181, 33.17029], [-96.3527, 33.16981], [-96.35317, 33.16953], [-96.35368, 33.16928], [-96.35438, 33.168819], [-96.35438, 33.168819], [-96.35476, 33.16856], [-96.35547, 33.168], [-96.35571, 33.16778], [-96.35609, 33.16734], [-96.35648, 33.16691], [-96.35689, 33.16637], [-96.35696, 33.16623], [-96.35696, 33.16623], [-96.35723, 33.16577], [-96.3575, 33.16532], [-96.35776, 33.16478], [-96.35784, 33.164589], [-96.35808, 33.16411], [-96.35831, 33.163469], [-96.35831, 33.163469], [-96.35852, 33.162869], [-96.35874, 33.16227], [-96.35892, 33.16225]]}, "properties": {"surface": "pavement", "label": "Pavement", "color": "#4A5568", "miles": 2.45, "start_mi": 61.76, "end_mi": 64.21, "road": "Northeast Texas Trail", "elev_ft": [658, 658, 661, 665, 670, 670, 672, 670, 670, 670, 661, 657, 654, 662, 670, 670, 671, 680, 680, 680, 680, 680, 680, 680, 680, 680, 680, 680, 671, 671, 666, 660, 662, 661, 660, 660, 660, 660, 667, 666, 666, 664, 662, 663, 663, 659, 659, 659, 658, 654, 655, 656, 656, 657, 650, 650, 649, 647, 644, 644, 640, 640, 640]}}]}