{"type": "FeatureCollection", "features": [{"type": "Feature", "geometry": {"type": "LineString", "coordinates": [[-96.35873, 33.162309], [-96.35851, 33.162909], [-96.35829, 33.16351], [-96.35808, 33.16411], [-96.35792, 33.16442], [-96.35784, 33.164589], [-96.35776, 33.16478], [-96.3575, 33.16532], [-96.35716, 33.1659], [-96.35701, 33.16614], [-96.35689, 33.16637], [-96.35648, 33.16691], [-96.35609, 33.16734], [-96.35571, 33.16778], [-96.35547, 33.168], [-96.35524, 33.16818], [-96.35476, 33.16856], [-96.35421, 33.16893], [-96.35368, 33.16928], [-96.35317, 33.16953], [-96.3527, 33.16981], [-96.35183, 33.17028], [-96.35096, 33.17074], [-96.35009, 33.17121], [-96.34922, 33.17168], [-96.34859, 33.17202], [-96.34797, 33.17237], [-96.34734, 33.17271], [-96.34649, 33.17318], [-96.34564, 33.17364], [-96.34478, 33.1741], [-96.34393, 33.17457], [-96.34308, 33.17503], [-96.34223, 33.17549], [-96.34138, 33.17596], [-96.34071, 33.17633], [-96.34004, 33.17671], [-96.33939, 33.17705], [-96.33875, 33.1774], [-96.33875, 33.1774], [-96.33799, 33.177799], [-96.33752, 33.17807], [-96.33684, 33.178449], [-96.33615, 33.17882], [-96.33546, 33.1792], [-96.33471, 33.179609], [-96.33396, 33.18002], [-96.33322, 33.180439], [-96.33322, 33.180439], [-96.33247, 33.18084], [-96.33172, 33.18124], [-96.33097, 33.18164], [-96.33029, 33.182049], [-96.32962, 33.18245], [-96.32929, 33.18265], [-96.32897, 33.182879], [-96.32822, 33.18348], [-96.32822, 33.18348], [-96.32769, 33.183889], [-96.32716, 33.18431], [-96.32716, 33.18431], [-96.32676, 33.18462]]}, "properties": {"surface": "pavement", "label": "Pavement", "color": "#4A5568", "miles": 2.46, "start_mi": 0.0, "end_mi": 2.46, "road": "Northeast Texas Trail", "elev_ft": [640, 640, 645, 647, 649, 649, 650, 650, 659, 659, 655, 654, 658, 659, 659, 659, 659, 662, 662, 664, 666, 666, 668, 661, 660, 660, 661, 662, 660, 666, 673, 680, 680, 680, 680, 680, 680, 680, 680, 680, 680, 680, 672, 670, 668, 660, 650, 660, 660, 663, 670, 670, 673, 671, 670, 670, 663, 663, 660, 658, 658, 655]}}, {"type": "Feature", "geometry": {"type": "LineString", "coordinates": [[-96.32618, 33.1851], [-96.3256, 33.18557], [-96.3256, 33.18557], [-96.32501, 33.186059], [-96.32442, 33.18654], [-96.32383, 33.18703], [-96.32324, 33.18751], [-96.32324, 33.18751], [-96.3228, 33.187869], [-96.32235, 33.18824], [-96.32174, 33.18872], [-96.32113, 33.1892], [-96.32052, 33.18969], [-96.31991, 33.19017], [-96.31932, 33.190669], [-96.31873, 33.19118], [-96.3185, 33.19136], [-96.3185, 33.19136], [-96.31791, 33.19184], [-96.31732, 33.19231], [-96.31673, 33.19278], [-96.31614, 33.19326], [-96.3156, 33.193689], [-96.31505, 33.194119], [-96.31449, 33.19458], [-96.31393, 33.19504], [-96.31337, 33.1955], [-96.31337, 33.1955], [-96.31271, 33.19604], [-96.31204, 33.19659], [-96.31138, 33.19713], [-96.31071, 33.19767], [-96.31005, 33.19821], [-96.30939, 33.198749], [-96.30877, 33.19923], [-96.30816, 33.19971], [-96.30785, 33.199959], [-96.30785, 33.199959], [-96.30733, 33.20038], [-96.30682, 33.2008], [-96.30613, 33.201349], [-96.30544, 33.2019], [-96.30475, 33.20245], [-96.30406, 33.203], [-96.30338, 33.20355], [-96.30269, 33.20411], [-96.302, 33.204659], [-96.30139, 33.20517], [-96.30078, 33.205669], [-96.30017, 33.20618], [-96.29976, 33.20653], [-96.29902, 33.20713], [-96.29829, 33.20772], [-96.29755, 33.20832], [-96.29706, 33.2087], [-96.29656, 33.20908], [-96.29589, 33.20966], [-96.29579, 33.209719], [-96.29551, 33.20993], [-96.29519, 33.21024], [-96.2945, 33.21081], [-96.2945, 33.21081], [-96.29397, 33.211239], [-96.29344, 33.211669], [-96.29285, 33.21215], [-96.29227, 33.212629], [-96.29151, 33.21323], [-96.29094, 33.21369], [-96.29036, 33.214149], [-96.2901, 33.21435], [-96.28973, 33.21466], [-96.28973, 33.21466], [-96.2891, 33.215179], [-96.28848, 33.21571], [-96.28839, 33.21577], [-96.28839, 33.21577], [-96.28794, 33.21611], [-96.2875, 33.21644], [-96.28688, 33.21698], [-96.28688, 33.21698], [-96.28628, 33.21747], [-96.28567, 33.217959], [-96.28507, 33.218449], [-96.28507, 33.218449], [-96.28441, 33.218989], [-96.28375, 33.21953], [-96.28309, 33.22007], [-96.28243, 33.22061], [-96.28243, 33.22061], [-96.2817, 33.2212], [-96.28122, 33.22157]]}, "properties": {"surface": "two_track", "label": "Ranch two-track", "color": "#6B5A45", "miles": 3.62, "start_mi": 2.46, "end_mi": 6.08, "road": "Northeast Texas Trail", "elev_ft": [650, 650, 650, 652, 657, 659, 660, 660, 660, 660, 660, 651, 649, 640, 640, 636, 640, 640, 640, 640, 640, 640, 640, 640, 640, 649, 650, 650, 657, 667, 670, 670, 672, 672, 671, 674, 677, 677, 680, 680, 685, 688, 689, 690, 690, 688, 681, 680, 680, 674, 675, 680, 687, 689, 690, 690, 680, 680, 680, 677, 674, 674, 670, 670, 666, 660, 657, 654, 651, 650, 650, 650, 650, 650, 650, 650, 650, 651, 650, 650, 645, 645, 647, 647, 649, 650, 651, 659, 659, 660, 662]}}, {"type": "Feature", "geometry": {"type": "LineString", "coordinates": [[-96.28073, 33.221939], [-96.28081, 33.22205], [-96.28082, 33.22214], [-96.28074, 33.22222], [-96.28069, 33.222279], [-96.28065, 33.22238], [-96.28061, 33.22252], [-96.28059, 33.22276], [-96.28055, 33.22355], [-96.28052, 33.224339], [-96.28048, 33.22514], [-96.28045, 33.22593], [-96.28045, 33.22593], [-96.28042, 33.2265], [-96.2804, 33.22706], [-96.28038, 33.22713], [-96.28035, 33.227179], [-96.2803, 33.22722], [-96.28023, 33.227249], [-96.2801, 33.227269], [-96.27949, 33.227249], [-96.27889, 33.22724], [-96.27785, 33.22722], [-96.2768, 33.2272], [-96.27592, 33.227179], [-96.27496, 33.22715], [-96.27485, 33.227159], [-96.2746, 33.22723], [-96.27446, 33.22731], [-96.27415, 33.22755], [-96.27345, 33.22816], [-96.27291, 33.22856], [-96.27251, 33.228879], [-96.27251, 33.228879], [-96.27251, 33.228879], [-96.27236, 33.22899], [-96.27216, 33.22918], [-96.27202, 33.229349], [-96.27198, 33.22946], [-96.27196, 33.22961], [-96.27194, 33.23046], [-96.27192, 33.231319], [-96.27191, 33.232039], [-96.27191, 33.23276], [-96.27192, 33.233159], [-96.27191, 33.23395], [-96.2719, 33.23474], [-96.27189, 33.23552], [-96.27188, 33.23631], [-96.27188, 33.23631], [-96.27187, 33.236829], [-96.27281, 33.23687], [-96.27361, 33.23687], [-96.27442, 33.23688], [-96.27477, 33.23688], [-96.27491, 33.2369], [-96.275, 33.236919], [-96.27505, 33.23695], [-96.27509, 33.23699], [-96.27512, 33.23708], [-96.27515, 33.237209], [-96.27518, 33.23743], [-96.27515, 33.23812], [-96.27511, 33.23881], [-96.27507, 33.2395], [-96.27507, 33.2395], [-96.27505, 33.23996], [-96.27505, 33.24031], [-96.27502, 33.24053], [-96.275, 33.240609], [-96.27495, 33.240679], [-96.27488, 33.24072], [-96.27479, 33.24076], [-96.27465, 33.24076], [-96.27366, 33.24074], [-96.27268, 33.24071], [-96.27169, 33.24069], [-96.2707, 33.24066], [-96.26971, 33.24064], [-96.26969, 33.241329], [-96.26968, 33.24203], [-96.26964, 33.24284], [-96.26961, 33.24365], [-96.26957, 33.244459], [-96.26955, 33.245199], [-96.26953, 33.245939], [-96.26953, 33.246389], [-96.26953, 33.246389], [-96.26953, 33.24689], [-96.26953, 33.24739], [-96.26951, 33.24748], [-96.26949, 33.247529], [-96.26943, 33.24756], [-96.26938, 33.24758], [-96.26926, 33.24759], [-96.2687, 33.247549], [-96.26806, 33.24756], [-96.26743, 33.24754], [-96.2668, 33.24752], [-96.26579, 33.24749], [-96.26479, 33.24747], [-96.26379, 33.24745], [-96.26278, 33.24743], [-96.26253, 33.247439], [-96.26235, 33.247439], [-96.26192, 33.24736], [-96.26192, 33.24736], [-96.26189, 33.247349], [-96.26156, 33.24734], [-96.26108, 33.24732], [-96.26076, 33.247329], [-96.26074, 33.2479], [-96.26071, 33.24848], [-96.26071, 33.24924], [-96.2607, 33.25], [-96.26066, 33.25033], [-96.26064, 33.25043], [-96.26061, 33.25048], [-96.26048, 33.25066], [-96.26001, 33.25117], [-96.25966, 33.25154], [-96.25929, 33.25189], [-96.25893, 33.252249], [-96.25869, 33.25251], [-96.25861, 33.25262], [-96.25853, 33.25285], [-96.25837, 33.25332], [-96.25832, 33.25347], [-96.25815, 33.25387], [-96.2581, 33.25397], [-96.25764, 33.25454], [-96.25762, 33.2546], [-96.25756, 33.25501], [-96.25757, 33.25529], [-96.2576, 33.25558], [-96.25759, 33.25573], [-96.25752, 33.25603], [-96.2575, 33.25667], [-96.25748, 33.257309], [-96.25747, 33.25777], [-96.25746, 33.25822], [-96.25742, 33.258699], [-96.25737, 33.25918], [-96.25738, 33.25927], [-96.25742, 33.25941], [-96.25745, 33.259459], [-96.25755, 33.25954], [-96.25765, 33.25958], [-96.25776, 33.25961], [-96.2585, 33.25962], [-96.25924, 33.25963], [-96.25997, 33.25965], [-96.26004, 33.25968], [-96.26009, 33.259729], [-96.26015, 33.259819], [-96.26019, 33.25992], [-96.2602, 33.26005], [-96.26018, 33.26077], [-96.26016, 33.26149], [-96.26005, 33.26234], [-96.26001, 33.26251], [-96.25995, 33.26308], [-96.25996, 33.26319], [-96.26001, 33.2633], [-96.2601, 33.26344], [-96.26031, 33.26371], [-96.2604, 33.263849], [-96.26043, 33.263959], [-96.26043, 33.264049], [-96.26043, 33.26477], [-96.26044, 33.26549], [-96.26044, 33.266219], [-96.26044, 33.266219], [-96.26043, 33.26691], [-96.26041, 33.26759], [-96.2604, 33.268279], [-96.26038, 33.26876], [-96.26036, 33.26923], [-96.25931, 33.269199], [-96.25826, 33.26917], [-96.25722, 33.26914], [-96.2562, 33.26909], [-96.25519, 33.26905], [-96.25445, 33.269019], [-96.25371, 33.26899], [-96.25371, 33.26899], [-96.25288, 33.26897], [-96.25205, 33.26894], [-96.25122, 33.26891], [-96.25107, 33.26889], [-96.25092, 33.268859], [-96.2508, 33.26878], [-96.25038, 33.268389], [-96.25015, 33.26821], [-96.24998, 33.26815], [-96.24957, 33.26809], [-96.24943, 33.26804], [-96.24934, 33.26796], [-96.24916, 33.26787], [-96.24883, 33.26756], [-96.24859, 33.267319], [-96.24839, 33.2672], [-96.24826, 33.26715], [-96.2481, 33.26709], [-96.24786, 33.26706], [-96.24704, 33.26703], [-96.24613, 33.26702], [-96.24523, 33.26701], [-96.24432, 33.267], [-96.24341, 33.26699], [-96.24251, 33.266979], [-96.24174, 33.266979], [-96.24096, 33.266979], [-96.24055, 33.26697], [-96.24054, 33.26771], [-96.24053, 33.268459], [-96.24052, 33.269199], [-96.24051, 33.26994], [-96.24051, 33.26994], [-96.24049, 33.27078], [-96.24048, 33.27161], [-96.24046, 33.27245], [-96.24046, 33.27292], [-96.24046, 33.27338], [-96.24045, 33.27385], [-96.24044, 33.27432], [-96.24042, 33.27503], [-96.2404, 33.27574], [-96.24038, 33.276449], [-96.24036, 33.27716], [-96.24035, 33.2778], [-96.24034, 33.27843], [-96.24033, 33.27906], [-96.2403, 33.27957], [-96.24028, 33.280079], [-96.2411, 33.280099], [-96.24183, 33.28009], [-96.24256, 33.28007], [-96.24329, 33.28006], [-96.24327, 33.28058], [-96.24325, 33.2811], [-96.24322, 33.28174], [-96.24319, 33.28238], [-96.24316, 33.283009], [-96.24315, 33.28349], [-96.24313, 33.283969], [-96.24314, 33.28457], [-96.24314, 33.28517], [-96.24313, 33.28582], [-96.24313, 33.286479], [-96.24313, 33.286569], [-96.24315, 33.28663], [-96.2432, 33.28672], [-96.24333, 33.28676], [-96.24346, 33.286769], [-96.24407, 33.28678], [-96.2449, 33.28678], [-96.24572, 33.28679], [-96.24654, 33.28679], [-96.24736, 33.28679], [-96.24736, 33.28679], [-96.24829, 33.2868], [-96.24922, 33.28681], [-96.25016, 33.28682], [-96.25031, 33.28685], [-96.25038, 33.28692], [-96.2504, 33.287], [-96.25039, 33.28765], [-96.25043, 33.28851], [-96.25045, 33.288739], [-96.2505, 33.2889], [-96.25059, 33.28913], [-96.25067, 33.28929], [-96.25071, 33.28944], [-96.25075, 33.28967], [-96.25074, 33.290129], [-96.25074, 33.29059], [-96.25073, 33.29131], [-96.25071, 33.292029], [-96.2507, 33.292749], [-96.25068, 33.29347], [-96.25067, 33.29419], [-96.25068, 33.29478], [-96.25071, 33.295119], [-96.25069, 33.29587], [-96.25067, 33.29663], [-96.25066, 33.297379], [-96.25064, 33.298139], [-96.25062, 33.29889], [-96.25061, 33.29965], [-96.25061, 33.29999], [-96.25061, 33.29999], [-96.2506, 33.300669]]}, "properties": {"surface": "unknown", "label": "Unverified", "color": "#9A9389", "miles": 8.98, "start_mi": 6.08, "end_mi": 15.07, "road": "County Road 1100", "elev_ft": [667, 667, 667, 668, 668, 669, 670, 670, 674, 673, 671, 671, 671, 672, 671, 671, 671, 671, 671, 672, 673, 676, 679, 683, 689, 692, 695, 698, 698, 699, 701, 699, 700, 700, 700, 700, 700, 700, 700, 703, 712, 716, 716, 716, 716, 715, 715, 717, 715, 715, 713, 709, 707, 699, 698, 696, 695, 694, 694, 693, 692, 691, 693, 695, 698, 698, 699, 699, 697, 697, 697, 698, 698, 699, 702, 705, 709, 710, 712, 715, 717, 719, 718, 716, 710, 702, 695, 695, 684, 677, 677, 677, 678, 678, 679, 684, 683, 681, 687, 681, 676, 667, 658, 657, 657, 658, 658, 658, 659, 659, 659, 656, 655, 654, 652, 652, 652, 652, 652, 659, 662, 666, 666, 666, 667, 667, 658, 653, 648, 649, 657, 657, 665, 671, 673, 672, 669, 654, 656, 663, 673, 670, 668, 668, 669, 669, 668, 667, 664, 656, 657, 653, 653, 653, 652, 652, 652, 652, 654, 645, 642, 642, 642, 642, 642, 642, 642, 642, 642, 641, 645, 651, 651, 653, 658, 658, 654, 650, 659, 670, 665, 660, 679, 669, 659, 659, 653, 648, 638, 637, 636, 636, 635, 632, 630, 623, 628, 633, 632, 632, 633, 634, 635, 636, 639, 643, 654, 662, 663, 666, 675, 682, 678, 675, 670, 667, 661, 658, 658, 656, 662, 668, 670, 675, 679, 681, 682, 678, 679, 679, 669, 676, 685, 685, 683, 669, 660, 650, 648, 653, 655, 654, 652, 653, 656, 658, 656, 650, 652, 653, 653, 653, 652, 650, 648, 639, 641, 650, 646, 644, 644, 650, 649, 638, 635, 634, 635, 640, 648, 643, 640, 635, 634, 633, 635, 641, 641, 636, 634, 621, 617, 613, 605, 598, 604, 612, 624, 627, 617, 601, 606, 606, 620]}}, {"type": "Feature", "geometry": {"type": "LineString", "coordinates": [[-96.25151, 33.30068], [-96.25242, 33.30069], [-96.25347, 33.30068], [-96.25445, 33.30069], [-96.25542, 33.30069], [-96.2564, 33.3007], [-96.25709, 33.30072], [-96.25779, 33.30075], [-96.25849, 33.30077], [-96.25919, 33.30079], [-96.25942, 33.30082], [-96.25968, 33.30086], [-96.26007, 33.30095], [-96.26037, 33.301049], [-96.26115, 33.301409], [-96.26193, 33.301769], [-96.26271, 33.30213]]}, "properties": {"surface": "pavement", "label": "Pavement", "color": "#4A5568", "miles": 0.67, "start_mi": 15.07, "end_mi": 15.73, "road": "FM 1562", "elev_ft": [621, 610, 604, 617, 620, 617, 610, 608, 602, 611, 615, 619, 620, 620, 618, 615, 614]}}, {"type": "Feature", "geometry": {"type": "LineString", "coordinates": [[-96.26266, 33.302439], [-96.26259, 33.30263], [-96.26248, 33.30283], [-96.26231, 33.30312], [-96.26228, 33.303199], [-96.26227, 33.3038], [-96.26226, 33.304389], [-96.26229, 33.304479], [-96.26231, 33.30462], [-96.26237, 33.30472], [-96.26246, 33.30483], [-96.2626, 33.30496], [-96.26278, 33.30509], [-96.26298, 33.3052], [-96.26319, 33.30527], [-96.26337, 33.30531], [-96.26424, 33.30532], [-96.26476, 33.30536], [-96.26497, 33.30541], [-96.26505, 33.305459], [-96.26511, 33.30554], [-96.26514, 33.3056], [-96.26516, 33.305709], [-96.26517, 33.30579], [-96.26514, 33.30668], [-96.2651, 33.30757], [-96.26507, 33.30847], [-96.26504, 33.309359], [-96.265, 33.31025], [-96.26497, 33.311149], [-96.26494, 33.31168], [-96.26491, 33.31221], [-96.26495, 33.312289], [-96.26503, 33.31235], [-96.2651, 33.31239], [-96.26529, 33.31243], [-96.26596, 33.31253], [-96.26615, 33.3126], [-96.26628, 33.312649], [-96.2665, 33.312779], [-96.26657, 33.31284], [-96.26662, 33.3129], [-96.26669, 33.31306], [-96.26669, 33.31328], [-96.26668, 33.31346], [-96.26668, 33.31346], [-96.26662, 33.31431], [-96.26658, 33.31521], [-96.26659, 33.31542], [-96.26667, 33.315759], [-96.26669, 33.316139], [-96.26668, 33.31669], [-96.26667, 33.31723], [-96.26663, 33.318019], [-96.26661, 33.31864], [-96.26659, 33.31926], [-96.26657, 33.319879], [-96.26655, 33.320569], [-96.26654, 33.32127], [-96.26653, 33.32197], [-96.26606, 33.32197], [-96.26551, 33.32195], [-96.26497, 33.32193], [-96.26483, 33.321939], [-96.26477, 33.321959], [-96.26472, 33.322], [-96.26467, 33.32209], [-96.26465, 33.32229], [-96.26465, 33.323079], [-96.26465, 33.32386], [-96.26465, 33.32464], [-96.26465, 33.32542], [-96.26464, 33.32575], [-96.26463, 33.325879], [-96.26454, 33.32602], [-96.2645, 33.32605], [-96.26436, 33.32607], [-96.26387, 33.32604], [-96.26367, 33.32605], [-96.26358, 33.326079], [-96.26351, 33.32613], [-96.26349, 33.326169], [-96.26344, 33.32694], [-96.26342, 33.32763], [-96.26339, 33.328319], [-96.26336, 33.329009], [-96.26333, 33.3297], [-96.2633, 33.33016], [-96.26327, 33.33062], [-96.26326, 33.33108], [-96.26326, 33.331539], [-96.26325, 33.332], [-96.26324, 33.332459], [-96.26321, 33.33308], [-96.26318, 33.33371], [-96.26318, 33.33371], [-96.26315, 33.33444], [-96.26311, 33.33518], [-96.26308, 33.33591], [-96.26306, 33.336], [-96.26302, 33.33609], [-96.26289, 33.33618], [-96.26277, 33.336199], [-96.2617, 33.33617], [-96.26062, 33.33614], [-96.25955, 33.336109], [-96.2587, 33.3361], [-96.25786, 33.33609], [-96.25699, 33.33608], [-96.25613, 33.33606], [-96.25531, 33.33603], [-96.2545, 33.33599], [-96.25383, 33.33597], [-96.25316, 33.335949], [-96.25305, 33.33597], [-96.25297, 33.336], [-96.25291, 33.33614], [-96.25289, 33.336239], [-96.25287, 33.33712], [-96.25285, 33.33769], [-96.25283, 33.33826], [-96.25278, 33.339039], [-96.25274, 33.33982], [-96.25271, 33.34044], [-96.25269, 33.34107], [-96.25266, 33.34169], [-96.25265, 33.34232], [-96.25264, 33.342959], [-96.25262, 33.34359], [-96.25259, 33.34425], [-96.25259, 33.34425], [-96.25256, 33.34507], [-96.25252, 33.345889], [-96.25251, 33.346429], [-96.2525, 33.34697], [-96.25248, 33.347369], [-96.25244, 33.34801], [-96.2524, 33.34864], [-96.25234, 33.3494], [-96.25227, 33.35015], [-96.25225, 33.35063], [-96.25224, 33.3511], [-96.25221, 33.35157], [-96.25218, 33.35205], [-96.25213, 33.35267], [-96.25209, 33.35329], [-96.25204, 33.35391], [-96.25202, 33.35438], [-96.252, 33.35485], [-96.25196, 33.3553], [-96.25192, 33.355759], [-96.25191, 33.35635], [-96.25189, 33.35694], [-96.25189, 33.35756], [-96.25188, 33.35787], [-96.25186, 33.35866], [-96.25185, 33.35945], [-96.25183, 33.36025], [-96.25182, 33.36104], [-96.2518, 33.36184], [-96.25179, 33.36263], [-96.25177, 33.36343], [-96.25175, 33.36393], [-96.25173, 33.36444], [-96.25172, 33.36518], [-96.2517, 33.36591], [-96.25168, 33.366639], [-96.25165, 33.36737], [-96.25163, 33.36809], [-96.25163, 33.36809], [-96.25159, 33.3688], [-96.25158, 33.36963], [-96.25152, 33.37014], [-96.25146, 33.370649], [-96.25142, 33.371429], [-96.25138, 33.37222], [-96.25134, 33.372999], [-96.2513, 33.373779], [-96.25127, 33.37457], [-96.25123, 33.375349], [-96.25119, 33.37613], [-96.25119, 33.37613], [-96.25115, 33.37688], [-96.25032, 33.376849], [-96.24948, 33.37683], [-96.24864, 33.3768], [-96.24781, 33.376779], [-96.24769, 33.37682], [-96.24761, 33.37691], [-96.24757, 33.377049], [-96.24758, 33.37726], [-96.24757, 33.37777], [-96.24756, 33.37829], [-96.24756, 33.37829], [-96.24754, 33.37881], [-96.24752, 33.3797], [-96.2475, 33.38021], [-96.24748, 33.38073], [-96.24747, 33.38122], [-96.24746, 33.38172], [-96.24744, 33.382379], [-96.24742, 33.38304], [-96.2474, 33.38371], [-96.24735, 33.384529], [-96.24733, 33.384639], [-96.24728, 33.3847], [-96.24725, 33.38479], [-96.24724, 33.38486], [-96.24722, 33.385469], [-96.24719, 33.386069], [-96.24717, 33.38668], [-96.24715, 33.38738], [-96.24712, 33.38807], [-96.2471, 33.38877], [-96.24708, 33.38946], [-96.24708, 33.38946], [-96.24707, 33.389809], [-96.24778, 33.38982], [-96.2485, 33.38983], [-96.2486, 33.3898]]}, "properties": {"surface": "unknown", "label": "Unverified", "color": "#9A9389", "miles": 7.28, "start_mi": 15.73, "end_mi": 23.02, "road": "County Road 1135", "elev_ft": [619, 621, 622, 625, 626, 631, 633, 633, 633, 633, 633, 633, 633, 631, 629, 627, 621, 614, 611, 610, 608, 607, 606, 605, 608, 623, 632, 626, 610, 592, 590, 585, 585, 584, 584, 583, 580, 580, 581, 581, 581, 581, 582, 582, 582, 582, 584, 585, 585, 586, 588, 596, 602, 606, 606, 609, 613, 618, 622, 623, 624, 623, 622, 622, 622, 622, 622, 622, 620, 623, 618, 618, 621, 623, 627, 628, 629, 634, 635, 635, 635, 635, 640, 643, 641, 638, 631, 636, 636, 626, 620, 611, 621, 633, 640, 640, 649, 651, 653, 653, 651, 650, 650, 641, 628, 632, 641, 652, 656, 653, 648, 645, 648, 647, 647, 647, 647, 647, 650, 651, 645, 647, 651, 641, 650, 653, 654, 654, 653, 651, 651, 651, 653, 655, 658, 660, 660, 658, 662, 668, 670, 670, 671, 674, 676, 678, 679, 679, 681, 683, 686, 688, 689, 690, 691, 693, 695, 696, 698, 701, 701, 701, 701, 700, 700, 700, 699, 702, 706, 706, 708, 710, 712, 714, 715, 714, 710, 709, 707, 706, 707, 707, 708, 709, 710, 709, 709, 709, 709, 709, 709, 709, 711, 711, 714, 719, 720, 721, 722, 722, 723, 723, 724, 725, 725, 725, 725, 725, 726, 726, 727, 727, 728, 728, 729, 729, 729, 727, 725, 724]}}, {"type": "Feature", "geometry": {"type": "LineString", "coordinates": [[-96.24865, 33.38983], [-96.24877, 33.38985], [-96.24935, 33.38985], [-96.24993, 33.38986], [-96.25016, 33.389879], [-96.25027, 33.38993], [-96.25035, 33.39], [-96.2504, 33.390099], [-96.25043, 33.390189], [-96.25039, 33.39092], [-96.25035, 33.39165], [-96.25031, 33.392449], [-96.25027, 33.39325], [-96.25023, 33.394039]]}, "properties": {"surface": "pavement", "label": "Pavement", "color": "#4A5568", "miles": 0.38, "start_mi": 23.02, "end_mi": 23.4, "road": "North Oak Street", "elev_ft": [724, 724, 721, 719, 718, 716, 715, 715, 714, 713, 711, 718, 721, 722]}}, {"type": "Feature", "geometry": {"type": "LineString", "coordinates": [[-96.2502, 33.39477], [-96.25046, 33.39519], [-96.25069, 33.395339], [-96.25097, 33.3954], [-96.25165, 33.39542], [-96.25232, 33.39544], [-96.25232, 33.39544], [-96.25335, 33.39548], [-96.25438, 33.395519], [-96.25541, 33.39555], [-96.25644, 33.39559], [-96.25747, 33.395629], [-96.2585, 33.39567], [-96.2585, 33.39567], [-96.2595, 33.39569], [-96.26049, 33.395719], [-96.26149, 33.39574], [-96.26249, 33.39577], [-96.26245, 33.396549], [-96.26242, 33.397329], [-96.26239, 33.39811], [-96.26235, 33.39889], [-96.26235, 33.39889], [-96.26232, 33.39959], [-96.26229, 33.4003], [-96.26254, 33.40048], [-96.26345, 33.400509], [-96.26437, 33.40053], [-96.2647, 33.40062], [-96.26486, 33.40076], [-96.26485, 33.40148], [-96.2648, 33.40224], [-96.26475, 33.40301], [-96.26469, 33.403779], [-96.26468, 33.404339], [-96.26467, 33.404899], [-96.26467, 33.404899], [-96.26464, 33.4057], [-96.26462, 33.406509], [-96.2646, 33.40731], [-96.26458, 33.408119], [-96.26456, 33.40892], [-96.26456, 33.40892], [-96.26452, 33.4097], [-96.26436, 33.409869], [-96.26427, 33.41042], [-96.26423, 33.41111], [-96.26418, 33.4118], [-96.2641, 33.41232], [-96.26392, 33.41257], [-96.26351, 33.41279], [-96.26302, 33.41304], [-96.26254, 33.41328], [-96.26237, 33.413449], [-96.26214, 33.41379], [-96.26192, 33.414], [-96.26192, 33.414], [-96.2619, 33.414009], [-96.26157, 33.41417], [-96.2612, 33.414189], [-96.26087, 33.41417], [-96.26086, 33.41464], [-96.26084, 33.41511], [-96.26084, 33.41568], [-96.26083, 33.41624], [-96.26082, 33.41705], [-96.2608, 33.417859], [-96.26076, 33.41855], [-96.26072, 33.419249], [-96.26069, 33.41995], [-96.26069, 33.41995], [-96.26065, 33.42065], [-96.26062, 33.42134], [-96.26058, 33.42204], [-96.26056, 33.42273], [-96.26054, 33.423409], [-96.26055, 33.423609], [-96.26061, 33.42374], [-96.26167, 33.42378], [-96.26274, 33.42382], [-96.26381, 33.42385], [-96.26487, 33.42389], [-96.26593, 33.4239], [-96.26699, 33.4239], [-96.26706, 33.42389], [-96.26711, 33.423859], [-96.26713, 33.423789], [-96.26715, 33.42333], [-96.2672, 33.42325], [-96.26729, 33.42322], [-96.26736, 33.423209], [-96.26788, 33.4232], [-96.26839, 33.42316], [-96.26892, 33.42308], [-96.26944, 33.42299], [-96.26982, 33.42287], [-96.27045, 33.42264], [-96.27108, 33.42241], [-96.27146, 33.42233], [-96.27194, 33.42232], [-96.27291, 33.42235], [-96.27388, 33.422379], [-96.27388, 33.422379], [-96.27444, 33.4224], [-96.27499, 33.42242], [-96.27492, 33.42326], [-96.27485, 33.42411], [-96.27482, 33.42421], [-96.27477, 33.424259], [-96.27471, 33.42431], [-96.27463, 33.424329], [-96.27369, 33.42429], [-96.27275, 33.42425], [-96.27181, 33.42421], [-96.27167, 33.42422], [-96.27152, 33.424239], [-96.27142, 33.42427], [-96.27137, 33.424329], [-96.27133, 33.4244], [-96.27132, 33.42503], [-96.2713, 33.42566], [-96.27129, 33.426299], [-96.27128, 33.42683], [-96.27127, 33.42737], [-96.27122, 33.42788], [-96.27116, 33.42839], [-96.27111, 33.42882], [-96.27108, 33.42946], [-96.27106, 33.43011], [-96.27103, 33.43076], [-96.27099, 33.43155], [-96.27095, 33.43234], [-96.27091, 33.43314], [-96.27088, 33.433929], [-96.27191, 33.43395], [-96.27294, 33.43397], [-96.27398, 33.43399], [-96.27501, 33.43401], [-96.27604, 33.43403], [-96.27708, 33.43405], [-96.27811, 33.43407], [-96.27914, 33.4341], [-96.27914, 33.4341], [-96.2802, 33.43412], [-96.28127, 33.43414], [-96.28233, 33.43417], [-96.2834, 33.43419], [-96.28446, 33.43422], [-96.28552, 33.43424], [-96.28659, 33.434269], [-96.28765, 33.434289], [-96.28872, 33.43432], [-96.28978, 33.43434], [-96.29085, 33.43437], [-96.29191, 33.43439], [-96.29297, 33.43442], [-96.29404, 33.43444], [-96.2951, 33.434469], [-96.2951, 33.434469], [-96.29601, 33.434489], [-96.29692, 33.43451], [-96.29687, 33.43471], [-96.29681, 33.43518], [-96.29674, 33.43566], [-96.29668, 33.436], [-96.29663, 33.43645], [-96.29657, 33.436799], [-96.29649, 33.43701], [-96.29644, 33.437109], [-96.29631, 33.437289], [-96.29597, 33.437649], [-96.29583, 33.43784], [-96.29573, 33.438029], [-96.29567, 33.438249], [-96.29561, 33.438519], [-96.29558, 33.43874], [-96.29548, 33.43925], [-96.29543, 33.439459], [-96.29536, 33.43985], [-96.29537, 33.43999], [-96.2954, 33.44014], [-96.29551, 33.440379], [-96.29574, 33.44083], [-96.29591, 33.44122], [-96.29603, 33.44164], [-96.29618, 33.44205], [-96.29631, 33.442349], [-96.29633, 33.44245], [-96.29633, 33.44257], [-96.29623, 33.44304], [-96.2962, 33.44323], [-96.29615, 33.44345], [-96.29599, 33.44419], [-96.29584, 33.44493], [-96.29576, 33.44538], [-96.29517, 33.44536], [-96.29458, 33.445349], [-96.29435, 33.445349], [-96.29425, 33.445369], [-96.29417, 33.4454], [-96.29412, 33.44547], [-96.2941, 33.44552], [-96.2941, 33.44623], [-96.29408, 33.44665], [-96.29408, 33.44718], [-96.29408, 33.447699], [-96.29405, 33.44858], [-96.29402, 33.44946], [-96.294, 33.45033], [-96.29398, 33.45091], [-96.29396, 33.451479], [-96.29395, 33.45224], [-96.29394, 33.45299], [-96.29393, 33.45375], [-96.29393, 33.45375], [-96.2939, 33.454549], [-96.29391, 33.454749], [-96.2941, 33.45485], [-96.29415, 33.45487], [-96.29435, 33.4549], [-96.29495, 33.454929], [-96.29555, 33.454949], [-96.29555, 33.454949], [-96.29586, 33.45498], [-96.29593, 33.45499], [-96.296, 33.455019], [-96.29621, 33.45514], [-96.29539, 33.45571], [-96.29567, 33.45611], [-96.29595, 33.45668], [-96.29604, 33.456899], [-96.29602, 33.45759], [-96.29602, 33.45759], [-96.296, 33.45807], [-96.29598, 33.45854], [-96.296, 33.458759], [-96.29704, 33.4587], [-96.29807, 33.45863], [-96.29911, 33.45857], [-96.30014, 33.4585], [-96.30118, 33.45843], [-96.30168, 33.45841], [-96.30168, 33.45841], [-96.30261, 33.45837], [-96.30354, 33.458329], [-96.30447, 33.458289], [-96.3054, 33.45825], [-96.30533, 33.458959], [-96.30527, 33.45967], [-96.3052, 33.460369], [-96.30509, 33.46085], [-96.30498, 33.46134], [-96.30498, 33.46134], [-96.30487, 33.46181], [-96.30476, 33.46229], [-96.30441, 33.46282], [-96.30405, 33.46336], [-96.30403, 33.46394], [-96.30401, 33.46452], [-96.30395, 33.46541], [-96.3039, 33.46629], [-96.30384, 33.46718], [-96.30383, 33.467689], [-96.30377, 33.46851], [-96.3037, 33.46934], [-96.30364, 33.47016], [-96.30358, 33.470979], [-96.30354, 33.471179], [-96.30331, 33.47205], [-96.30314, 33.47294], [-96.30297, 33.47382], [-96.30292, 33.47415], [-96.3029, 33.474449], [-96.3029, 33.475189], [-96.3029, 33.475189], [-96.3029, 33.47591], [-96.3029, 33.47616], [-96.30289, 33.47692], [-96.30288, 33.47768], [-96.30287, 33.47844], [-96.30286, 33.4792], [-96.30285, 33.47996], [-96.30284, 33.480719], [-96.30281, 33.48127], [-96.30278, 33.48183], [-96.30278, 33.48183], [-96.30274, 33.48263], [-96.3027, 33.48342], [-96.30266, 33.48422], [-96.30262, 33.48502], [-96.30258, 33.485819], [-96.30254, 33.48661], [-96.30255, 33.48725], [-96.30255, 33.48789], [-96.30255, 33.48789], [-96.30256, 33.488619], [-96.30257, 33.48935], [-96.30258, 33.49008], [-96.30365, 33.49007], [-96.30472, 33.49007], [-96.30494, 33.49009], [-96.30506, 33.49015], [-96.30509, 33.49027], [-96.30509, 33.49056], [-96.30504, 33.49131], [-96.30504, 33.49131], [-96.30501, 33.49187], [-96.30498, 33.49244], [-96.30595, 33.49257], [-96.30693, 33.49271], [-96.30791, 33.49284], [-96.30888, 33.49298], [-96.30986, 33.49311], [-96.30982, 33.493769], [-96.30977, 33.494419], [-96.30977, 33.494419], [-96.30973, 33.49505], [-96.30968, 33.495669], [-96.30964, 33.496299], [-96.30955, 33.49687], [-96.30941, 33.49738], [-96.30927, 33.49789], [-96.30926, 33.49813], [-96.30928, 33.49835], [-96.30939, 33.49893], [-96.30939, 33.49893], [-96.30942, 33.49907], [-96.3095, 33.499679], [-96.30965, 33.50011], [-96.30967, 33.5005], [-96.30992, 33.50077], [-96.3106, 33.50088], [-96.31158, 33.500909], [-96.31256, 33.50094], [-96.31353, 33.50097], [-96.31451, 33.500999], [-96.31461, 33.50116], [-96.31463, 33.50125], [-96.3146, 33.50155], [-96.31458, 33.50211], [-96.31456, 33.50267], [-96.31456, 33.50267], [-96.31454, 33.50332], [-96.31453, 33.50401], [-96.31452, 33.50471], [-96.31451, 33.505409], [-96.31449, 33.50611], [-96.31447, 33.5068], [-96.31447, 33.5068], [-96.31445, 33.50745], [-96.31443, 33.50811], [-96.31441, 33.50876], [-96.31345, 33.50873], [-96.31249, 33.508699], [-96.31153, 33.50867], [-96.31088, 33.50866], [-96.31078, 33.50869], [-96.3107, 33.50874], [-96.31065, 33.5088], [-96.31063, 33.508899], [-96.3106, 33.509439], [-96.31057, 33.50998], [-96.31057, 33.50998], [-96.31053, 33.51072], [-96.31049, 33.51146], [-96.31045, 33.5122], [-96.31037, 33.51231], [-96.31026, 33.51238], [-96.3101, 33.5124], [-96.30989, 33.5124], [-96.309, 33.512369], [-96.3085, 33.51238], [-96.3085, 33.512929], [-96.30851, 33.51348], [-96.30851, 33.51348], [-96.30852, 33.5143], [-96.30853, 33.51513], [-96.30854, 33.515949], [-96.30855, 33.51677], [-96.30856, 33.5176], [-96.30857, 33.51842], [-96.30858, 33.51925], [-96.30859, 33.520069], [-96.3086, 33.52089], [-96.30861, 33.52172], [-96.30862, 33.52254], [-96.30862, 33.52254], [-96.30863, 33.52315]]}, "properties": {"surface": "two_track", "label": "Ranch two-track", "color": "#6B5A45", "miles": 14.23, "start_mi": 23.4, "end_mi": 37.63, "road": "County Road 4670", "elev_ft": [724, 723, 723, 721, 719, 725, 725, 733, 735, 735, 734, 733, 731, 731, 727, 723, 720, 717, 718, 718, 718, 719, 719, 719, 719, 719, 717, 711, 710, 711, 714, 717, 719, 720, 721, 723, 723, 725, 728, 730, 732, 732, 732, 732, 733, 735, 735, 736, 736, 736, 734, 736, 737, 738, 738, 741, 741, 741, 743, 743, 743, 743, 742, 741, 737, 728, 725, 724, 723, 723, 723, 721, 722, 711, 693, 679, 676, 674, 694, 681, 663, 660, 675, 693, 693, 694, 695, 695, 696, 697, 698, 701, 704, 710, 714, 715, 710, 709, 709, 714, 722, 727, 727, 731, 730, 732, 732, 732, 732, 731, 731, 727, 719, 708, 707, 706, 706, 707, 708, 716, 722, 723, 716, 700, 690, 680, 680, 684, 696, 707, 716, 722, 718, 712, 698, 675, 666, 670, 689, 687, 665, 664, 664, 677, 697, 712, 716, 713, 704, 683, 665, 660, 654, 651, 652, 660, 675, 666, 666, 660, 665, 665, 664, 664, 663, 663, 661, 659, 659, 658, 656, 655, 653, 651, 650, 650, 650, 650, 647, 646, 646, 647, 652, 657, 662, 664, 664, 664, 664, 658, 656, 654, 646, 641, 639, 646, 654, 654, 654, 653, 653, 652, 636, 630, 631, 630, 633, 637, 642, 653, 668, 672, 670, 674, 674, 674, 674, 675, 675, 677, 680, 681, 681, 682, 682, 682, 682, 678, 679, 682, 682, 685, 685, 686, 685, 683, 683, 683, 689, 691, 694, 687, 687, 684, 696, 702, 704, 697, 691, 685, 683, 682, 682, 683, 685, 685, 682, 673, 667, 664, 672, 674, 673, 667, 656, 654, 649, 648, 640, 637, 635, 634, 634, 632, 632, 631, 631, 631, 631, 631, 634, 636, 639, 640, 640, 640, 644, 648, 650, 655, 659, 662, 669, 671, 671, 674, 677, 679, 678, 675, 675, 675, 675, 675, 674, 674, 672, 672, 670, 665, 660, 670, 675, 680, 682, 682, 677, 674, 674, 671, 670, 669, 670, 672, 679, 679, 679, 681, 679, 681, 680, 679, 689, 692, 692, 690, 691, 691, 692, 694, 696, 696, 698, 701, 702, 703, 703, 703, 703, 704, 705, 706, 704, 702, 701, 700, 700, 700, 700, 700, 703, 705, 705, 707, 710, 714, 714, 715, 715, 715, 716, 716, 718, 720, 720, 722, 723, 725, 726, 728, 730, 734, 736, 738, 739, 741, 741, 746]}}, {"type": "Feature", "geometry": {"type": "LineString", "coordinates": [[-96.30763, 33.52312], [-96.30664, 33.52309], [-96.30565, 33.52306], [-96.30466, 33.52304], [-96.30367, 33.52301], [-96.30268, 33.522979], [-96.30169, 33.52295], [-96.3007, 33.52293], [-96.29971, 33.5229], [-96.29872, 33.522869], [-96.2978, 33.52285], [-96.29689, 33.52282], [-96.29598, 33.522799], [-96.29513, 33.52279], [-96.29429, 33.52277], [-96.29345, 33.522759], [-96.2926, 33.52274], [-96.2926, 33.52274], [-96.29164, 33.52273]]}, "properties": {"surface": "pavement", "label": "Pavement", "color": "#4A5568", "miles": 0.92, "start_mi": 37.63, "end_mi": 38.55, "road": "FM 898", "elev_ft": [749, 752, 748, 738, 730, 724, 720, 718, 719, 723, 729, 736, 741, 741, 739, 736, 731, 731, 735]}}, {"type": "Feature", "geometry": {"type": "LineString", "coordinates": [[-96.29067, 33.522709], [-96.29066, 33.52349], [-96.29065, 33.52426], [-96.29063, 33.525039], [-96.29062, 33.52581], [-96.2906, 33.52659], [-96.29059, 33.52729], [-96.29058, 33.52798], [-96.29057, 33.52868], [-96.29055, 33.52937], [-96.2905, 33.530079], [-96.29048, 33.53089], [-96.29046, 33.531709], [-96.29044, 33.53253], [-96.29043, 33.53335], [-96.29041, 33.53417], [-96.29041, 33.53417], [-96.29039, 33.53484], [-96.29038, 33.53552], [-96.29036, 33.536189], [-96.29035, 33.53687], [-96.29002, 33.53716], [-96.28966, 33.53728], [-96.28858, 33.53727], [-96.28751, 33.53726], [-96.28643, 33.53725], [-96.28643, 33.53725], [-96.28545, 33.537239], [-96.28448, 33.53723], [-96.2835, 33.537219], [-96.28252, 33.53721], [-96.28155, 33.5372], [-96.28057, 33.53719], [-96.28032, 33.53721], [-96.28012, 33.53747]]}, "properties": {"surface": "two_track", "label": "Ranch two-track", "color": "#6B5A45", "miles": 1.59, "start_mi": 38.55, "end_mi": 40.14, "road": "County Road 4075", "elev_ft": [739, 740, 740, 741, 743, 745, 747, 748, 749, 749, 750, 751, 754, 755, 755, 755, 755, 755, 756, 756, 751, 749, 748, 744, 733, 723, 723, 711, 720, 731, 735, 738, 739, 738, 733]}}, {"type": "Feature", "geometry": {"type": "LineString", "coordinates": [[-96.27994, 33.53736], [-96.27976, 33.53726], [-96.27948, 33.53719], [-96.27861, 33.53718], [-96.27844, 33.53716], [-96.27826, 33.53711], [-96.27806, 33.53703], [-96.27791, 33.53694], [-96.27775, 33.53676], [-96.27764, 33.5366], [-96.27758, 33.536389], [-96.27757, 33.53607], [-96.2776, 33.53533], [-96.27762, 33.53458], [-96.27765, 33.53383], [-96.27767, 33.53308], [-96.2777, 33.532339]]}, "properties": {"surface": "pavement", "label": "Pavement", "color": "#4A5568", "miles": 0.45, "start_mi": 40.14, "end_mi": 40.58, "road": "FM 898", "elev_ft": [733, 733, 730, 728, 727, 727, 727, 727, 727, 727, 727, 727, 728, 728, 729, 729, 729]}}, {"type": "Feature", "geometry": {"type": "LineString", "coordinates": [[-96.27747, 33.53242], [-96.27672, 33.53288], [-96.27598, 33.53334], [-96.27524, 33.53381], [-96.2745, 33.53427], [-96.27375, 33.53473], [-96.27289, 33.53526], [-96.27203, 33.53578], [-96.27144, 33.53602], [-96.27085, 33.53625], [-96.27085, 33.53625], [-96.27017, 33.53652], [-96.26931, 33.53671], [-96.26844, 33.5369], [-96.26758, 33.53709], [-96.26671, 33.53728], [-96.26585, 33.53747], [-96.26586, 33.53705], [-96.26587, 33.536389], [-96.26587, 33.535739], [-96.26589, 33.53513], [-96.26588, 33.53432], [-96.26591, 33.533969], [-96.26593, 33.53327], [-96.26598, 33.53264], [-96.26599, 33.532359], [-96.26598, 33.53224], [-96.26595, 33.532159], [-96.26589, 33.53212], [-96.26583, 33.532089], [-96.26572, 33.532069], [-96.2656, 33.532069], [-96.26526, 33.532089], [-96.26506, 33.5321], [-96.26498, 33.53206], [-96.26491, 33.53201], [-96.2649, 33.53193], [-96.26492, 33.53114], [-96.26494, 33.53042], [-96.26495, 33.5297], [-96.26497, 33.528979], [-96.26499, 33.52826], [-96.26501, 33.52763], [-96.26503, 33.527], [-96.26505, 33.52637], [-96.26508, 33.52565], [-96.26511, 33.524929], [-96.26511, 33.524749], [-96.26507, 33.52465], [-96.26494, 33.5246], [-96.26475, 33.524549], [-96.26369, 33.52451], [-96.26369, 33.52451], [-96.26308, 33.524479], [-96.26248, 33.524459], [-96.26176, 33.52444], [-96.26105, 33.52442], [-96.26092, 33.52436], [-96.2609, 33.524189], [-96.26094, 33.52359], [-96.26097, 33.522979], [-96.26101, 33.52238], [-96.26101, 33.52205], [-96.26069, 33.52201], [-96.26003, 33.52199], [-96.25926, 33.52197], [-96.25836, 33.52197], [-96.25755, 33.521949], [-96.25673, 33.52192], [-96.25591, 33.5219], [-96.2551, 33.52188], [-96.2551, 33.52188], [-96.25431, 33.52185], [-96.25352, 33.52183], [-96.25274, 33.5218], [-96.25213, 33.52179], [-96.25153, 33.521769], [-96.25089, 33.52174], [-96.25026, 33.52171], [-96.2495, 33.52169], [-96.24874, 33.52167], [-96.24798, 33.52165], [-96.24708, 33.521639], [-96.24617, 33.52162], [-96.24527, 33.52161], [-96.24437, 33.52159], [-96.24437, 33.52159], [-96.24338, 33.521569], [-96.24236, 33.52154], [-96.24133, 33.52151], [-96.2403, 33.521479], [-96.23927, 33.52144], [-96.23824, 33.52141], [-96.23722, 33.52138], [-96.23619, 33.52135], [-96.23575, 33.52123], [-96.23487, 33.521169], [-96.23399, 33.52111], [-96.23312, 33.52105], [-96.23207, 33.52103], [-96.23106, 33.52097], [-96.23018, 33.52097], [-96.22931, 33.52096], [-96.22843, 33.52096], [-96.22843, 33.52096], [-96.22769, 33.52095], [-96.22714, 33.520699], [-96.22697, 33.520699], [-96.22679, 33.52102], [-96.22639, 33.52086], [-96.22541, 33.52085], [-96.22443, 33.52084], [-96.2242, 33.520829], [-96.22393, 33.52075], [-96.22397, 33.52019], [-96.22401, 33.51964], [-96.224, 33.51878], [-96.22299, 33.51874], [-96.22198, 33.51871], [-96.22097, 33.51867], [-96.21996, 33.518639], [-96.21996, 33.518639], [-96.2189, 33.5186], [-96.21785, 33.51856], [-96.21679, 33.51853], [-96.21574, 33.51849], [-96.21468, 33.51845], [-96.21468, 33.51867], [-96.21474, 33.51934], [-96.2148, 33.519669], [-96.21487, 33.51994], [-96.21473, 33.52], [-96.21413, 33.52001], [-96.21353, 33.52002], [-96.21268, 33.51999], [-96.21183, 33.51997], [-96.21098, 33.51994], [-96.21098, 33.51994], [-96.21, 33.51991], [-96.20903, 33.51988], [-96.20805, 33.51985], [-96.20708, 33.51982], [-96.2061, 33.519779], [-96.20513, 33.51975], [-96.20415, 33.51972], [-96.20325, 33.51963], [-96.2029, 33.51962], [-96.20247, 33.519509], [-96.20233, 33.51943], [-96.20225, 33.519329], [-96.20219, 33.519199], [-96.20221, 33.518549], [-96.20223, 33.51789], [-96.20221, 33.5173], [-96.20177, 33.517339], [-96.20137, 33.51729], [-96.20101, 33.51728], [-96.20066, 33.517339], [-96.20008, 33.51751], [-96.19981, 33.517539], [-96.19903, 33.517519], [-96.19826, 33.5175], [-96.19748, 33.51748], [-96.19743, 33.51751], [-96.19737, 33.518349], [-96.1973, 33.51919], [-96.19722, 33.51932], [-96.19714, 33.51939], [-96.19702, 33.51944], [-96.19633, 33.519399], [-96.19533, 33.51934], [-96.19432, 33.519289], [-96.19416, 33.5193], [-96.19399, 33.519399], [-96.19386, 33.519599], [-96.19377, 33.52006], [-96.19369, 33.5208], [-96.19363, 33.52132], [-96.19358, 33.52185], [-96.19378, 33.522329], [-96.19386, 33.52265], [-96.19381, 33.5234], [-96.19376, 33.52415], [-96.19371, 33.5249], [-96.19366, 33.52565], [-96.19364, 33.52637], [-96.19362, 33.527079], [-96.1936, 33.5278], [-96.19355, 33.52845], [-96.1935, 33.52911], [-96.1935, 33.52911], [-96.19343, 33.52991], [-96.19337, 33.5307], [-96.1933, 33.5315], [-96.19324, 33.5323], [-96.19318, 33.533099], [-96.19309, 33.53356], [-96.19301, 33.53402], [-96.19294, 33.53481], [-96.19288, 33.5356], [-96.19281, 33.5364], [-96.19275, 33.53719], [-96.19268, 33.537979], [-96.19262, 33.53877], [-96.19255, 33.53956], [-96.19249, 33.54036], [-96.19244, 33.541179], [-96.1924, 33.542009], [-96.19235, 33.54284], [-96.1923, 33.54366], [-96.19226, 33.54449], [-96.19226, 33.54449], [-96.19221, 33.54538], [-96.19216, 33.54627]]}, "properties": {"surface": "two_track", "label": "Ranch two-track", "color": "#6B5A45", "miles": 8.38, "start_mi": 40.58, "end_mi": 48.97, "road": "County Road 4215", "elev_ft": [729, 725, 720, 717, 711, 711, 713, 720, 721, 720, 720, 716, 708, 702, 697, 696, 693, 695, 697, 696, 692, 683, 679, 690, 698, 702, 703, 705, 705, 705, 705, 704, 702, 700, 700, 700, 700, 704, 706, 707, 710, 710, 710, 711, 712, 712, 708, 706, 705, 705, 704, 701, 701, 705, 709, 712, 713, 713, 712, 709, 704, 699, 697, 697, 698, 698, 701, 704, 704, 703, 701, 701, 700, 697, 692, 689, 684, 680, 678, 677, 678, 678, 677, 674, 673, 670, 670, 665, 659, 649, 658, 662, 664, 660, 652, 650, 656, 660, 658, 656, 657, 659, 659, 658, 658, 658, 657, 656, 656, 652, 651, 653, 653, 653, 652, 652, 650, 649, 646, 644, 642, 642, 632, 627, 625, 629, 636, 634, 625, 619, 616, 615, 615, 615, 611, 613, 621, 621, 614, 622, 620, 608, 597, 600, 609, 612, 612, 612, 612, 613, 613, 617, 614, 606, 601, 601, 598, 598, 596, 600, 609, 613, 611, 610, 592, 581, 580, 579, 579, 579, 578, 577, 576, 574, 573, 573, 569, 565, 568, 570, 572, 574, 576, 580, 584, 591, 596, 598, 585, 583, 583, 597, 603, 601, 598, 588, 585, 581, 581, 581, 586, 579, 573, 572, 574, 569, 572, 577, 581, 584, 587, 587, 593, 600]}}, {"type": "Feature", "geometry": {"type": "LineString", "coordinates": [[-96.19208, 33.54639], [-96.19182, 33.54637], [-96.19114, 33.54628], [-96.19044, 33.5462], [-96.18975, 33.54612], [-96.18879, 33.54602]]}, "properties": {"surface": "pavement", "label": "Pavement", "color": "#4A5568", "miles": 0.19, "start_mi": 48.97, "end_mi": 49.16, "road": "Farm-to-Market Road 1629", "elev_ft": [601, 599, 590, 583, 579, 571]}}, {"type": "Feature", "geometry": {"type": "LineString", "coordinates": [[-96.18783, 33.54592], [-96.18776, 33.5465], [-96.1877, 33.54708], [-96.1877, 33.54791], [-96.18777, 33.54856], [-96.18778, 33.54865], [-96.18778, 33.5489], [-96.1877, 33.54912], [-96.18737, 33.54996], [-96.18704, 33.55079], [-96.18671, 33.55163], [-96.18638, 33.55246], [-96.18605, 33.5533], [-96.18572, 33.55413], [-96.18539, 33.55497], [-96.18506, 33.5558], [-96.18473, 33.55664], [-96.18473, 33.55664], [-96.18444, 33.55733], [-96.18416, 33.55802], [-96.18387, 33.55871], [-96.18364, 33.55943], [-96.1834, 33.56015], [-96.18316, 33.56087], [-96.18292, 33.56173], [-96.18288, 33.56218], [-96.18284, 33.56263], [-96.18276, 33.56323], [-96.1826, 33.56391], [-96.1826, 33.56391], [-96.1825, 33.56436], [-96.18231, 33.56499], [-96.18211, 33.56562], [-96.182, 33.56584], [-96.1818, 33.56609]]}, "properties": {"surface": "two_track", "label": "Ranch two-track", "color": "#6B5A45", "miles": 1.45, "start_mi": 49.16, "end_mi": 50.61, "road": "County Road 4205", "elev_ft": [570, 572, 574, 577, 578, 578, 578, 578, 577, 577, 577, 576, 574, 572, 576, 579, 586, 586, 591, 594, 597, 598, 596, 595, 594, 593, 592, 592, 590, 590, 583, 577, 572, 566, 565]}}, {"type": "Feature", "geometry": {"type": "LineString", "coordinates": [[-96.18165, 33.56629], [-96.18157, 33.5664], [-96.18153, 33.56647], [-96.18148, 33.56659], [-96.18146, 33.56669], [-96.18144, 33.567], [-96.18056, 33.56699], [-96.17967, 33.56698], [-96.17967, 33.56698], [-96.17929, 33.56698], [-96.17926, 33.56725], [-96.17928, 33.5681], [-96.17929, 33.56895], [-96.17928, 33.56984], [-96.17931, 33.57073], [-96.17931, 33.57119], [-96.17931, 33.57165], [-96.17933, 33.57226], [-96.17935, 33.57287], [-96.17935, 33.57305], [-96.17937, 33.57318], [-96.17939, 33.57333], [-96.17938, 33.57365], [-96.17938, 33.57365], [-96.17938, 33.5739], [-96.17876, 33.57387], [-96.17814, 33.57385], [-96.17744, 33.57384], [-96.17744, 33.57384], [-96.17709, 33.57383], [-96.17699, 33.57383], [-96.17692, 33.57387], [-96.17688, 33.57394], [-96.17686, 33.5745], [-96.17686, 33.5745], [-96.17684, 33.57517], [-96.17683, 33.57583], [-96.17683, 33.57583], [-96.17682, 33.57593], [-96.17582, 33.57588], [-96.17582, 33.57588], [-96.17566, 33.57587], [-96.17564, 33.57626], [-96.17486, 33.57625], [-96.17486, 33.57625], [-96.17422, 33.57624], [-96.17357, 33.57623], [-96.17251, 33.57618], [-96.17252, 33.57583], [-96.17196, 33.57582], [-96.1714, 33.5758], [-96.1714, 33.5758], [-96.1712, 33.57578], [-96.17104, 33.57573], [-96.17083, 33.57562], [-96.17065, 33.57556], [-96.17041, 33.57551], [-96.16962, 33.57547], [-96.16883, 33.57544], [-96.16804, 33.57541], [-96.16804, 33.57541], [-96.16759, 33.57539], [-96.16757, 33.57596], [-96.16755, 33.57653]]}, "properties": {"surface": "unknown", "label": "Unverified", "color": "#9A9389", "miles": 1.6, "start_mi": 50.61, "end_mi": 52.21, "road": "East 3rd Street", "elev_ft": [564, 563, 563, 565, 567, 571, 576, 581, 581, 581, 583, 589, 590, 576, 565, 562, 563, 562, 564, 564, 565, 565, 571, 571, 577, 578, 576, 577, 577, 576, 576, 576, 577, 582, 582, 587, 591, 591, 592, 586, 586, 585, 590, 588, 588, 582, 578, 569, 567, 565, 564, 564, 563, 562, 561, 560, 559, 558, 557, 555, 555, 554, 557, 561]}}, {"type": "Feature", "geometry": {"type": "LineString", "coordinates": [[-96.16668, 33.57648], [-96.1658, 33.57642], [-96.1658, 33.57642], [-96.16475, 33.57637], [-96.1637, 33.57631], [-96.16265, 33.57625], [-96.16166, 33.57621], [-96.16067, 33.57616], [-96.15969, 33.57611], [-96.1587, 33.57607], [-96.15771, 33.57602], [-96.15673, 33.57597], [-96.15599, 33.57593], [-96.15526, 33.5759], [-96.15426, 33.57583], [-96.15326, 33.57576], [-96.15229, 33.5757], [-96.15132, 33.57565], [-96.15036, 33.5756], [-96.14939, 33.57554], [-96.14842, 33.57549], [-96.14842, 33.57549], [-96.14814, 33.57547], [-96.1481, 33.57498]]}, "properties": {"surface": "pavement", "label": "Pavement", "color": "#4A5568", "miles": 1.1, "start_mi": 52.21, "end_mi": 53.32, "road": "East Sam Rayburn Drive", "elev_ft": [561, 559, 559, 552, 551, 550, 550, 550, 550, 550, 550, 550, 550, 550, 550, 550, 550, 550, 551, 551, 551, 551, 551, 553]}}, {"type": "Feature", "geometry": {"type": "LineString", "coordinates": [[-96.14802, 33.5744], [-96.14794, 33.57383], [-96.14786, 33.57342], [-96.14782, 33.57329], [-96.14759, 33.57315], [-96.14682, 33.57275], [-96.14682, 33.57275], [-96.14596, 33.57231], [-96.14511, 33.57186], [-96.14425, 33.57142], [-96.14339, 33.57098], [-96.14337, 33.57077], [-96.14341, 33.56992], [-96.14345, 33.56907], [-96.14345, 33.56907], [-96.14348, 33.56822], [-96.14352, 33.56737], [-96.14356, 33.56652], [-96.1436, 33.56567], [-96.14364, 33.56482], [-96.14366, 33.56404], [-96.14368, 33.56326], [-96.14368, 33.56326], [-96.14371, 33.56238], [-96.14366, 33.56227], [-96.14355, 33.5622], [-96.14312, 33.56209], [-96.1426, 33.56194], [-96.14243, 33.56192], [-96.14144, 33.56186], [-96.14046, 33.5618], [-96.13947, 33.56175], [-96.13849, 33.56169], [-96.13818, 33.56156], [-96.138, 33.56123], [-96.138, 33.56123], [-96.13764, 33.56059], [-96.13742, 33.56015], [-96.13719, 33.55971], [-96.13713, 33.55964], [-96.13705, 33.55959], [-96.13657, 33.55955], [-96.13566, 33.55955], [-96.13475, 33.55956], [-96.13462, 33.55951], [-96.13454, 33.55941], [-96.1345, 33.55927], [-96.1345, 33.55876], [-96.13451, 33.55825], [-96.13451, 33.55825], [-96.13451, 33.55778], [-96.13452, 33.55731], [-96.134, 33.55777], [-96.13338, 33.55843], [-96.13276, 33.55909], [-96.13214, 33.55975], [-96.1319, 33.5604], [-96.13165, 33.56105], [-96.13165, 33.56105], [-96.13136, 33.56182], [-96.13108, 33.56258], [-96.13096, 33.56335], [-96.13084, 33.56412], [-96.13072, 33.5649], [-96.1307, 33.56579], [-96.13069, 33.56668], [-96.13067, 33.56758], [-96.13062, 33.5677], [-96.13051, 33.56772], [-96.1296, 33.56769], [-96.1287, 33.56767], [-96.12779, 33.56764], [-96.12689, 33.56762], [-96.12599, 33.56735], [-96.1251, 33.56708], [-96.1242, 33.56681], [-96.12401, 33.56673], [-96.12401, 33.56673], [-96.12384, 33.56665], [-96.12343, 33.56641], [-96.12332, 33.56626], [-96.12328, 33.56613], [-96.12331, 33.56535], [-96.12334, 33.56458], [-96.12337, 33.5638], [-96.12339, 33.56302], [-96.12326, 33.56271], [-96.12316, 33.5626], [-96.12309, 33.56254], [-96.12301, 33.56251], [-96.12246, 33.56247], [-96.12192, 33.56242], [-96.12099, 33.5624], [-96.12006, 33.56238], [-96.11914, 33.56236], [-96.11821, 33.56233], [-96.11728, 33.56231], [-96.11636, 33.56229], [-96.11636, 33.56229], [-96.11545, 33.56227], [-96.11453, 33.56225], [-96.11362, 33.56223], [-96.11271, 33.56221], [-96.11251, 33.56208], [-96.11239, 33.56186], [-96.11242, 33.56113], [-96.11246, 33.56039], [-96.11232, 33.56003], [-96.11165, 33.55936], [-96.11099, 33.55868], [-96.11032, 33.55801], [-96.10999, 33.55752], [-96.10999, 33.55752], [-96.10994, 33.55744], [-96.10947, 33.55698], [-96.10893, 33.55673], [-96.10828, 33.55664], [-96.10764, 33.55655], [-96.1069, 33.55638], [-96.10617, 33.55621], [-96.10554, 33.55595]]}, "properties": {"surface": "two_track", "label": "Ranch two-track", "color": "#6B5A45", "miles": 4.5, "start_mi": 53.32, "end_mi": 57.81, "road": "County Road 3015", "elev_ft": [557, 559, 560, 562, 562, 563, 563, 573, 581, 581, 574, 577, 590, 602, 602, 617, 634, 620, 608, 615, 619, 617, 617, 597, 595, 594, 593, 598, 599, 615, 625, 632, 643, 643, 647, 647, 653, 655, 655, 655, 655, 649, 627, 614, 615, 618, 621, 630, 642, 642, 648, 651, 648, 645, 645, 642, 642, 642, 642, 642, 642, 642, 645, 642, 636, 644, 642, 643, 643, 641, 627, 618, 621, 607, 589, 570, 570, 570, 575, 587, 590, 591, 605, 608, 616, 617, 619, 621, 622, 624, 629, 632, 629, 620, 614, 606, 611, 614, 614, 612, 605, 596, 602, 606, 611, 615, 621, 621, 608, 594, 588, 579, 579, 579, 565, 572, 583, 586, 589, 592, 598]}}, {"type": "Feature", "geometry": {"type": "LineString", "coordinates": [[-96.10558, 33.55506], [-96.10562, 33.55416], [-96.10567, 33.553269], [-96.10571, 33.55237], [-96.10571, 33.55237], [-96.10575, 33.55151]]}, "properties": {"surface": "unknown", "label": "Unverified", "color": "#9A9389", "miles": 0.25, "start_mi": 57.81, "end_mi": 58.06, "road": "", "elev_ft": [598, 593, 589, 580, 580, 580]}}, {"type": "Feature", "geometry": {"type": "LineString", "coordinates": [[-96.10579, 33.55066], [-96.10583, 33.549799], [-96.10587, 33.54894], [-96.10591, 33.54809], [-96.10595, 33.54723], [-96.10599, 33.54634], [-96.10602, 33.54616], [-96.10606, 33.545409], [-96.10584, 33.54459], [-96.10563, 33.54377], [-96.10541, 33.542949], [-96.10519, 33.54213], [-96.10497, 33.54131], [-96.10476, 33.54049], [-96.10461, 33.54029], [-96.10405, 33.539879], [-96.10377, 33.53963], [-96.10377, 33.53963], [-96.10342, 33.53931], [-96.10327, 33.539099], [-96.10312, 33.53861], [-96.10297, 33.53813], [-96.10281, 33.53801], [-96.10199, 33.53796], [-96.10183, 33.53786], [-96.10184, 33.53708], [-96.10186, 33.53631], [-96.10187, 33.535539], [-96.10188, 33.53477], [-96.10187, 33.53409], [-96.10187, 33.5334], [-96.10187, 33.53271], [-96.10186, 33.53203], [-96.10186, 33.53203], [-96.10186, 33.531489], [-96.10197, 33.531329], [-96.10111, 33.53128], [-96.10025, 33.53123], [-96.09939, 33.53119], [-96.09852, 33.53114], [-96.09766, 33.53109], [-96.09719, 33.53108], [-96.09701, 33.53109], [-96.09689, 33.531039], [-96.09676, 33.53088], [-96.09657, 33.53064], [-96.09637, 33.530459], [-96.09614, 33.530299], [-96.09594, 33.53026], [-96.09575, 33.53025], [-96.09547, 33.53029], [-96.09527, 33.53036], [-96.0951, 33.530389], [-96.09496, 33.53034], [-96.09476, 33.53025], [-96.09453, 33.530189], [-96.09426, 33.53014], [-96.09389, 33.53011], [-96.0934, 33.53004], [-96.09305, 33.52993], [-96.09273, 33.52973], [-96.09273, 33.52973], [-96.09213, 33.52932], [-96.09153, 33.52892], [-96.09093, 33.528509], [-96.09022, 33.528149], [-96.08961, 33.52787], [-96.08924, 33.52771], [-96.08898, 33.52758], [-96.08869, 33.52744], [-96.08837, 33.52741], [-96.08806, 33.527389], [-96.08807, 33.52676], [-96.08808, 33.526139], [-96.08809, 33.52552], [-96.0881, 33.524839], [-96.0881, 33.52416], [-96.0881, 33.52416], [-96.0881, 33.523429], [-96.08892, 33.52349], [-96.08958, 33.52357], [-96.09029, 33.52365], [-96.09054, 33.523629], [-96.0907, 33.52356], [-96.09082, 33.52346], [-96.09092, 33.52329], [-96.09104, 33.52284], [-96.0911, 33.522759], [-96.0912, 33.522689], [-96.09144, 33.522579], [-96.09188, 33.52235], [-96.09206, 33.522219], [-96.09216, 33.52207], [-96.09221, 33.52188], [-96.09224, 33.52116], [-96.09224, 33.52116], [-96.09227, 33.52035], [-96.09231, 33.51955], [-96.09234, 33.51874], [-96.09237, 33.51794], [-96.09237, 33.51794], [-96.09241, 33.51711], [-96.09244, 33.516289], [-96.09248, 33.515459], [-96.09251, 33.514629], [-96.09254, 33.51381], [-96.09258, 33.51298], [-96.09261, 33.51215], [-96.09265, 33.51133], [-96.09268, 33.5105], [-96.09272, 33.50968], [-96.09272, 33.50968], [-96.09275, 33.50889], [-96.09282, 33.508699], [-96.0929, 33.5086], [-96.09302, 33.508589]]}, "properties": {"surface": "two_track", "label": "Ranch two-track", "color": "#6B5A45", "miles": 3.83, "start_mi": 58.06, "end_mi": 61.89, "road": "County Road 3060", "elev_ft": [585, 594, 614, 628, 626, 625, 625, 619, 620, 620, 620, 619, 618, 615, 616, 626, 630, 630, 636, 641, 647, 654, 656, 655, 653, 656, 659, 662, 661, 650, 642, 642, 641, 641, 649, 653, 653, 647, 651, 640, 621, 605, 604, 605, 608, 609, 610, 620, 628, 636, 646, 647, 647, 647, 645, 642, 635, 619, 620, 635, 641, 641, 653, 659, 664, 671, 671, 677, 679, 678, 678, 675, 666, 658, 666, 659, 660, 660, 671, 679, 678, 667, 665, 664, 663, 665, 669, 669, 669, 671, 676, 677, 678, 678, 679, 679, 678, 680, 680, 681, 681, 680, 682, 684, 686, 689, 692, 693, 693, 693, 694, 694, 694, 694, 694, 694]}}, {"type": "Feature", "geometry": {"type": "LineString", "coordinates": [[-96.09249, 33.50809], [-96.09197, 33.507579], [-96.09144, 33.50708], [-96.09127, 33.50695], [-96.09107, 33.506839], [-96.09086, 33.50676], [-96.09065, 33.5067], [-96.09043, 33.506659], [-96.09016, 33.506639], [-96.08912, 33.50661], [-96.08807, 33.50658], [-96.08702, 33.50654], [-96.08598, 33.50651], [-96.08598, 33.50651], [-96.08522, 33.50649], [-96.08446, 33.506459], [-96.08393, 33.506459], [-96.08359, 33.506439], [-96.08332, 33.5064], [-96.08298, 33.50633], [-96.08249, 33.5062]]}, "properties": {"surface": "pavement", "label": "Pavement", "color": "#4A5568", "miles": 0.62, "start_mi": 61.89, "end_mi": 62.51, "road": "FM 1550", "elev_ft": [694, 694, 693, 693, 692, 692, 692, 691, 690, 688, 682, 679, 676, 676, 674, 672, 671, 671, 670, 669, 666]}}, {"type": "Feature", "geometry": {"type": "LineString", "coordinates": [[-96.08194, 33.50602], [-96.08199, 33.50522], [-96.08204, 33.50442], [-96.08209, 33.50363], [-96.08209, 33.50363], [-96.08214, 33.50284], [-96.08219, 33.50206], [-96.08224, 33.501269], [-96.08229, 33.50048], [-96.08208, 33.50022], [-96.08111, 33.50021], [-96.08019, 33.50018], [-96.07927, 33.50016], [-96.07919, 33.50013], [-96.07912, 33.50009], [-96.07904, 33.50003], [-96.07899, 33.49993], [-96.07898, 33.49986], [-96.079, 33.49901], [-96.07902, 33.49816], [-96.07905, 33.49731], [-96.07907, 33.49646], [-96.07909, 33.49561], [-96.07911, 33.49476], [-96.07913, 33.493899], [-96.07915, 33.493049], [-96.07918, 33.492199], [-96.0792, 33.491349], [-96.07922, 33.49081], [-96.07923, 33.49026], [-96.07923, 33.49026], [-96.07925, 33.48977], [-96.07929, 33.48925], [-96.07933, 33.488729], [-96.07933, 33.487859], [-96.07939, 33.48707], [-96.07945, 33.48628], [-96.0795, 33.48549], [-96.07956, 33.484699], [-96.07962, 33.48391], [-96.07968, 33.48312], [-96.07973, 33.482329], [-96.07975, 33.48158], [-96.07977, 33.480829], [-96.07979, 33.48008], [-96.07981, 33.479329], [-96.07984, 33.47858], [-96.07984, 33.47858], [-96.07985, 33.47793], [-96.07987, 33.477269], [-96.07987, 33.476779], [-96.07988, 33.47629], [-96.07971, 33.47611], [-96.07936, 33.47592], [-96.07909, 33.47572], [-96.07902, 33.47536], [-96.079, 33.47473], [-96.07898, 33.47411], [-96.07903, 33.47375], [-96.07918, 33.473309], [-96.07944, 33.47273], [-96.07971, 33.47215], [-96.07997, 33.47157], [-96.08008, 33.471359], [-96.08043, 33.47133], [-96.08078, 33.47132], [-96.08165, 33.471339], [-96.08252, 33.471359], [-96.08339, 33.47138], [-96.08343, 33.47115], [-96.08345, 33.47037], [-96.08347, 33.469589], [-96.0835, 33.46882], [-96.0835, 33.46882], [-96.08351, 33.4683], [-96.08353, 33.467779], [-96.08359, 33.46716], [-96.0836, 33.46709], [-96.0836, 33.46709], [-96.083638, 33.466926], [-96.08368, 33.46674], [-96.08389, 33.46638], [-96.08351, 33.46609], [-96.08362, 33.46593], [-96.08364, 33.46564], [-96.08359, 33.465449], [-96.08359, 33.465449], [-96.08354, 33.46526], [-96.0835, 33.46486], [-96.08352, 33.46403], [-96.08354, 33.4632], [-96.08356, 33.46237], [-96.08358, 33.46154], [-96.08358, 33.46154], [-96.0836, 33.46068], [-96.08363, 33.459829], [-96.08365, 33.45897], [-96.08367, 33.458109], [-96.08369, 33.45725], [-96.08372, 33.4564], [-96.08374, 33.45554], [-96.08376, 33.45468], [-96.08378, 33.45383], [-96.0838, 33.45297], [-96.08383, 33.452109], [-96.08385, 33.451259], [-96.0839, 33.451], [-96.08411, 33.45075], [-96.08444, 33.450699], [-96.08514, 33.450699], [-96.08531, 33.45068], [-96.08546, 33.450629], [-96.08556, 33.450539], [-96.08562, 33.45035], [-96.08567, 33.449489], [-96.08572, 33.44862], [-96.08577, 33.44776], [-96.08577, 33.44776], [-96.0858, 33.44715], [-96.08583, 33.44654], [-96.08585, 33.44605], [-96.08588, 33.44556], [-96.08583, 33.44533], [-96.08555, 33.444899], [-96.08555, 33.44474], [-96.08562, 33.44428], [-96.08571, 33.44373], [-96.0857, 33.44288], [-96.08572, 33.44211], [-96.08574, 33.441339], [-96.08576, 33.44057], [-96.08578, 33.4398], [-96.08582, 33.43896], [-96.08586, 33.438119], [-96.0859, 33.43728], [-96.08594, 33.43645], [-96.08594, 33.43645], [-96.08596, 33.43595], [-96.08599, 33.43545], [-96.08601, 33.43461], [-96.08604, 33.43376], [-96.08607, 33.43291], [-96.0861, 33.432319], [-96.08612, 33.43173], [-96.08616, 33.4309], [-96.08619, 33.430059], [-96.08623, 33.42922], [-96.08626, 33.428379], [-96.0863, 33.427549], [-96.08633, 33.42671], [-96.08637, 33.42587], [-96.0864, 33.42504], [-96.08644, 33.4242], [-96.08644, 33.4242], [-96.08647, 33.423409], [-96.0865, 33.42262], [-96.08654, 33.42183], [-96.08657, 33.42137], [-96.08661, 33.42091], [-96.08665, 33.42011], [-96.08668, 33.41931], [-96.08671, 33.41854], [-96.08674, 33.417769], [-96.08676, 33.417], [-96.08679, 33.41623], [-96.08682, 33.41546], [-96.08685, 33.41469], [-96.08688, 33.413919], [-96.08688, 33.413919], [-96.08692, 33.41304], [-96.08696, 33.41216], [-96.08699, 33.41129], [-96.08703, 33.41041], [-96.08706, 33.40966], [-96.08709, 33.40891], [-96.08712, 33.40816], [-96.08716, 33.408009], [-96.08724, 33.40789], [-96.08724, 33.40789], [-96.08726, 33.40787], [-96.08736, 33.40777], [-96.08762, 33.40773], [-96.0884, 33.40775], [-96.08919, 33.40777], [-96.08997, 33.4078], [-96.09028, 33.40777], [-96.09083, 33.40778], [-96.09185, 33.40782], [-96.09185, 33.40782], [-96.09283, 33.40785], [-96.0938, 33.40789], [-96.09478, 33.407919], [-96.09575, 33.40795], [-96.09673, 33.407989], [-96.0977, 33.40802], [-96.09848, 33.408029], [-96.09848, 33.408029], [-96.09943, 33.40804], [-96.10039, 33.40805], [-96.10134, 33.40807], [-96.10229, 33.40808], [-96.10324, 33.40809], [-96.1042, 33.408099], [-96.10517, 33.40814], [-96.10517, 33.40814], [-96.10612, 33.40818], [-96.10706, 33.40822], [-96.10801, 33.40825], [-96.10852, 33.40829], [-96.10872, 33.40827], [-96.10878, 33.40818], [-96.10882, 33.40791], [-96.10882, 33.40739], [-96.10882, 33.40739], [-96.10882, 33.40673], [-96.10882, 33.40608], [-96.1089, 33.40553], [-96.10912, 33.40511], [-96.10958, 33.40447], [-96.11005, 33.40382], [-96.11005, 33.40382], [-96.1105, 33.40319]]}, "properties": {"surface": "two_track", "label": "Ranch two-track", "color": "#6B5A45", "miles": 8.9, "start_mi": 62.51, "end_mi": 71.41, "road": "County Road 3735", "elev_ft": [663, 665, 665, 662, 662, 661, 666, 670, 671, 670, 666, 667, 670, 671, 671, 671, 672, 672, 674, 675, 674, 673, 669, 662, 656, 650, 649, 648, 648, 652, 652, 653, 654, 657, 665, 670, 671, 672, 670, 668, 665, 662, 659, 656, 653, 649, 644, 644, 641, 637, 637, 642, 642, 641, 641, 642, 642, 642, 643, 644, 647, 650, 652, 652, 653, 653, 652, 651, 649, 647, 641, 636, 630, 630, 629, 626, 622, 622, 622, 621, 615, 624, 623, 625, 627, 628, 628, 631, 632, 632, 622, 632, 631, 631, 631, 628, 628, 627, 626, 624, 624, 623, 622, 621, 618, 614, 614, 613, 610, 612, 613, 613, 612, 611, 611, 616, 614, 614, 610, 604, 597, 592, 591, 591, 591, 591, 591, 592, 593, 594, 597, 599, 609, 623, 631, 633, 633, 632, 631, 633, 638, 628, 622, 620, 626, 633, 631, 640, 642, 631, 627, 636, 647, 647, 645, 642, 635, 643, 650, 652, 638, 631, 632, 639, 650, 658, 663, 670, 670, 671, 663, 649, 652, 665, 676, 682, 682, 683, 683, 683, 682, 683, 684, 691, 692, 693, 692, 679, 679, 676, 671, 664, 662, 662, 660, 658, 658, 651, 650, 646, 641, 649, 647, 643, 643, 640, 643, 647, 648, 649, 649, 648, 646, 646, 642, 639, 637, 636, 635, 634, 634, 634]}}, {"type": "Feature", "geometry": {"type": "LineString", "coordinates": [[-96.11117, 33.40374], [-96.11184, 33.40429], [-96.11252, 33.40485], [-96.11319, 33.4054], [-96.11387, 33.40596], [-96.11454, 33.406509], [-96.11521, 33.407069], [-96.11593, 33.407649], [-96.11665, 33.40823], [-96.11736, 33.40882]]}, "properties": {"surface": "pavement", "label": "Pavement", "color": "#4A5568", "miles": 0.5, "start_mi": 71.41, "end_mi": 71.91, "road": "State Highway 11", "elev_ft": [640, 642, 643, 641, 640, 640, 637, 632, 635, 640]}}, {"type": "Feature", "geometry": {"type": "LineString", "coordinates": [[-96.11774, 33.40863], [-96.11827, 33.40864], [-96.11827, 33.40864], [-96.11918, 33.408659], [-96.12009, 33.40867], [-96.121, 33.40869], [-96.12206, 33.40871], [-96.12313, 33.40873], [-96.12419, 33.40876], [-96.12525, 33.40878], [-96.12588, 33.40881], [-96.12591, 33.40796], [-96.12593, 33.40712], [-96.12596, 33.40627], [-96.12599, 33.40543], [-96.12602, 33.40458], [-96.12602, 33.40458], [-96.12604, 33.40373], [-96.12607, 33.40287], [-96.1261, 33.40202], [-96.12613, 33.40117], [-96.12596, 33.400799], [-96.12599, 33.400239], [-96.12602, 33.399679], [-96.12595, 33.39951], [-96.12525, 33.399459], [-96.12421, 33.39943], [-96.12316, 33.3994], [-96.12211, 33.399369], [-96.12107, 33.39934], [-96.12098, 33.39924], [-96.12099, 33.39888], [-96.12103, 33.39804], [-96.12107, 33.39719], [-96.12107, 33.39719], [-96.12111, 33.39636], [-96.12115, 33.39553], [-96.12119, 33.3947], [-96.12123, 33.39388], [-96.12126, 33.39305], [-96.1213, 33.39222], [-96.12134, 33.39139], [-96.12138, 33.39056], [-96.12142, 33.38973], [-96.12146, 33.38891], [-96.12149, 33.38805], [-96.12152, 33.387189], [-96.12155, 33.386339], [-96.12159, 33.38548], [-96.12162, 33.38462], [-96.12165, 33.38377], [-96.12168, 33.38291], [-96.12171, 33.38205], [-96.12174, 33.3812], [-96.12177, 33.380339], [-96.1218, 33.37948], [-96.12184, 33.37863], [-96.12187, 33.37777], [-96.1219, 33.37691], [-96.12193, 33.37606], [-96.12196, 33.3752], [-96.12199, 33.37435], [-96.12202, 33.37345], [-96.12204, 33.37256], [-96.12207, 33.37167], [-96.12208, 33.37119], [-96.12209, 33.37071], [-96.12211, 33.37025], [-96.12213, 33.36978], [-96.12213, 33.36932], [-96.12214, 33.368859], [-96.12217, 33.368319], [-96.12218, 33.36791], [-96.1222, 33.36721], [-96.12223, 33.36652], [-96.12226, 33.36583], [-96.12224, 33.365409], [-96.12216, 33.36489], [-96.12208, 33.364359], [-96.12205, 33.363999], [-96.12196, 33.36345], [-96.12196, 33.36345], [-96.12191, 33.36318], [-96.12186, 33.362609], [-96.12184, 33.362479], [-96.12177, 33.36235], [-96.1217, 33.36229], [-96.12163, 33.36225], [-96.12133, 33.36218], [-96.12059, 33.362139], [-96.11991, 33.36213], [-96.11923, 33.362119], [-96.11876, 33.36209], [-96.11876, 33.36209], [-96.11773, 33.36204]]}, "properties": {"surface": "two_track", "label": "Ranch two-track", "color": "#6B5A45", "miles": 4.19, "start_mi": 71.91, "end_mi": 76.1, "road": "County Road 3835", "elev_ft": [639, 638, 638, 639, 644, 650, 657, 662, 664, 660, 657, 656, 654, 651, 648, 645, 645, 642, 639, 636, 631, 632, 630, 630, 630, 635, 639, 644, 647, 645, 644, 644, 641, 641, 641, 641, 641, 641, 641, 641, 640, 639, 637, 636, 634, 630, 630, 629, 627, 623, 619, 620, 622, 626, 629, 632, 634, 635, 636, 635, 633, 631, 632, 635, 637, 637, 636, 635, 633, 631, 630, 626, 622, 618, 612, 609, 608, 606, 605, 603, 602, 602, 602, 601, 600, 600, 600, 600, 601, 600, 600, 601, 601, 601, 601]}}, {"type": "Feature", "geometry": {"type": "LineString", "coordinates": [[-96.11794, 33.36197], [-96.1181, 33.36187], [-96.11877, 33.361449], [-96.11945, 33.36105], [-96.12013, 33.360619], [-96.1208, 33.36018], [-96.12148, 33.35974], [-96.12181, 33.35956], [-96.12207, 33.35944], [-96.12278, 33.35922], [-96.12304, 33.35918], [-96.12304, 33.35918], [-96.12346, 33.359139], [-96.12374, 33.359139], [-96.1244, 33.35915], [-96.12479, 33.35915], [-96.12578, 33.359189], [-96.12676, 33.35922], [-96.12775, 33.35925], [-96.12874, 33.35928], [-96.12972, 33.35931], [-96.13071, 33.35935]]}, "properties": {"surface": "pavement", "label": "Pavement", "color": "#4A5568", "miles": 0.8, "start_mi": 76.1, "end_mi": 76.9, "road": "Farm-to-Market Road 816", "elev_ft": [601, 601, 596, 600, 600, 601, 608, 610, 611, 619, 620, 620, 621, 622, 627, 631, 639, 643, 634, 623, 637, 642]}}, {"type": "Feature", "geometry": {"type": "LineString", "coordinates": [[-96.13157, 33.35937], [-96.13243, 33.3594], [-96.13247, 33.358559], [-96.1325, 33.35772], [-96.13254, 33.356879], [-96.13254, 33.356879], [-96.13257, 33.35625], [-96.13259, 33.355629], [-96.13262, 33.354999], [-96.13266, 33.35454], [-96.1327, 33.35407], [-96.1327, 33.35336], [-96.13271, 33.35264], [-96.13272, 33.35192], [-96.13274, 33.351309], [-96.13277, 33.3507], [-96.1328, 33.349809], [-96.13282, 33.34892], [-96.13285, 33.34803], [-96.13288, 33.34714], [-96.13291, 33.346249], [-96.13294, 33.34536], [-96.13293, 33.344659], [-96.13296, 33.34382], [-96.13296, 33.34364], [-96.13288, 33.34292], [-96.13289, 33.34282], [-96.13301, 33.34236], [-96.13307, 33.34176], [-96.13313, 33.34116], [-96.13314, 33.341009], [-96.13315, 33.34037], [-96.13315, 33.33973], [-96.13315, 33.33973], [-96.13315, 33.33908], [-96.13316, 33.3386], [-96.13317, 33.33812], [-96.13319, 33.33786], [-96.13323, 33.33697], [-96.13321, 33.33666], [-96.1332, 33.335949], [-96.1332, 33.33524], [-96.13321, 33.33476], [-96.13322, 33.33429], [-96.13323, 33.33381], [-96.13323, 33.33334], [-96.13325, 33.332459], [-96.13327, 33.33158], [-96.13329, 33.330689], [-96.13329, 33.3301], [-96.1333, 33.32951], [-96.13331, 33.328789], [-96.13331, 33.32808], [-96.13332, 33.32736], [-96.13332, 33.326639], [-96.13334, 33.32615], [-96.13337, 33.32566], [-96.13339, 33.32517], [-96.13342, 33.324669], [-96.13341, 33.32394], [-96.13346, 33.323169], [-96.13346, 33.323169], [-96.1335, 33.32248], [-96.13354, 33.321779], [-96.13357, 33.321089], [-96.13359, 33.320349], [-96.1336, 33.319609], [-96.13361, 33.31888], [-96.13366, 33.31808], [-96.1337, 33.31729], [-96.13374, 33.316499], [-96.13378, 33.3157], [-96.13381, 33.31481], [-96.13385, 33.31392], [-96.13385, 33.31392], [-96.13387, 33.31319], [-96.1339, 33.31245], [-96.13393, 33.31172], [-96.13394, 33.31085], [-96.13396, 33.31069], [-96.134, 33.31057], [-96.13407, 33.310499], [-96.13413, 33.31047], [-96.13426, 33.31042], [-96.13437, 33.310409], [-96.13455, 33.3104], [-96.13533, 33.310409], [-96.1361, 33.31042], [-96.13703, 33.31044], [-96.13796, 33.31046], [-96.13889, 33.31048], [-96.13933, 33.31049], [-96.14029, 33.310519], [-96.14124, 33.31054], [-96.14124, 33.31054], [-96.14203, 33.31057], [-96.14273, 33.31058], [-96.14302, 33.31057], [-96.144, 33.310589], [-96.14497, 33.310609], [-96.14576, 33.31063], [-96.14656, 33.31066], [-96.14739, 33.31067], [-96.14821, 33.310679], [-96.14904, 33.310699], [-96.15004, 33.31072], [-96.15017, 33.31072], [-96.15027, 33.310699], [-96.15035, 33.31067], [-96.15044, 33.31063], [-96.15052, 33.31057], [-96.15065, 33.310429], [-96.15074, 33.31029], [-96.15078, 33.31008], [-96.15079, 33.30989], [-96.15082, 33.30975], [-96.15094, 33.30954], [-96.15134, 33.309019], [-96.15141, 33.30892], [-96.15149, 33.30874], [-96.15152, 33.3086], [-96.1516, 33.30775], [-96.15166, 33.3069], [-96.15169, 33.306269], [-96.15171, 33.305639], [-96.15174, 33.30501], [-96.15174, 33.30501], [-96.15176, 33.304319], [-96.15179, 33.30362], [-96.1518, 33.30314], [-96.15181, 33.30266], [-96.15184, 33.30185], [-96.15184, 33.30135], [-96.15184, 33.300849], [-96.15186, 33.30037], [-96.15187, 33.2999], [-96.15188, 33.299419], [-96.15189, 33.29894], [-96.15191, 33.29847], [-96.15192, 33.297759], [-96.15193, 33.29705], [-96.15194, 33.29634], [-96.15194, 33.29634], [-96.15195, 33.29583], [-96.15197, 33.29567]]}, "properties": {"surface": "unknown", "label": "Unverified", "color": "#9A9389", "miles": 5.43, "start_mi": 76.9, "end_mi": 82.33, "road": "County Road 1019", "elev_ft": [645, 646, 647, 647, 646, 646, 645, 643, 641, 639, 638, 635, 633, 632, 630, 629, 626, 624, 622, 620, 617, 610, 609, 602, 601, 602, 601, 600, 602, 602, 602, 603, 602, 602, 602, 603, 603, 603, 602, 601, 600, 599, 598, 598, 597, 597, 596, 596, 596, 595, 594, 594, 593, 592, 591, 590, 590, 590, 592, 590, 590, 590, 592, 593, 594, 595, 597, 598, 601, 606, 613, 619, 634, 638, 638, 637, 645, 658, 679, 682, 683, 683, 682, 680, 678, 676, 669, 673, 665, 659, 652, 649, 639, 629, 629, 622, 620, 620, 630, 638, 642, 645, 650, 658, 663, 672, 673, 673, 672, 672, 671, 669, 667, 665, 664, 664, 658, 672, 673, 675, 677, 682, 676, 668, 666, 674, 674, 683, 689, 688, 685, 679, 677, 676, 674, 672, 669, 669, 669, 669, 670, 672, 672, 672, 670]}}, {"type": "Feature", "geometry": {"type": "LineString", "coordinates": [[-96.15202, 33.2956], [-96.15284, 33.29562], [-96.15365, 33.29563], [-96.15447, 33.29565], [-96.15497, 33.295679], [-96.15531, 33.29573], [-96.15572, 33.295859], [-96.15622, 33.29607], [-96.15679, 33.29632], [-96.15703, 33.296419], [-96.15717, 33.29646], [-96.15752, 33.29655], [-96.15782, 33.296599], [-96.15811, 33.296639], [-96.1587, 33.29666], [-96.15976, 33.29668], [-96.16081, 33.2967], [-96.16172, 33.296729], [-96.16263, 33.29676], [-96.16285, 33.29678], [-96.16311, 33.29684], [-96.16327, 33.2969]]}, "properties": {"surface": "pavement", "label": "Pavement", "color": "#4A5568", "miles": 0.66, "start_mi": 82.33, "end_mi": 83.0, "road": "Farm-to-Market Road 1566", "elev_ft": [670, 668, 663, 660, 658, 658, 658, 660, 661, 662, 663, 664, 665, 665, 665, 664, 661, 661, 662, 663, 665, 666]}}, {"type": "Feature", "geometry": {"type": "LineString", "coordinates": [[-96.16343, 33.29697], [-96.16348, 33.29693], [-96.16359, 33.29685], [-96.16367, 33.296819], [-96.16381, 33.296799], [-96.1641, 33.29679], [-96.16512, 33.29683], [-96.16616, 33.29684], [-96.16616, 33.29684], [-96.16698, 33.29685], [-96.16779, 33.29686], [-96.16871, 33.296889], [-96.16963, 33.296909], [-96.17055, 33.29693], [-96.17147, 33.29696], [-96.17237, 33.29696], [-96.17328, 33.29697], [-96.17385, 33.296979], [-96.17443, 33.29699], [-96.17472, 33.296979], [-96.17481, 33.29697], [-96.17487, 33.29695], [-96.17491, 33.29692], [-96.17494, 33.29688], [-96.17498, 33.296799], [-96.17499, 33.29674], [-96.17502, 33.295879], [-96.17505, 33.295009], [-96.17506, 33.2944], [-96.17508, 33.293799], [-96.17509, 33.29319], [-96.17511, 33.29289], [-96.17515, 33.29249], [-96.17517, 33.29242], [-96.1752, 33.29238], [-96.17526, 33.29234], [-96.17537, 33.292319], [-96.17566, 33.292299], [-96.17672, 33.29233], [-96.17757, 33.29235], [-96.17841, 33.29237], [-96.17925, 33.292389], [-96.1801, 33.292409], [-96.18089, 33.2924], [-96.18194, 33.29242], [-96.18298, 33.29245], [-96.18403, 33.29247], [-96.18508, 33.29249], [-96.18613, 33.29251], [-96.18677, 33.29253], [-96.18754, 33.29254], [-96.18754, 33.29254], [-96.18789, 33.29256], [-96.18866, 33.292569], [-96.18961, 33.2926], [-96.19056, 33.29262], [-96.19056, 33.29262], [-96.19115, 33.29263], [-96.19116, 33.292749]]}, "properties": {"surface": "unknown", "label": "Unverified", "color": "#9A9389", "miles": 1.91, "start_mi": 83.0, "end_mi": 84.91, "road": "County Road 1044", "elev_ft": [667, 667, 668, 668, 668, 669, 673, 678, 678, 680, 678, 670, 667, 668, 660, 656, 649, 658, 660, 662, 663, 663, 663, 663, 663, 663, 658, 655, 650, 648, 643, 640, 637, 637, 637, 636, 637, 637, 639, 637, 630, 637, 639, 639, 637, 634, 629, 635, 641, 644, 645, 645, 646, 647, 651, 658, 658, 661, 661]}}, {"type": "Feature", "geometry": {"type": "LineString", "coordinates": [[-96.19117, 33.29282], [-96.19123, 33.292969], [-96.19138, 33.29321], [-96.19147, 33.2933], [-96.19157, 33.29338], [-96.19167, 33.29345], [-96.192, 33.29358], [-96.19238, 33.2937], [-96.19238, 33.2937], [-96.19334, 33.29401]]}, "properties": {"surface": "pavement", "label": "Pavement", "color": "#4A5568", "miles": 0.16, "start_mi": 84.91, "end_mi": 85.07, "road": "US 69", "elev_ft": [661, 661, 661, 662, 662, 662, 663, 663, 663, 666]}}, {"type": "Feature", "geometry": {"type": "LineString", "coordinates": [[-96.19365, 33.29375], [-96.19365, 33.29375], [-96.19411, 33.29336], [-96.19411, 33.29336], [-96.19475, 33.29281], [-96.19475, 33.29281], [-96.19518, 33.29244], [-96.19515, 33.29238], [-96.19514, 33.29233], [-96.19516, 33.29215], [-96.19528, 33.29132], [-96.19528, 33.29132], [-96.19538, 33.29061], [-96.19592, 33.290619], [-96.19592, 33.290619], [-96.19641, 33.29063], [-96.19643, 33.28993], [-96.19644, 33.28924], [-96.19644, 33.2887], [-96.19647, 33.28811]]}, "properties": {"surface": "unknown", "label": "Unverified", "color": "#9A9389", "miles": 0.49, "start_mi": 85.07, "end_mi": 85.56, "road": "Northeast Texas Trail", "elev_ft": [666, 666, 663, 663, 662, 662, 661, 661, 660, 659, 654, 654, 649, 652, 652, 657, 651, 646, 643, 641]}}, {"type": "Feature", "geometry": {"type": "LineString", "coordinates": [[-96.1965, 33.287619], [-96.19652, 33.28714], [-96.19656, 33.286389], [-96.19663, 33.28558], [-96.19663, 33.28558], [-96.19667, 33.28502], [-96.19671, 33.28445], [-96.19674, 33.28399], [-96.19677, 33.28352], [-96.19679, 33.282899], [-96.19681, 33.28228], [-96.19683, 33.28166], [-96.19685, 33.281129], [-96.19688, 33.28061], [-96.19689, 33.27987], [-96.19689, 33.27913], [-96.19691, 33.278979], [-96.19689, 33.27881], [-96.19687, 33.27875], [-96.19683, 33.2787], [-96.19675, 33.27864], [-96.19667, 33.27861], [-96.19662, 33.278599], [-96.19613, 33.27859], [-96.19578, 33.27857], [-96.19568, 33.27854], [-96.19563, 33.278509], [-96.19561, 33.27848], [-96.19559, 33.27844], [-96.19558, 33.27837], [-96.19564, 33.277549], [-96.19564, 33.277549], [-96.19568, 33.27698], [-96.1957, 33.27642], [-96.19571, 33.27566], [-96.19573, 33.2749], [-96.19574, 33.27414], [-96.19576, 33.273429], [-96.19578, 33.2734], [-96.19588, 33.2733], [-96.19594, 33.27322], [-96.19614, 33.272869], [-96.19617, 33.27279], [-96.19619, 33.27262], [-96.1962, 33.27176], [-96.19621, 33.27144], [-96.1963, 33.2712], [-96.19635, 33.27111], [-96.19658, 33.2708], [-96.19701, 33.27033], [-96.19744, 33.26985], [-96.19805, 33.26915], [-96.19825, 33.2689], [-96.1984, 33.26874], [-96.19852, 33.268639], [-96.19863, 33.26858], [-96.1988, 33.2685], [-96.19901, 33.26844], [-96.19969, 33.268479], [-96.20037, 33.26851], [-96.20127, 33.26853], [-96.20127, 33.26853], [-96.20202, 33.26856], [-96.20232, 33.26853], [-96.2024, 33.2685], [-96.20252, 33.268389], [-96.20256, 33.26833], [-96.20261, 33.2682], [-96.20266, 33.26789], [-96.20268, 33.26766], [-96.2027, 33.266759], [-96.20273, 33.26587], [-96.20274, 33.265369], [-96.20274, 33.26487], [-96.20277, 33.26412], [-96.20279, 33.263379], [-96.20281, 33.26263], [-96.20285, 33.26241], [-96.20293, 33.26231], [-96.20298, 33.262259], [-96.20332, 33.26213], [-96.20356, 33.262079], [-96.20422, 33.261969], [-96.20514, 33.2618], [-96.20551, 33.26171], [-96.20574, 33.26167], [-96.2063, 33.26168], [-96.20647, 33.26171], [-96.20675, 33.26177], [-96.20709, 33.26182], [-96.20756, 33.26192], [-96.20791, 33.26194], [-96.20848, 33.26195], [-96.20905, 33.26196], [-96.20905, 33.26196], [-96.20985, 33.26198], [-96.21063, 33.262], [-96.2114, 33.26203], [-96.21215, 33.26203], [-96.2129, 33.26204], [-96.21361, 33.26204], [-96.21433, 33.26203], [-96.21503, 33.26205], [-96.21573, 33.262079], [-96.21664, 33.262099], [-96.21754, 33.26211], [-96.21835, 33.26212], [-96.21917, 33.26212], [-96.21998, 33.26212], [-96.22073, 33.26214], [-96.22148, 33.26215], [-96.22185, 33.26215], [-96.22185, 33.26215], [-96.22236, 33.26215], [-96.22294, 33.26216], [-96.22351, 33.262169], [-96.2236, 33.262189], [-96.2237, 33.26225], [-96.22372, 33.26232], [-96.22372, 33.26247], [-96.2237, 33.262999], [-96.22365, 33.26383], [-96.2236, 33.26466], [-96.22358, 33.26515], [-96.22358, 33.265389], [-96.22359, 33.26549], [-96.22362, 33.26554], [-96.22368, 33.26561], [-96.22374, 33.26565], [-96.22387, 33.26568], [-96.22453, 33.26568], [-96.2252, 33.26567], [-96.22596, 33.26568], [-96.22672, 33.26569], [-96.22759, 33.26569], [-96.22846, 33.26569], [-96.22934, 33.26569], [-96.23021, 33.26569], [-96.23112, 33.26569], [-96.23203, 33.2657], [-96.23269, 33.26572], [-96.23335, 33.26574], [-96.23335, 33.26574], [-96.23362, 33.26574], [-96.23467, 33.265749], [-96.23572, 33.265749], [-96.23677, 33.26576], [-96.23741, 33.26576], [-96.23805, 33.26576], [-96.23805, 33.26576], [-96.23879, 33.26577], [-96.23953, 33.26578], [-96.24027, 33.26579], [-96.24032, 33.2658], [-96.24041, 33.26583], [-96.2405, 33.265909]]}, "properties": {"surface": "two_track", "label": "Ranch two-track", "color": "#6B5A45", "miles": 4.5, "start_mi": 85.56, "end_mi": 90.06, "road": "County Road 1089", "elev_ft": [639, 638, 635, 638, 638, 639, 642, 644, 646, 646, 645, 643, 643, 641, 637, 634, 634, 632, 632, 632, 631, 630, 630, 629, 627, 627, 627, 627, 627, 627, 627, 627, 633, 636, 638, 639, 639, 632, 632, 632, 632, 629, 628, 626, 616, 613, 612, 611, 610, 608, 606, 603, 602, 601, 601, 600, 600, 600, 600, 600, 600, 600, 601, 601, 602, 603, 604, 605, 608, 609, 617, 621, 621, 620, 619, 618, 616, 615, 614, 614, 615, 615, 614, 612, 609, 612, 621, 622, 625, 627, 623, 620, 634, 639, 639, 647, 652, 653, 653, 657, 661, 665, 663, 657, 652, 653, 658, 665, 672, 674, 671, 666, 666, 660, 657, 662, 664, 665, 666, 667, 668, 660, 652, 654, 656, 656, 657, 658, 659, 661, 668, 675, 677, 672, 658, 649, 650, 659, 668, 673, 674, 669, 669, 665, 651, 643, 651, 655, 658, 658, 663, 668, 672, 672, 673, 674]}}, {"type": "Feature", "geometry": {"type": "LineString", "coordinates": [[-96.24053, 33.265949], [-96.24086, 33.26569], [-96.24092, 33.26559], [-96.24094, 33.26486], [-96.24097, 33.26413], [-96.24098, 33.263309], [-96.241, 33.262479], [-96.24101, 33.26187], [-96.24102, 33.26127], [-96.24102, 33.26079], [-96.24102, 33.26032], [-96.24104, 33.25968], [-96.24106, 33.25904], [-96.24109, 33.2584], [-96.24108, 33.258249], [-96.24111, 33.25745], [-96.24114, 33.25697], [-96.24118, 33.25649], [-96.24119, 33.25609], [-96.24119, 33.25609], [-96.24121, 33.25583], [-96.24125, 33.255719], [-96.2413, 33.25564], [-96.24134, 33.255609], [-96.24151, 33.25555], [-96.24172, 33.25554], [-96.24244, 33.25556], [-96.24316, 33.25558], [-96.24414, 33.255609], [-96.24439, 33.255589], [-96.24444, 33.25555], [-96.2445, 33.25548], [-96.24453, 33.2554], [-96.24455, 33.2553], [-96.24456, 33.254959], [-96.24456, 33.25448], [-96.24455, 33.253999], [-96.24459, 33.253169], [-96.24463, 33.25235], [-96.24463, 33.25235], [-96.24465, 33.25173]]}, "properties": {"surface": "unknown", "label": "Unverified", "color": "#9A9389", "miles": 1.17, "start_mi": 90.06, "end_mi": 91.23, "road": "County Road 1098", "elev_ft": [674, 675, 674, 670, 666, 661, 662, 668, 671, 679, 681, 690, 694, 698, 699, 703, 704, 703, 702, 702, 702, 702, 701, 701, 701, 699, 696, 690, 683, 681, 681, 681, 680, 679, 675, 670, 673, 683, 689, 689, 692]}}, {"type": "Feature", "geometry": {"type": "LineString", "coordinates": [[-96.24468, 33.251109], [-96.24539, 33.25056], [-96.2461, 33.25], [-96.24627, 33.249809], [-96.24649, 33.24962], [-96.24649, 33.24962], [-96.24678, 33.24939], [-96.24687, 33.24931], [-96.24748, 33.24884], [-96.24809, 33.24837], [-96.2484, 33.2481], [-96.24894, 33.24767], [-96.24894, 33.24767], [-96.24956, 33.24719], [-96.25026, 33.24664], [-96.25041, 33.246519], [-96.25109, 33.245959], [-96.25109, 33.245959], [-96.25156, 33.245559], [-96.25199, 33.24522], [-96.25199, 33.24522], [-96.25272, 33.244619], [-96.25346, 33.24403], [-96.25346, 33.24403], [-96.25422, 33.24342], [-96.25497, 33.24282], [-96.25497, 33.24282], [-96.25546, 33.24243], [-96.25596, 33.24204], [-96.25607, 33.24192], [-96.25648, 33.24161], [-96.25688, 33.2413], [-96.25745, 33.24084], [-96.25745, 33.24084], [-96.25816, 33.24026], [-96.25887, 33.23968], [-96.25959, 33.2391], [-96.2603, 33.23852], [-96.2603, 33.23852], [-96.26102, 33.23794], [-96.26174, 33.23735], [-96.26246, 33.23677], [-96.26246, 33.23677], [-96.26293, 33.236379], [-96.2634, 33.235999], [-96.26404, 33.23548], [-96.26467, 33.23496], [-96.26467, 33.23496], [-96.26529, 33.23446], [-96.2659, 33.23396], [-96.26652, 33.23346], [-96.26714, 33.23297], [-96.26714, 33.23297], [-96.26775, 33.23247], [-96.26837, 33.231969], [-96.26899, 33.23147], [-96.2696, 33.23098], [-96.2696, 33.23098], [-96.27015, 33.23053], [-96.27071, 33.230089], [-96.27126, 33.22964], [-96.27126, 33.22964], [-96.27191, 33.22911], [-96.27256, 33.22858], [-96.27322, 33.22805], [-96.27387, 33.22752], [-96.27452, 33.22699], [-96.27452, 33.22699], [-96.2752, 33.226439], [-96.27587, 33.22589], [-96.27651, 33.225389], [-96.27715, 33.22488], [-96.27715, 33.22488], [-96.27767, 33.224449], [-96.27819, 33.22401], [-96.27867, 33.22366], [-96.2794, 33.223059], [-96.2794, 33.223059], [-96.27999, 33.22258], [-96.28058, 33.22209], [-96.28073, 33.221939], [-96.2812, 33.22158], [-96.2812, 33.22158], [-96.2817, 33.2212], [-96.28223, 33.22077], [-96.28277, 33.220329], [-96.2833, 33.2199], [-96.2833, 33.2199], [-96.28392, 33.2194], [-96.28453, 33.21889], [-96.28453, 33.21889], [-96.28516, 33.21838], [-96.28579, 33.217869], [-96.28642, 33.21735], [-96.28642, 33.21735], [-96.28685, 33.217], [-96.2875, 33.21644], [-96.28791, 33.21613], [-96.28848, 33.21571], [-96.28888, 33.21537], [-96.28888, 33.21537], [-96.28943, 33.21491], [-96.28998, 33.21445], [-96.28998, 33.21445], [-96.2901, 33.21435], [-96.29036, 33.214149], [-96.29111, 33.21356], [-96.29111, 33.21356], [-96.29169, 33.213099], [-96.29227, 33.212629], [-96.29278, 33.21221], [-96.2933, 33.21179], [-96.29392, 33.21127], [-96.29456, 33.21076], [-96.29519, 33.21024], [-96.29551, 33.20993], [-96.29574, 33.20976], [-96.29574, 33.20976], [-96.29589, 33.20966], [-96.29656, 33.20908], [-96.29706, 33.2087], [-96.29755, 33.20832], [-96.298, 33.20796], [-96.298, 33.20796], [-96.29858, 33.207479], [-96.29917, 33.207009], [-96.29976, 33.20653], [-96.30023, 33.206139], [-96.30023, 33.206139], [-96.30082, 33.20564], [-96.30141, 33.20515], [-96.302, 33.204659], [-96.30263, 33.20415], [-96.30263, 33.20415], [-96.30323, 33.20367], [-96.30383, 33.2032], [-96.30442, 33.20272], [-96.30502, 33.20224], [-96.30502, 33.20224], [-96.30562, 33.20176], [-96.30622, 33.201279], [-96.30682, 33.2008], [-96.30739, 33.200339], [-96.30739, 33.200339], [-96.30777, 33.20002], [-96.30816, 33.19971], [-96.30877, 33.19923], [-96.30939, 33.198749], [-96.30986, 33.198369], [-96.30986, 33.198369], [-96.31053, 33.19782], [-96.31121, 33.19727], [-96.31188, 33.19672], [-96.31188, 33.19672], [-96.31264, 33.1961], [-96.31339, 33.19548], [-96.31415, 33.19486], [-96.31415, 33.19486], [-96.3146, 33.19449], [-96.31505, 33.194119], [-96.31576, 33.193559], [-96.31647, 33.19299], [-96.31647, 33.19299], [-96.31706, 33.19252], [-96.31764, 33.19205], [-96.31822, 33.19158], [-96.31881, 33.19111], [-96.31881, 33.19111], [-96.31936, 33.19064], [-96.31991, 33.19017], [-96.32056, 33.18966], [-96.3212, 33.189149], [-96.3212, 33.189149], [-96.32178, 33.18869], [-96.32235, 33.18824], [-96.32299, 33.18772], [-96.32362, 33.187199], [-96.32362, 33.187199], [-96.32439, 33.18657], [-96.32515, 33.18594], [-96.32592, 33.18531], [-96.32592, 33.18531], [-96.32634, 33.18497], [-96.32676, 33.18462]]}, "properties": {"surface": "two_track", "label": "Ranch two-track", "color": "#6B5A45", "miles": 6.61, "start_mi": 91.23, "end_mi": 97.84, "road": "Northeast Texas Trail", "elev_ft": [695, 702, 706, 709, 710, 710, 716, 717, 719, 710, 709, 701, 701, 694, 691, 691, 700, 700, 702, 709, 709, 710, 713, 713, 714, 706, 706, 705, 713, 714, 720, 720, 720, 720, 720, 719, 715, 710, 710, 709, 708, 700, 700, 700, 699, 698, 698, 698, 699, 702, 705, 710, 710, 710, 710, 711, 715, 715, 715, 713, 709, 709, 702, 701, 701, 700, 697, 697, 688, 689, 689, 688, 688, 685, 684, 680, 679, 679, 671, 668, 667, 663, 663, 660, 660, 654, 650, 650, 650, 648, 648, 646, 645, 646, 646, 650, 651, 650, 650, 650, 650, 650, 650, 650, 650, 651, 655, 655, 658, 660, 665, 670, 670, 674, 677, 680, 680, 680, 680, 690, 690, 689, 688, 688, 685, 680, 675, 674, 674, 680, 680, 681, 688, 688, 690, 690, 689, 689, 689, 688, 684, 680, 680, 680, 678, 674, 671, 672, 672, 672, 670, 671, 670, 670, 658, 650, 640, 640, 640, 640, 640, 640, 640, 640, 640, 640, 637, 637, 640, 640, 649, 651, 651, 660, 660, 660, 659, 659, 657, 651, 649, 649, 651, 655]}}, {"type": "Feature", "geometry": {"type": "LineString", "coordinates": [[-96.32734, 33.18417], [-96.32791, 33.18372], [-96.32848, 33.18327], [-96.32848, 33.18327], [-96.32897, 33.182879], [-96.32929, 33.18265], [-96.33013, 33.18215], [-96.33097, 33.18164], [-96.33114, 33.18155], [-96.33114, 33.18155], [-96.33191, 33.18114], [-96.33267, 33.180729], [-96.33344, 33.18032], [-96.33386, 33.180079], [-96.33386, 33.180079], [-96.33475, 33.1796], [-96.33563, 33.17911], [-96.33651, 33.17862], [-96.33651, 33.17862], [-96.33702, 33.17835], [-96.33752, 33.17807], [-96.33799, 33.177799], [-96.33862, 33.17746], [-96.33925, 33.17713], [-96.33925, 33.17713], [-96.34004, 33.17671], [-96.34071, 33.17633], [-96.34138, 33.17596], [-96.34204, 33.17559], [-96.34204, 33.17559], [-96.34293, 33.175109], [-96.34381, 33.17463], [-96.34469, 33.174149], [-96.34469, 33.174149], [-96.3454, 33.173769], [-96.34611, 33.17338], [-96.34682, 33.17299], [-96.34753, 33.17261], [-96.34753, 33.17261], [-96.34838, 33.17214], [-96.34922, 33.17168], [-96.34982, 33.17136], [-96.35041, 33.171039], [-96.35041, 33.171039], [-96.35117, 33.17063], [-96.35194, 33.17022], [-96.3527, 33.16981], [-96.35324, 33.1695], [-96.35324, 33.1695], [-96.35368, 33.16928], [-96.35421, 33.16893], [-96.35476, 33.16856], [-96.35547, 33.168], [-96.35571, 33.16778], [-96.3558, 33.167679], [-96.3558, 33.167679], [-96.35614, 33.16729], [-96.35648, 33.16691], [-96.35689, 33.16637], [-96.35701, 33.16614], [-96.35718, 33.16588], [-96.3575, 33.16532], [-96.35776, 33.16478], [-96.35784, 33.164589], [-96.35808, 33.16411], [-96.35812, 33.164], [-96.35812, 33.164], [-96.35829, 33.1635], [-96.35852, 33.162889], [-96.35874, 33.16227], [-96.3588, 33.16226]]}, "properties": {"surface": "pavement", "label": "Pavement", "color": "#4A5568", "miles": 2.42, "start_mi": 97.84, "end_mi": 100.26, "road": "Northeast Texas Trail", "elev_ft": [659, 661, 666, 666, 670, 670, 672, 670, 670, 670, 670, 660, 657, 651, 651, 660, 670, 670, 670, 673, 680, 680, 680, 680, 680, 680, 680, 680, 680, 680, 680, 680, 676, 676, 668, 661, 660, 662, 662, 660, 660, 660, 664, 664, 667, 666, 666, 663, 663, 662, 662, 659, 659, 659, 658, 658, 657, 654, 655, 659, 659, 650, 650, 649, 647, 647, 647, 644, 640, 640, 640]}}]}