{"type": "FeatureCollection", "features": [{"type": "Feature", "geometry": {"type": "LineString", "coordinates": [[-100.89758, 34.39379], [-100.89757, 34.393295], [-100.89756, 34.3928], [-100.898408, 34.3928], [-100.899255, 34.3928], [-100.900103, 34.3928], [-100.90095, 34.3928], [-100.90127, 34.39278], [-100.90113, 34.39203]]}, "properties": {"surface": "pavement", "label": "Pavement", "color": "#4A5568", "miles": 0.33, "start_mi": 0.0, "end_mi": 0.33, "road": "Main Street", "elev_ft": [2338, 2336, 2333, 2332, 2331, 2330, 2329, 2329, 2325]}}, {"type": "Feature", "geometry": {"type": "LineString", "coordinates": [[-100.901115, 34.39137], [-100.9011, 34.39071], [-100.901092, 34.389881], [-100.901084, 34.389052], [-100.901077, 34.388223], [-100.901069, 34.387394], [-100.901061, 34.386566], [-100.901053, 34.385737], [-100.901046, 34.384908], [-100.901038, 34.384079], [-100.90103, 34.38325], [-100.901016, 34.382368], [-100.901002, 34.381486], [-100.900988, 34.380604], [-100.900974, 34.379722], [-100.90096, 34.37884], [-100.900946, 34.377958], [-100.900932, 34.377076], [-100.900918, 34.376194], [-100.900904, 34.375312], [-100.90089, 34.37443], [-100.900893, 34.373565], [-100.900895, 34.3727], [-100.900898, 34.371835], [-100.9009, 34.37097], [-100.900893, 34.37031], [-100.900887, 34.36965], [-100.90088, 34.36899], [-100.900883, 34.3681], [-100.900887, 34.36721], [-100.90089, 34.36632], [-100.90085, 34.3656], [-100.90085, 34.364907], [-100.90085, 34.364213], [-100.90085, 34.36352], [-100.90089, 34.36332], [-100.90096, 34.36325], [-100.90097, 34.36324], [-100.90108, 34.36317], [-100.90135, 34.36309], [-100.902377, 34.36309], [-100.903405, 34.36309], [-100.904432, 34.36309], [-100.90546, 34.36309], [-100.906487, 34.36309], [-100.907515, 34.36309], [-100.908542, 34.36309], [-100.90957, 34.36309], [-100.91003, 34.36306], [-100.91025, 34.36299], [-100.91038, 34.36288], [-100.91047, 34.36277], [-100.91056, 34.36261], [-100.910545, 34.36172], [-100.91053, 34.36083], [-100.910485, 34.359975], [-100.91044, 34.35912], [-100.91043, 34.358645], [-100.91042, 34.35817], [-100.910412, 34.357492], [-100.910405, 34.356815], [-100.910397, 34.356137], [-100.91039, 34.35546], [-100.910398, 34.354673], [-100.910407, 34.353887], [-100.910415, 34.3531], [-100.910423, 34.352313], [-100.910432, 34.351527], [-100.91044, 34.35074], [-100.910454, 34.349982], [-100.910468, 34.349224], [-100.910482, 34.348466], [-100.910496, 34.347708], [-100.91051, 34.34695], [-100.91051, 34.346083], [-100.91051, 34.345215], [-100.91051, 34.344348], [-100.91051, 34.34348], [-100.910525, 34.342805], [-100.91054, 34.34213], [-100.911487, 34.34213], [-100.912435, 34.34213], [-100.913382, 34.34213], [-100.91433, 34.34213], [-100.915155, 34.34214], [-100.91598, 34.34215], [-100.916805, 34.34216], [-100.91763, 34.34217], [-100.918665, 34.34216]]}, "properties": {"surface": "caliche", "label": "Caliche / gravel", "color": "#C98A24", "miles": 4.39, "start_mi": 0.33, "end_mi": 4.72, "road": "County Road 3", "elev_ft": [2326, 2328, 2328, 2327, 2325, 2324, 2323, 2322, 2318, 2312, 2311, 2317, 2321, 2317, 2316, 2317, 2321, 2323, 2325, 2329, 2329, 2331, 2331, 2329, 2328, 2324, 2323, 2322, 2319, 2318, 2322, 2324, 2326, 2322, 2319, 2319, 2319, 2319, 2320, 2320, 2326, 2332, 2338, 2342, 2345, 2348, 2352, 2357, 2359, 2359, 2359, 2359, 2359, 2359, 2362, 2362, 2361, 2358, 2357, 2355, 2352, 2349, 2348, 2347, 2347, 2348, 2348, 2346, 2346, 2344, 2344, 2345, 2344, 2338, 2329, 2322, 2318, 2315, 2313, 2315, 2311, 2310, 2310, 2312, 2310, 2306, 2305, 2306, 2306]}}, {"type": "Feature", "geometry": {"type": "LineString", "coordinates": [[-100.9197, 34.34215], [-100.919694, 34.343036], [-100.919689, 34.343921], [-100.919683, 34.344807], [-100.919677, 34.345693], [-100.919671, 34.346579], [-100.919666, 34.347464]]}, "properties": {"surface": "pavement", "label": "Pavement", "color": "#4A5568", "miles": 0.37, "start_mi": 4.72, "end_mi": 5.09, "road": "Farm to Market Road 3323", "elev_ft": [2310, 2315, 2323, 2327, 2328, 2330, 2334]}}, {"type": "Feature", "geometry": {"type": "LineString", "coordinates": [[-100.91966, 34.34835], [-100.920713, 34.34835], [-100.921767, 34.34835], [-100.92282, 34.34835], [-100.923765, 34.34834], [-100.92471, 34.34833], [-100.925655, 34.34832], [-100.9266, 34.34831], [-100.927545, 34.3483], [-100.92849, 34.34829], [-100.929441, 34.348279], [-100.930393, 34.348267], [-100.931344, 34.348256], [-100.932296, 34.348244], [-100.933247, 34.348233], [-100.934199, 34.348221], [-100.93515, 34.34821], [-100.935905, 34.34821], [-100.93666, 34.34821], [-100.93706, 34.34824], [-100.9372, 34.34832], [-100.93724, 34.34851], [-100.937233, 34.34916], [-100.937227, 34.34981], [-100.93722, 34.35046], [-100.938052, 34.350468], [-100.938885, 34.350475], [-100.939717, 34.350483], [-100.94055, 34.35049], [-100.941387, 34.350483], [-100.942223, 34.350477], [-100.94306, 34.35047], [-100.943807, 34.350483], [-100.944553, 34.350497], [-100.9453, 34.35051]]}, "properties": {"surface": "two_track", "label": "Ranch two-track", "color": "#6B5A45", "miles": 1.61, "start_mi": 5.09, "end_mi": 6.7, "road": "County Road BB", "elev_ft": [2339, 2334, 2334, 2334, 2335, 2336, 2337, 2339, 2341, 2345, 2344, 2341, 2341, 2340, 2339, 2339, 2339, 2339, 2340, 2341, 2341, 2342, 2344, 2346, 2349, 2349, 2349, 2348, 2346, 2343, 2340, 2339, 2342, 2344, 2348]}}, {"type": "Feature", "geometry": {"type": "LineString", "coordinates": [[-100.946172, 34.350518], [-100.947045, 34.350525], [-100.947917, 34.350533], [-100.94879, 34.35054], [-100.9498, 34.350545], [-100.95081, 34.35055], [-100.95189, 34.35054], [-100.95297, 34.35053], [-100.953775, 34.35054], [-100.95458, 34.35055], [-100.95475, 34.35053], [-100.95489, 34.35044], [-100.95503, 34.3504], [-100.95524, 34.35037], [-100.956216, 34.350376], [-100.957192, 34.350382], [-100.958168, 34.350388], [-100.959144, 34.350394], [-100.96012, 34.3504], [-100.961106, 34.350413], [-100.962092, 34.350425], [-100.963079, 34.350438], [-100.964065, 34.35045], [-100.965051, 34.350463], [-100.966037, 34.350475], [-100.967024, 34.350488], [-100.96801, 34.3505], [-100.969082, 34.350505], [-100.970155, 34.35051], [-100.971227, 34.350515], [-100.9723, 34.35052], [-100.972297, 34.349649], [-100.972293, 34.348778], [-100.97229, 34.347907], [-100.972287, 34.347036], [-100.972283, 34.346164], [-100.97228, 34.345293], [-100.972277, 34.344422], [-100.972273, 34.343551], [-100.97227, 34.34268], [-100.972278, 34.341812], [-100.972285, 34.340945], [-100.972293, 34.340077], [-100.9723, 34.33921]]}, "properties": {"surface": "caliche", "label": "Caliche / gravel", "color": "#C98A24", "miles": 2.27, "start_mi": 6.7, "end_mi": 8.98, "road": "County Road FF", "elev_ft": [2353, 2357, 2360, 2367, 2375, 2381, 2384, 2389, 2391, 2392, 2392, 2393, 2393, 2393, 2395, 2398, 2402, 2405, 2409, 2411, 2414, 2416, 2422, 2424, 2427, 2429, 2431, 2432, 2434, 2435, 2436, 2428, 2427, 2432, 2437, 2441, 2442, 2442, 2443, 2439, 2436, 2436, 2437, 2445]}}, {"type": "Feature", "geometry": {"type": "LineString", "coordinates": [[-100.973257, 34.339213], [-100.974215, 34.339215], [-100.975172, 34.339218], [-100.97613, 34.33922], [-100.977087, 34.339223], [-100.978045, 34.339225], [-100.979002, 34.339228], [-100.97996, 34.33923], [-100.98074, 34.33925], [-100.98152, 34.33927], [-100.982155, 34.33926], [-100.98279, 34.33925], [-100.983789, 34.339253], [-100.984787, 34.339256], [-100.985786, 34.339259], [-100.986784, 34.339261], [-100.987783, 34.339264], [-100.988781, 34.339267]]}, "properties": {"surface": "two_track", "label": "Ranch two-track", "color": "#6B5A45", "miles": 0.89, "start_mi": 8.98, "end_mi": 9.86, "road": "County Road DD", "elev_ft": [2444, 2445, 2449, 2451, 2453, 2454, 2457, 2460, 2463, 2469, 2471, 2475, 2476, 2479, 2479, 2479, 2479, 2480]}}, {"type": "Feature", "geometry": {"type": "LineString", "coordinates": [[-100.98978, 34.33927], [-100.98978, 34.3399], [-100.98998, 34.34062], [-100.99009, 34.34086], [-100.99034, 34.34124], [-100.99065, 34.34159], [-100.99103, 34.34193], [-100.99137, 34.34216], [-100.99195, 34.34243], [-100.99231, 34.34256], [-100.99271, 34.34266], [-100.99302, 34.3427], [-100.993625, 34.342735], [-100.99423, 34.34277], [-100.995315, 34.342805], [-100.9964, 34.34284], [-100.997428, 34.342838], [-100.998456, 34.342836], [-100.999484, 34.342834], [-101.000512, 34.342832], [-101.00154, 34.34283], [-101.002475, 34.34284], [-101.00341, 34.34285], [-101.004344, 34.342841], [-101.005279, 34.342833], [-101.006213, 34.342824], [-101.007147, 34.342816], [-101.008081, 34.342807], [-101.009016, 34.342799], [-101.00995, 34.34279], [-101.01077, 34.342797], [-101.01159, 34.342803], [-101.01241, 34.34281], [-101.013318, 34.342803], [-101.014225, 34.342795], [-101.015133, 34.342788], [-101.01604, 34.34278], [-101.01698, 34.34278], [-101.01792, 34.34278], [-101.01886, 34.34278], [-101.0198, 34.34278], [-101.02074, 34.34278], [-101.021517, 34.34277], [-101.022293, 34.34276], [-101.02307, 34.34275], [-101.02347, 34.34277]]}, "properties": {"surface": "pavement", "label": "Pavement", "color": "#4A5568", "miles": 2.07, "start_mi": 9.86, "end_mi": 11.93, "road": "Farm to Market Road 599", "elev_ft": [2485, 2486, 2488, 2490, 2490, 2493, 2494, 2496, 2496, 2497, 2498, 2498, 2498, 2498, 2500, 2500, 2500, 2500, 2500, 2500, 2499, 2498, 2499, 2500, 2501, 2500, 2500, 2499, 2500, 2499, 2496, 2494, 2493, 2492, 2492, 2492, 2492, 2492, 2492, 2492, 2492, 2492, 2493, 2494, 2496, 2499]}}, {"type": "Feature", "geometry": {"type": "LineString", "coordinates": [[-101.02363, 34.34279], [-101.02378, 34.34274], [-101.02436, 34.34269], [-101.02454, 34.34265], [-101.02465, 34.34258], [-101.02474, 34.34246], [-101.024755, 34.34195], [-101.02477, 34.34144], [-101.024763, 34.340697], [-101.024757, 34.339953], [-101.02475, 34.33921], [-101.025821, 34.339219], [-101.026892, 34.339228], [-101.027964, 34.339236], [-101.029035, 34.339245], [-101.030106, 34.339254], [-101.031177, 34.339263], [-101.032249, 34.339271], [-101.03332, 34.33928], [-101.03346, 34.33925], [-101.0335, 34.33915], [-101.03348, 34.33839], [-101.03346, 34.33763], [-101.03354, 34.33749], [-101.03364, 34.33745], [-101.03464, 34.33744], [-101.03564, 34.33743], [-101.03664, 34.33742], [-101.037692, 34.33743], [-101.038745, 34.33744], [-101.039797, 34.33745], [-101.04085, 34.33746], [-101.0415, 34.337465], [-101.04215, 34.33747], [-101.042147, 34.33668], [-101.042145, 34.33589], [-101.042142, 34.3351], [-101.04214, 34.33431], [-101.04214, 34.333445], [-101.04214, 34.33258], [-101.04227, 34.33195], [-101.042273, 34.33109], [-101.042277, 34.33023], [-101.04228, 34.32937], [-101.04228, 34.328603], [-101.04228, 34.327837], [-101.04228, 34.32707], [-101.04228, 34.326303], [-101.04228, 34.325537], [-101.04228, 34.32477], [-101.042287, 34.323955], [-101.042293, 34.32314], [-101.0423, 34.322325], [-101.042307, 34.32151], [-101.042313, 34.320695], [-101.04232, 34.31988], [-101.04232, 34.31921], [-101.04232, 34.31854], [-101.04232, 34.31787], [-101.043385, 34.317869], [-101.04445, 34.317868], [-101.045515, 34.317866], [-101.04658, 34.317865], [-101.047645, 34.317864], [-101.04871, 34.317863], [-101.049775, 34.317862], [-101.05084, 34.31786], [-101.051905, 34.317859], [-101.05297, 34.317858], [-101.054035, 34.317857], [-101.0551, 34.317855], [-101.056165, 34.317854], [-101.05723, 34.317853], [-101.058295, 34.317851], [-101.05936, 34.31785]]}, "properties": {"surface": "two_track", "label": "Ranch two-track", "color": "#6B5A45", "miles": 3.73, "start_mi": 11.93, "end_mi": 15.66, "road": "County Road 28", "elev_ft": [2500, 2500, 2499, 2499, 2500, 2500, 2498, 2495, 2491, 2489, 2492, 2486, 2487, 2488, 2489, 2491, 2493, 2494, 2498, 2499, 2499, 2498, 2500, 2500, 2500, 2500, 2501, 2501, 2502, 2502, 2503, 2505, 2507, 2512, 2508, 2504, 2502, 2503, 2504, 2505, 2504, 2503, 2502, 2502, 2501, 2501, 2502, 2501, 2500, 2501, 2499, 2497, 2496, 2495, 2494, 2493, 2492, 2491, 2496, 2492, 2491, 2492, 2492, 2492, 2493, 2496, 2499, 2505, 2514, 2512, 2510, 2506, 2504, 2505, 2510]}}, {"type": "Feature", "geometry": {"type": "LineString", "coordinates": [[-101.059337, 34.317071], [-101.059314, 34.316293], [-101.059291, 34.315514], [-101.059269, 34.314736], [-101.059246, 34.313957], [-101.059223, 34.313179], [-101.0592, 34.3124], [-101.059205, 34.311585], [-101.05921, 34.31077], [-101.05925, 34.31041], [-101.05948, 34.30985], [-101.05971, 34.30929], [-101.06006, 34.3085], [-101.06041, 34.30771], [-101.0606, 34.30722], [-101.06072, 34.30679], [-101.06072, 34.30614], [-101.06068, 34.30591], [-101.06057, 34.30552], [-101.06139, 34.30535], [-101.0617, 34.30534], [-101.06246, 34.30546], [-101.06322, 34.30558], [-101.06385, 34.30561], [-101.06488, 34.30559], [-101.06555, 34.30555], [-101.06659, 34.30541], [-101.067573, 34.30526], [-101.068555, 34.30511], [-101.069538, 34.30496], [-101.07052, 34.30481], [-101.071505, 34.30467], [-101.07249, 34.30453], [-101.073526, 34.304433], [-101.074563, 34.304335], [-101.075599, 34.304238], [-101.076635, 34.30414], [-101.077671, 34.304043], [-101.078708, 34.303945], [-101.079744, 34.303848], [-101.08078, 34.30375], [-101.081695, 34.303675], [-101.08261, 34.3036], [-101.08343, 34.30355], [-101.08445, 34.30352], [-101.085495, 34.303525], [-101.08654, 34.30353], [-101.087585, 34.303535], [-101.08863, 34.30354], [-101.08955, 34.30353], [-101.09023, 34.30343], [-101.09058, 34.30333], [-101.0909, 34.30321], [-101.09121, 34.30307], [-101.09148, 34.30292], [-101.09184, 34.30266], [-101.09202, 34.30251], [-101.092647, 34.3019], [-101.093273, 34.30129], [-101.0939, 34.30068], [-101.09417, 34.30046], [-101.09461, 34.30019], [-101.09485, 34.30006], [-101.0953, 34.29988], [-101.09556, 34.29981], [-101.09613, 34.29971], [-101.0964, 34.29968], [-101.096424, 34.29968]]}, "properties": {"surface": "pavement", "label": "Pavement", "color": "#4A5568", "miles": 2.97, "start_mi": 15.66, "end_mi": 18.64, "road": "Farm to Market Road 689", "elev_ft": [2510, 2510, 2512, 2512, 2511, 2511, 2507, 2489, 2481, 2468, 2460, 2460, 2459, 2459, 2459, 2457, 2456, 2456, 2458, 2467, 2469, 2472, 2479, 2492, 2517, 2525, 2531, 2533, 2533, 2534, 2535, 2536, 2538, 2542, 2546, 2548, 2552, 2556, 2560, 2562, 2562, 2562, 2563, 2563, 2563, 2564, 2567, 2571, 2577, 2584, 2585, 2586, 2586, 2586, 2586, 2586, 2587, 2591, 2594, 2594, 2593, 2590, 2589, 2586, 2585, 2583, 2584, 2586]}}, {"type": "Feature", "geometry": {"type": "LineString", "coordinates": [[-101.09719, 34.29967], [-101.09679, 34.300431], [-101.09639, 34.301192], [-101.09599, 34.301952], [-101.09559, 34.302713], [-101.09519, 34.303474], [-101.09479, 34.304235], [-101.09439, 34.304995], [-101.09399, 34.305756], [-101.09359, 34.306517], [-101.09319, 34.307278], [-101.09279, 34.308038], [-101.09239, 34.308799], [-101.09199, 34.30956], [-101.091563, 34.310383], [-101.091135, 34.311205], [-101.090708, 34.312028], [-101.09028, 34.31285], [-101.089853, 34.313673], [-101.089425, 34.314495], [-101.088998, 34.315318], [-101.08857, 34.31614], [-101.088227, 34.31682], [-101.087883, 34.3175], [-101.08754, 34.31818], [-101.087112, 34.318995], [-101.086684, 34.31981], [-101.086257, 34.320625], [-101.085829, 34.32144], [-101.085401, 34.322255], [-101.084973, 34.32307], [-101.084545, 34.323885], [-101.084117, 34.3247], [-101.083689, 34.325515], [-101.083262, 34.32633], [-101.082834, 34.327145], [-101.082406, 34.32796], [-101.081978, 34.328775], [-101.08155, 34.32959], [-101.08117, 34.33032], [-101.08079, 34.33105], [-101.08041, 34.33178], [-101.08003, 34.33251], [-101.07965, 34.33324], [-101.07927, 34.33397], [-101.07889, 34.3347], [-101.078543, 34.33535], [-101.078195, 34.336], [-101.077848, 34.33665], [-101.0775, 34.3373], [-101.07711, 34.338068], [-101.07672, 34.338835], [-101.07633, 34.339603], [-101.07594, 34.34037], [-101.075562, 34.341073], [-101.075183, 34.341777], [-101.074805, 34.34248], [-101.074427, 34.343183], [-101.074048, 34.343887], [-101.07367, 34.34459], [-101.073283, 34.345357], [-101.072897, 34.346123], [-101.07251, 34.34689], [-101.072115, 34.347635], [-101.07172, 34.34838], [-101.071325, 34.349125], [-101.07093, 34.34987], [-101.070518, 34.350658], [-101.070106, 34.351446], [-101.069695, 34.352235], [-101.069283, 34.353023], [-101.068871, 34.353811], [-101.068459, 34.354599], [-101.068047, 34.355387], [-101.067636, 34.356175], [-101.067224, 34.356964], [-101.066812, 34.357752], [-101.0664, 34.35854], [-101.06597, 34.359327], [-101.06554, 34.360113], [-101.06511, 34.3609], [-101.06472, 34.361618], [-101.06433, 34.362335], [-101.06394, 34.363053], [-101.06355, 34.36377], [-101.063177, 34.3645], [-101.062803, 34.36523], [-101.062441, 34.365939], [-101.06244, 34.36594], [-101.06242, 34.36596], [-101.06243, 34.36596], [-101.06243, 34.36596], [-101.06247, 34.36596], [-101.062471, 34.365959]]}, "properties": {"surface": "caliche", "label": "Caliche / gravel", "color": "#C98A24", "miles": 4.99, "start_mi": 18.64, "end_mi": 23.63, "road": "Caprock Canyons Trailway", "elev_ft": [2589, 2585, 2584, 2582, 2579, 2575, 2574, 2571, 2569, 2565, 2563, 2559, 2557, 2554, 2549, 2546, 2543, 2540, 2537, 2534, 2532, 2531, 2530, 2530, 2530, 2530, 2530, 2531, 2533, 2535, 2538, 2539, 2542, 2544, 2546, 2548, 2550, 2552, 2554, 2555, 2558, 2559, 2561, 2563, 2565, 2566, 2568, 2570, 2572, 2574, 2576, 2578, 2580, 2582, 2583, 2583, 2585, 2586, 2587, 2588, 2589, 2590, 2591, 2592, 2594, 2593, 2593, 2592, 2592, 2591, 2590, 2589, 2588, 2587, 2586, 2584, 2583, 2583, 2582, 2581, 2580, 2580, 2579, 2578, 2578, 2577, 2577, 2575, 2575, 2575, 2575, 2575, 2575, 2575]}}, {"type": "Feature", "geometry": {"type": "LineString", "coordinates": [[-101.063078, 34.365957], [-101.064097, 34.365953], [-101.065115, 34.36595], [-101.066133, 34.365947], [-101.067152, 34.365943], [-101.06817, 34.36594], [-101.069176, 34.36594], [-101.070181, 34.36594], [-101.071187, 34.36594], [-101.072192, 34.36594], [-101.073198, 34.36594], [-101.074203, 34.36594], [-101.075209, 34.36594], [-101.076214, 34.36594], [-101.07722, 34.36594]]}, "properties": {"surface": "pavement", "label": "Pavement", "color": "#4A5568", "miles": 0.81, "start_mi": 23.63, "end_mi": 24.44, "road": "State Highway 86", "elev_ft": [2579, 2580, 2580, 2583, 2587, 2593, 2598, 2600, 2604, 2608, 2610, 2614, 2618, 2622, 2631]}}, {"type": "Feature", "geometry": {"type": "LineString", "coordinates": [[-101.07719, 34.36682], [-101.077195, 34.367365], [-101.0772, 34.36791], [-101.077199, 34.368734], [-101.077197, 34.369559], [-101.077196, 34.370383], [-101.077194, 34.371207], [-101.077193, 34.372031], [-101.077191, 34.372856], [-101.07719, 34.37368], [-101.077202, 34.374517], [-101.077215, 34.375355], [-101.077227, 34.376192], [-101.07724, 34.37703], [-101.077233, 34.377877], [-101.077225, 34.378725], [-101.077218, 34.379572], [-101.07721, 34.38042], [-101.07721, 34.38041], [-101.07721, 34.38083], [-101.077765, 34.380835], [-101.07832, 34.38084], [-101.078325, 34.38168], [-101.07833, 34.38252], [-101.078325, 34.383393], [-101.07832, 34.384265], [-101.078315, 34.385138], [-101.07831, 34.38601], [-101.078317, 34.386833], [-101.078324, 34.387656], [-101.078331, 34.388479], [-101.078339, 34.389301], [-101.078346, 34.390124], [-101.078353, 34.390947], [-101.07836, 34.39177], [-101.0784, 34.39187], [-101.07845, 34.39195], [-101.07882, 34.39224], [-101.07885, 34.3923], [-101.07885, 34.39238], [-101.07878, 34.39247], [-101.07872, 34.3925], [-101.07768, 34.39251], [-101.076658, 34.392508], [-101.075637, 34.392507], [-101.074615, 34.392505], [-101.073593, 34.392503], [-101.072572, 34.392502], [-101.07155, 34.3925], [-101.070485, 34.392503], [-101.06942, 34.392505], [-101.068355, 34.392508], [-101.06729, 34.39251], [-101.06729, 34.39264], [-101.067302, 34.39351], [-101.067315, 34.39438], [-101.067327, 34.39525], [-101.06734, 34.39612], [-101.06734, 34.396965], [-101.06734, 34.39781], [-101.06734, 34.398655], [-101.06734, 34.3995], [-101.06734, 34.400345], [-101.06734, 34.40119], [-101.067345, 34.402055], [-101.06735, 34.40292], [-101.067337, 34.403527], [-101.067323, 34.404133], [-101.06731, 34.40474], [-101.06731, 34.405555], [-101.06731, 34.40637], [-101.0673, 34.407], [-101.0673, 34.40705]]}, "properties": {"surface": "two_track", "label": "Ranch two-track", "color": "#6B5A45", "miles": 3.51, "start_mi": 24.44, "end_mi": 27.95, "road": "County Road 25", "elev_ft": [2634, 2635, 2636, 2639, 2632, 2622, 2613, 2610, 2613, 2618, 2620, 2623, 2618, 2604, 2601, 2602, 2603, 2602, 2602, 2604, 2603, 2607, 2605, 2605, 2606, 2608, 2618, 2626, 2632, 2634, 2634, 2634, 2634, 2633, 2632, 2631, 2631, 2628, 2627, 2627, 2627, 2627, 2623, 2626, 2637, 2633, 2631, 2630, 2622, 2605, 2595, 2591, 2589, 2588, 2590, 2595, 2611, 2627, 2630, 2620, 2616, 2615, 2616, 2623, 2624, 2620, 2619, 2620, 2624, 2627, 2631, 2634, 2632]}}, {"type": "Feature", "geometry": {"type": "LineString", "coordinates": [[-101.06726, 34.40784], [-101.06711, 34.40857], [-101.06717, 34.4091], [-101.06698, 34.40983], [-101.067165, 34.41027], [-101.06735, 34.41071], [-101.06735, 34.411457], [-101.06735, 34.412203]]}, "properties": {"surface": "unknown", "label": "Unverified", "color": "#9A9389", "miles": 0.31, "start_mi": 27.95, "end_mi": 28.25, "road": "", "elev_ft": [2635, 2636, 2638, 2638, 2640, 2641, 2642, 2644]}}, {"type": "Feature", "geometry": {"type": "LineString", "coordinates": [[-101.06735, 34.41295], [-101.06734, 34.41299], [-101.06744, 34.41301], [-101.0679, 34.41317], [-101.0686, 34.41323], [-101.06878, 34.41328], [-101.06892, 34.41342], [-101.06922, 34.41402], [-101.06972, 34.41478], [-101.06985, 34.41492], [-101.07003, 34.41507], [-101.07034, 34.41523], [-101.07057, 34.41531], [-101.07085, 34.41533], [-101.07141, 34.41529], [-101.07154, 34.4156]]}, "properties": {"surface": "two_track", "label": "Ranch two-track", "color": "#6B5A45", "miles": 0.34, "start_mi": 28.25, "end_mi": 28.59, "road": "", "elev_ft": [2643, 2637, 2638, 2639, 2642, 2642, 2642, 2643, 2649, 2649, 2650, 2653, 2653, 2655, 2657, 2650]}}, {"type": "Feature", "geometry": {"type": "LineString", "coordinates": [[-101.07168, 34.41579], [-101.07178, 34.41602], [-101.07203, 34.41609], [-101.07218, 34.41659], [-101.07243, 34.41659], [-101.07257, 34.41663], [-101.07307, 34.41696], [-101.07346, 34.41699], [-101.07361, 34.41704], [-101.07393, 34.41733], [-101.07416, 34.41789], [-101.07444, 34.41867], [-101.07445, 34.41891], [-101.07451, 34.41897], [-101.07481, 34.41927], [-101.07492, 34.41953], [-101.07526, 34.41975], [-101.07541, 34.41995], [-101.0755, 34.42011], [-101.07606, 34.42037], [-101.07617, 34.42048], [-101.07621, 34.42059], [-101.0762, 34.42097], [-101.0761, 34.42103], [-101.07597, 34.42093], [-101.075292, 34.420508], [-101.074615, 34.420085], [-101.073937, 34.419663], [-101.07326, 34.41924], [-101.072715, 34.419295], [-101.07217, 34.41935], [-101.07162, 34.419335], [-101.07107, 34.41932], [-101.07051, 34.419185], [-101.06995, 34.41905], [-101.06978, 34.41905], [-101.06887, 34.41886], [-101.06796, 34.41867], [-101.06705, 34.41848], [-101.06682, 34.41847], [-101.0663, 34.41862], [-101.065627, 34.418877], [-101.064953, 34.419133]]}, "properties": {"surface": "unknown", "label": "Unverified", "color": "#9A9389", "miles": 1.19, "start_mi": 28.59, "end_mi": 29.78, "road": "", "elev_ft": [2648, 2646, 2641, 2614, 2613, 2612, 2613, 2612, 2612, 2615, 2631, 2646, 2654, 2654, 2650, 2660, 2661, 2658, 2662, 2664, 2666, 2668, 2669, 2667, 2667, 2669, 2674, 2667, 2654, 2653, 2665, 2662, 2663, 2666, 2664, 2662, 2653, 2650, 2649, 2648, 2645, 2635, 2635]}}, {"type": "Feature", "geometry": {"type": "LineString", "coordinates": [[-101.06428, 34.41939], [-101.06428, 34.41975], [-101.06425, 34.41996], [-101.06408, 34.42022], [-101.06394, 34.42033], [-101.06377, 34.4205], [-101.06354, 34.42053], [-101.06349, 34.42057], [-101.06336, 34.42112], [-101.06331, 34.42126], [-101.06309, 34.42162], [-101.06287, 34.42179], [-101.06282, 34.42191], [-101.06282, 34.42205], [-101.06287, 34.42251], [-101.06283, 34.42261], [-101.06275, 34.4227], [-101.06261, 34.42279], [-101.06233, 34.4229], [-101.06225, 34.423], [-101.06237, 34.42319], [-101.0623, 34.42348], [-101.0622, 34.42362], [-101.0622, 34.42375], [-101.06234, 34.42401], [-101.06233, 34.42401], [-101.06242, 34.4242], [-101.06243, 34.42441], [-101.06246, 34.42452], [-101.06265, 34.42478], [-101.06269, 34.4249], [-101.06257, 34.4251], [-101.06246, 34.42539], [-101.06233, 34.42552], [-101.06217, 34.42566], [-101.06215, 34.42571], [-101.06215, 34.42579], [-101.06224, 34.42595], [-101.06228, 34.42623], [-101.06242, 34.42642], [-101.06252, 34.42652], [-101.06305, 34.42677], [-101.06358, 34.42738], [-101.06364, 34.42754], [-101.06372, 34.4279], [-101.06391, 34.42826], [-101.06394, 34.42859], [-101.06408, 34.42906], [-101.06417, 34.42967], [-101.06439, 34.43007], [-101.06452, 34.43021], [-101.06466, 34.43031], [-101.06479, 34.43035], [-101.06525, 34.43038], [-101.06534, 34.43041], [-101.06542, 34.43045], [-101.06546, 34.43049], [-101.06543, 34.43064], [-101.06546, 34.43069], [-101.06582, 34.43077], [-101.06587, 34.43076], [-101.06591, 34.43072], [-101.06591, 34.43053], [-101.06597, 34.43034], [-101.06602, 34.43025], [-101.06609, 34.43019], [-101.06622, 34.43012], [-101.06667, 34.43007], [-101.06685, 34.4301], [-101.06766, 34.4304], [-101.06775, 34.43047], [-101.06788, 34.43062], [-101.06799, 34.43088], [-101.06811, 34.43137], [-101.06824, 34.43173], [-101.06856, 34.43225], [-101.06882, 34.43246], [-101.06893, 34.43276], [-101.06896, 34.43295], [-101.06874, 34.43344], [-101.06869, 34.43387], [-101.06896, 34.43468], [-101.06896, 34.43481], [-101.06891, 34.43497], [-101.06878, 34.43518], [-101.06864, 34.43532], [-101.06848, 34.43544], [-101.0679, 34.43583], [-101.06766, 34.4359], [-101.06748, 34.43599], [-101.06731, 34.43609], [-101.06726, 34.43615], [-101.0673, 34.43621], [-101.06739, 34.43633], [-101.06744, 34.43645], [-101.06739, 34.43674], [-101.06743, 34.43685], [-101.0677, 34.43702], [-101.06784, 34.43719], [-101.06828, 34.43744], [-101.0686, 34.43783], [-101.06905, 34.43822], [-101.06906, 34.4383]]}, "properties": {"surface": "two_track", "label": "Ranch two-track", "color": "#6B5A45", "miles": 1.75, "start_mi": 29.78, "end_mi": 31.53, "road": "Trail J - Eagle Point Trail", "elev_ft": [2648, 2642, 2638, 2624, 2619, 2614, 2611, 2611, 2617, 2622, 2614, 2612, 2612, 2612, 2594, 2591, 2587, 2586, 2576, 2569, 2558, 2551, 2545, 2538, 2528, 2527, 2525, 2524, 2523, 2526, 2524, 2518, 2519, 2521, 2519, 2518, 2514, 2510, 2510, 2513, 2515, 2514, 2514, 2512, 2507, 2506, 2503, 2491, 2472, 2459, 2455, 2453, 2448, 2432, 2428, 2424, 2423, 2419, 2418, 2422, 2425, 2425, 2429, 2435, 2436, 2437, 2443, 2464, 2464, 2469, 2467, 2464, 2458, 2435, 2425, 2414, 2418, 2410, 2416, 2425, 2426, 2454, 2458, 2458, 2455, 2454, 2451, 2442, 2434, 2424, 2418, 2416, 2416, 2415, 2417, 2424, 2427, 2434, 2438, 2443, 2447, 2458, 2457]}}, {"type": "Feature", "geometry": {"type": "LineString", "coordinates": [[-101.06897, 34.43829], [-101.06878, 34.4383], [-101.06846, 34.43845], [-101.0682, 34.43871], [-101.067905, 34.43919], [-101.06761, 34.43967], [-101.06754, 34.43976], [-101.06734, 34.43999], [-101.06703, 34.44025], [-101.06685, 34.44036], [-101.06654, 34.44052], [-101.065895, 34.440755], [-101.06525, 34.44099], [-101.06462, 34.441305], [-101.06399, 34.44162], [-101.06363, 34.44177], [-101.06301, 34.44194], [-101.06238, 34.44202], [-101.06171, 34.44205], [-101.06104, 34.44208], [-101.06038, 34.44204], [-101.05973, 34.44194], [-101.05946, 34.44186], [-101.05929, 34.44173], [-101.05924, 34.44166], [-101.0592, 34.44107], [-101.05915, 34.44095], [-101.05897, 34.44056], [-101.05879, 34.44039], [-101.05858, 34.44029], [-101.05843, 34.44027], [-101.05776, 34.44025], [-101.05746, 34.44021], [-101.05732, 34.44016], [-101.05675, 34.4399], [-101.05638, 34.43968], [-101.0562, 34.43955], [-101.0562, 34.43954]]}, "properties": {"surface": "pavement", "label": "Pavement", "color": "#4A5568", "miles": 0.92, "start_mi": 31.53, "end_mi": 32.45, "road": "State Park Road", "elev_ft": [2457, 2457, 2457, 2457, 2455, 2454, 2454, 2453, 2452, 2451, 2451, 2455, 2462, 2451, 2437, 2440, 2454, 2457, 2438, 2398, 2370, 2349, 2348, 2353, 2356, 2396, 2405, 2426, 2434, 2438, 2438, 2432, 2430, 2430, 2434, 2439, 2442, 2441]}}, {"type": "Feature", "geometry": {"type": "LineString", "coordinates": [[-101.05607, 34.43958], [-101.05605, 34.43998], [-101.05613, 34.44033], [-101.05611, 34.44057], [-101.05606, 34.44072], [-101.05611, 34.44139], [-101.05596, 34.44167], [-101.05575, 34.44185], [-101.05537, 34.44215], [-101.05519, 34.44238], [-101.05498, 34.44252], [-101.05475, 34.4426], [-101.05449, 34.44267]]}, "properties": {"surface": "unknown", "label": "Unverified", "color": "#9A9389", "miles": 0.26, "start_mi": 32.45, "end_mi": 32.71, "road": "", "elev_ft": [2442, 2441, 2441, 2441, 2442, 2444, 2444, 2443, 2440, 2437, 2431, 2426, 2420]}}, {"type": "Feature", "geometry": {"type": "LineString", "coordinates": [[-101.05425, 34.44254], [-101.05396, 34.44252], [-101.05394, 34.4425], [-101.05351, 34.4429], [-101.0532, 34.4432], [-101.05293, 34.44332], [-101.05236, 34.44386], [-101.05187, 34.44426], [-101.05188, 34.44426], [-101.05127, 34.44464], [-101.0512, 34.44478], [-101.05127, 34.44544], [-101.05141, 34.44606], [-101.0519, 34.44678], [-101.05199, 34.44733], [-101.05217, 34.44776], [-101.05248, 34.44826], [-101.05254, 34.44846], [-101.05252, 34.44853], [-101.05223, 34.44873], [-101.05214, 34.44877], [-101.05163, 34.4489], [-101.05156, 34.44891], [-101.05128, 34.44874], [-101.05114, 34.4486], [-101.05105, 34.44859], [-101.05102, 34.44861], [-101.051, 34.44863], [-101.051, 34.44872], [-101.05112, 34.44956], [-101.05087, 34.44961], [-101.05031, 34.44952], [-101.04975, 34.44943], [-101.04909, 34.44944], [-101.049, 34.44953], [-101.04876, 34.45015], [-101.04854, 34.45037], [-101.04836, 34.45048], [-101.04818, 34.45063], [-101.04735, 34.45081], [-101.04706, 34.4509], [-101.04685, 34.45089], [-101.04667, 34.45079], [-101.04626, 34.45072], [-101.04552, 34.450665], [-101.04478, 34.45061], [-101.04451, 34.45057], [-101.04385, 34.45034], [-101.04322, 34.45002], [-101.04247, 34.449607], [-101.04172, 34.449193], [-101.04097, 34.44878], [-101.04048, 34.44866], [-101.0403, 34.44866], [-101.03956, 34.44878], [-101.03882, 34.4489], [-101.03798, 34.44899]]}, "properties": {"surface": "two_track", "label": "Ranch two-track", "color": "#6B5A45", "miles": 1.53, "start_mi": 32.71, "end_mi": 34.24, "road": "Trail G - Wild Horse Trail", "elev_ft": [2421, 2425, 2429, 2430, 2430, 2432, 2433, 2428, 2428, 2425, 2424, 2421, 2412, 2390, 2370, 2356, 2343, 2342, 2342, 2338, 2336, 2327, 2327, 2320, 2317, 2313, 2313, 2313, 2306, 2286, 2283, 2282, 2282, 2280, 2280, 2278, 2276, 2274, 2273, 2276, 2273, 2273, 2271, 2274, 2270, 2269, 2268, 2269, 2265, 2264, 2261, 2260, 2261, 2261, 2262, 2263, 2266]}}, {"type": "Feature", "geometry": {"type": "LineString", "coordinates": [[-101.03738, 34.448805], [-101.03678, 34.44862], [-101.03641, 34.44821], [-101.03598, 34.44778], [-101.0356, 34.44751], [-101.03504, 34.44733]]}, "properties": {"surface": "unknown", "label": "Unverified", "color": "#9A9389", "miles": 0.17, "start_mi": 34.24, "end_mi": 34.41, "road": "Trail G - Wild Horse Trail", "elev_ft": [2266, 2276, 2276, 2267, 2257, 2252]}}, {"type": "Feature", "geometry": {"type": "LineString", "coordinates": [[-101.03458, 34.44727], [-101.03445, 34.44732], [-101.03426, 34.44746], [-101.03381, 34.44774], [-101.03327, 34.44814], [-101.03283, 34.44864], [-101.03265, 34.44875], [-101.03247, 34.44878], [-101.031575, 34.448615], [-101.03068, 34.44845], [-101.03014, 34.44833], [-101.0296, 34.44821], [-101.02908, 34.44807], [-101.0288, 34.44795], [-101.02826, 34.447505], [-101.02772, 34.44706], [-101.02741, 34.44703], [-101.02696, 34.44709], [-101.02692, 34.44703], [-101.02696, 34.44709], [-101.026645, 34.446655], [-101.026426, 34.446352], [-101.02633, 34.44622], [-101.025885, 34.44551], [-101.02544, 34.4448], [-101.02513, 34.44436], [-101.02465, 34.44385], [-101.02428, 34.44352], [-101.02414, 34.44345], [-101.02347, 34.44322], [-101.02311, 34.44297], [-101.02302, 34.44286], [-101.022795, 34.44245], [-101.02257, 34.44204], [-101.02228, 34.441365], [-101.02199, 34.44069], [-101.02195, 34.44056], [-101.02217, 34.43985], [-101.02217, 34.43967], [-101.02213, 34.43957], [-101.02177, 34.43898], [-101.02169, 34.43889], [-101.0211, 34.43849], [-101.02087, 34.4382], [-101.020535, 34.437725], [-101.0202, 34.43725], [-101.01998, 34.43686], [-101.01977, 34.43641], [-101.01953, 34.43604], [-101.01899, 34.43539], [-101.01874, 34.43501], [-101.018405, 34.434205], [-101.01807, 34.4334], [-101.01807, 34.43321], [-101.0181, 34.43308], [-101.01819, 34.43288], [-101.018615, 34.43225], [-101.01904, 34.43162], [-101.0191, 34.43151], [-101.01948, 34.43124], [-101.02007, 34.43092], [-101.020495, 34.430635], [-101.02092, 34.43035], [-101.02156, 34.429683], [-101.0222, 34.429015], [-101.02284, 34.428348], [-101.02348, 34.42768], [-101.023925, 34.42724], [-101.02437, 34.4268], [-101.02499, 34.42608], [-101.02526, 34.42581], [-101.02576, 34.42537], [-101.02593, 34.42521], [-101.02638, 34.42469], [-101.02666, 34.42446], [-101.02715, 34.4242], [-101.0272, 34.42415], [-101.02727, 34.42406], [-101.02736, 34.42383], [-101.0275, 34.42333], [-101.02763, 34.42307], [-101.02772, 34.42291], [-101.02813, 34.4225], [-101.02854, 34.42209], [-101.02862, 34.42204], [-101.02893, 34.42195], [-101.0298, 34.42185], [-101.030415, 34.421835], [-101.03103, 34.42182], [-101.03193, 34.42175], [-101.03215, 34.42169], [-101.03229, 34.4216], [-101.03242, 34.42147], [-101.03247, 34.42132], [-101.032464, 34.420434], [-101.032459, 34.419549], [-101.032453, 34.418663], [-101.032447, 34.417778], [-101.032442, 34.416892], [-101.032436, 34.416006], [-101.032431, 34.415121], [-101.032425, 34.414235], [-101.032419, 34.413349], [-101.032414, 34.412464], [-101.032408, 34.411578], [-101.032402, 34.410692], [-101.032397, 34.409807], [-101.032391, 34.408921], [-101.032386, 34.408036], [-101.03238, 34.40715], [-101.03214, 34.40715], [-101.03215, 34.40715], [-101.031116, 34.407151], [-101.030082, 34.407152], [-101.029048, 34.407153], [-101.028013, 34.407153], [-101.026979, 34.407154], [-101.025945, 34.407155], [-101.024911, 34.407156], [-101.023877, 34.407157], [-101.022843, 34.407158], [-101.021808, 34.407158], [-101.020774, 34.407159], [-101.01974, 34.40716], [-101.018693, 34.407167], [-101.017647, 34.407173], [-101.0166, 34.40718], [-101.015553, 34.407187], [-101.014507, 34.407193], [-101.01346, 34.4072], [-101.012405, 34.407201], [-101.01135, 34.407202], [-101.010295, 34.407203], [-101.00924, 34.407204], [-101.008185, 34.407205], [-101.00713, 34.407206], [-101.006075, 34.407207], [-101.00502, 34.407208], [-101.003965, 34.407209], [-101.00291, 34.40721], [-101.00185, 34.407216], [-101.00079, 34.407222], [-100.99973, 34.407228], [-100.99867, 34.407234], [-100.99761, 34.40724], [-100.99655, 34.407246], [-100.99549, 34.407252], [-100.99443, 34.407258], [-100.99337, 34.407264], [-100.99231, 34.40727], [-100.991413, 34.407267], [-100.990517, 34.407263], [-100.98962, 34.40726], [-100.98953, 34.40721], [-100.98949, 34.40709], [-100.989493, 34.406241], [-100.989495, 34.405393], [-100.989498, 34.404544], [-100.9895, 34.403695], [-100.989503, 34.402846], [-100.989505, 34.401997], [-100.989508, 34.401149], [-100.98951, 34.4003], [-100.98952, 34.399562], [-100.98953, 34.398825], [-100.98954, 34.398087], [-100.98955, 34.39735], [-100.988617, 34.39734], [-100.987685, 34.39733], [-100.986752, 34.39732], [-100.98582, 34.39731], [-100.985, 34.397317], [-100.98418, 34.397323], [-100.98336, 34.39733], [-100.982331, 34.397328], [-100.981302, 34.397326], [-100.980273, 34.397325], [-100.979244, 34.397323], [-100.978215, 34.397321], [-100.977185, 34.397319], [-100.976156, 34.397317], [-100.975127, 34.397316], [-100.974098, 34.397314], [-100.973069, 34.397312], [-100.97204, 34.39731], [-100.972037, 34.398187], [-100.972033, 34.399063], [-100.97203, 34.39994], [-100.972, 34.39998], [-100.97189, 34.40005], [-100.9718, 34.40007], [-100.970815, 34.400045], [-100.96983, 34.40002], [-100.968845, 34.399995], [-100.96786, 34.39997], [-100.96769, 34.40005], [-100.96764, 34.40014], [-100.967637, 34.400974], [-100.967634, 34.401808], [-100.967631, 34.402642], [-100.967628, 34.403476], [-100.967625, 34.40431], [-100.967622, 34.405144], [-100.967619, 34.405978], [-100.967616, 34.406812], [-100.967613, 34.407646], [-100.96761, 34.40848], [-100.96759, 34.40853], [-100.96755, 34.40856], [-100.966492, 34.408561], [-100.965435, 34.408562], [-100.964377, 34.408562], [-100.963319, 34.408563], [-100.962262, 34.408564], [-100.961204, 34.408565], [-100.960146, 34.408566], [-100.959088, 34.408566], [-100.958031, 34.408567], [-100.956973, 34.408568], [-100.955915, 34.408569], [-100.954858, 34.408569], [-100.9538, 34.40857], [-100.952762, 34.408568], [-100.951725, 34.408566], [-100.950687, 34.408565], [-100.94965, 34.408563], [-100.948612, 34.408561], [-100.947575, 34.408559], [-100.946537, 34.408557], [-100.9455, 34.408555], [-100.944462, 34.408553], [-100.943425, 34.408552], [-100.942387, 34.40855], [-100.94135, 34.408548], [-100.940312, 34.408546], [-100.939275, 34.408544], [-100.938237, 34.408542], [-100.9372, 34.40854], [-100.93711, 34.40849], [-100.93698, 34.40835], [-100.93696, 34.40812], [-100.936963, 34.40737], [-100.936967, 34.40662], [-100.93697, 34.40587], [-100.936973, 34.40512], [-100.936977, 34.40437], [-100.93698, 34.40362], [-100.936982, 34.402848], [-100.936983, 34.402077], [-100.936985, 34.401305], [-100.936987, 34.400533], [-100.936988, 34.399762], [-100.93699, 34.39899], [-100.936047, 34.398994], [-100.935104, 34.398999], [-100.934161, 34.399003], [-100.933219, 34.399007], [-100.932276, 34.399011], [-100.931333, 34.399016], [-100.93039, 34.39902], [-100.92938, 34.399014], [-100.92837, 34.399008], [-100.92736, 34.399002], [-100.92635, 34.398996], [-100.92534, 34.39899], [-100.92433, 34.398984], [-100.92332, 34.398978], [-100.92231, 34.398972], [-100.9213, 34.398966], [-100.92029, 34.39896], [-100.91996, 34.39893], [-100.91906, 34.39874], [-100.918005, 34.398744], [-100.916951, 34.398748], [-100.915896, 34.398753], [-100.914841, 34.398757], [-100.913786, 34.398761], [-100.912732, 34.398765], [-100.911677, 34.398769], [-100.910622, 34.398773], [-100.909568, 34.398777], [-100.908513, 34.398781], [-100.907458, 34.398786], [-100.906404, 34.39879], [-100.905349, 34.398794], [-100.904294, 34.398798], [-100.903239, 34.398802], [-100.902185, 34.398806], [-100.90113, 34.39881], [-100.90114, 34.39881], [-100.900333, 34.39882], [-100.899527, 34.39883]]}, "properties": {"surface": "two_track", "label": "Ranch two-track", "color": "#6B5A45", "miles": 13.53, "start_mi": 34.41, "end_mi": 47.94, "road": "County Road 29", "elev_ft": [2250, 2250, 2248, 2246, 2245, 2245, 2246, 2246, 2246, 2245, 2248, 2254, 2258, 2260, 2269, 2270, 2271, 2272, 2272, 2272, 2277, 2282, 2288, 2326, 2351, 2367, 2376, 2383, 2384, 2402, 2413, 2417, 2429, 2432, 2427, 2426, 2426, 2421, 2420, 2420, 2422, 2423, 2423, 2422, 2420, 2419, 2421, 2433, 2439, 2434, 2439, 2455, 2470, 2471, 2471, 2470, 2467, 2459, 2459, 2457, 2457, 2461, 2468, 2460, 2457, 2460, 2455, 2456, 2462, 2471, 2475, 2486, 2487, 2499, 2511, 2514, 2514, 2515, 2520, 2532, 2534, 2536, 2545, 2567, 2568, 2574, 2578, 2578, 2581, 2579, 2578, 2576, 2575, 2573, 2573, 2577, 2571, 2566, 2565, 2566, 2564, 2561, 2560, 2561, 2560, 2556, 2553, 2551, 2549, 2552, 2551, 2551, 2548, 2546, 2545, 2544, 2544, 2543, 2543, 2542, 2541, 2541, 2540, 2541, 2540, 2539, 2540, 2543, 2545, 2555, 2565, 2575, 2581, 2589, 2585, 2574, 2566, 2559, 2554, 2552, 2545, 2538, 2531, 2529, 2531, 2525, 2519, 2515, 2511, 2493, 2483, 2469, 2464, 2462, 2460, 2446, 2442, 2443, 2444, 2446, 2447, 2450, 2467, 2480, 2494, 2506, 2520, 2508, 2499, 2497, 2499, 2499, 2503, 2510, 2505, 2489, 2480, 2485, 2470, 2458, 2462, 2474, 2474, 2468, 2484, 2478, 2467, 2459, 2458, 2458, 2456, 2457, 2457, 2451, 2450, 2449, 2448, 2439, 2428, 2420, 2413, 2408, 2405, 2404, 2402, 2401, 2400, 2400, 2400, 2397, 2397, 2397, 2397, 2397, 2397, 2398, 2399, 2399, 2400, 2400, 2399, 2397, 2393, 2392, 2392, 2395, 2402, 2408, 2419, 2427, 2424, 2412, 2406, 2404, 2402, 2403, 2405, 2408, 2408, 2407, 2405, 2401, 2396, 2393, 2388, 2385, 2382, 2377, 2373, 2370, 2370, 2376, 2378, 2375, 2369, 2369, 2377, 2379, 2384, 2388, 2382, 2383, 2387, 2389, 2386, 2386, 2390, 2396, 2407, 2401, 2396, 2380, 2373, 2366, 2364, 2362, 2362, 2362, 2362, 2366, 2372, 2375, 2369, 2365, 2362, 2358, 2357, 2356, 2357, 2357, 2358, 2363]}}, {"type": "Feature", "geometry": {"type": "LineString", "coordinates": [[-100.89872, 34.39884], [-100.89872, 34.398135], [-100.89872, 34.39743], [-100.898733, 34.396547], [-100.898747, 34.395663], [-100.89876, 34.39478], [-100.89876, 34.394045], [-100.89876, 34.39331], [-100.898165, 34.393315], [-100.89757, 34.39332], [-100.89758, 34.39379], [-100.897584, 34.394194], [-100.897587, 34.394437], [-100.897593, 34.395083], [-100.8976, 34.39573], [-100.896745, 34.395735], [-100.89589, 34.39574], [-100.895035, 34.395745], [-100.89418, 34.39575], [-100.893167, 34.39577], [-100.892153, 34.39579], [-100.89114, 34.39581], [-100.890555, 34.395815], [-100.88997, 34.39582], [-100.889177, 34.395813], [-100.888383, 34.395807], [-100.88759, 34.3958], [-100.886725, 34.39579], [-100.88586, 34.39578], [-100.88504, 34.39578], [-100.88422, 34.39578], [-100.8834, 34.39578]]}, "properties": {"surface": "unknown", "label": "Unverified", "color": "#9A9389", "miles": 1.43, "start_mi": 47.94, "end_mi": 49.37, "road": "Childress Avenue", "elev_ft": [2364, 2356, 2355, 2345, 2343, 2341, 2338, 2336, 2333, 2336, 2338, 2339, 2341, 2341, 2342, 2345, 2353, 2356, 2361, 2361, 2360, 2361, 2362, 2365, 2368, 2372, 2378, 2378, 2380, 2381, 2385, 2393]}}, {"type": "Feature", "geometry": {"type": "LineString", "coordinates": [[-100.8834, 34.39505], [-100.8834, 34.39432], [-100.883385, 34.393585], [-100.88337, 34.39285], [-100.88338, 34.39202], [-100.88339, 34.39119], [-100.8834, 34.39036], [-100.883399, 34.389539], [-100.883398, 34.388718], [-100.883397, 34.387897], [-100.883396, 34.387076], [-100.883395, 34.386255], [-100.883395, 34.385435], [-100.883394, 34.384614], [-100.883393, 34.383793], [-100.883392, 34.382972], [-100.883391, 34.382151], [-100.88339, 34.38133], [-100.883385, 34.380875], [-100.88338, 34.38042], [-100.883383, 34.379703], [-100.883387, 34.378987], [-100.88339, 34.37827], [-100.883384, 34.377455], [-100.883377, 34.37664], [-100.883371, 34.375825], [-100.883365, 34.37501], [-100.883359, 34.374195], [-100.883352, 34.37338], [-100.883346, 34.372565], [-100.88334, 34.37175], [-100.883325, 34.37123], [-100.88331, 34.37071], [-100.88331, 34.369826], [-100.88331, 34.368941], [-100.88331, 34.368057], [-100.88331, 34.367173], [-100.88331, 34.366289], [-100.88331, 34.365404], [-100.88331, 34.36452], [-100.883295, 34.363795], [-100.88328, 34.36307], [-100.883265, 34.362345], [-100.88325, 34.36162], [-100.88325, 34.360993], [-100.88325, 34.360367], [-100.88325, 34.35974], [-100.88321, 34.35964], [-100.88316, 34.35957], [-100.88307, 34.35948], [-100.88298, 34.35944], [-100.88284, 34.3594], [-100.88223, 34.35939], [-100.881227, 34.359397], [-100.880223, 34.359403], [-100.87922, 34.35941], [-100.87904, 34.3594], [-100.87892, 34.35937], [-100.8788, 34.35928], [-100.87872, 34.35917], [-100.87869, 34.35901], [-100.878687, 34.358313], [-100.878685, 34.357615], [-100.878682, 34.356918], [-100.87868, 34.35622], [-100.8787, 34.355525], [-100.87872, 34.35483], [-100.87872, 34.353967], [-100.87872, 34.353103], [-100.87872, 34.35224], [-100.8787, 34.35216], [-100.87855, 34.35213], [-100.87834, 34.35214], [-100.87824, 34.35215], [-100.877232, 34.352148], [-100.876223, 34.352147], [-100.875215, 34.352145], [-100.874207, 34.352143], [-100.873198, 34.352142], [-100.87219, 34.35214], [-100.871162, 34.352148], [-100.870134, 34.352156], [-100.869106, 34.352164], [-100.868078, 34.352172], [-100.86705, 34.35218], [-100.86641, 34.352205], [-100.86577, 34.35223]]}, "properties": {"surface": "caliche", "label": "Caliche / gravel", "color": "#C98A24", "miles": 3.94, "start_mi": 49.37, "end_mi": 53.31, "road": "Road 4", "elev_ft": [2388, 2385, 2385, 2384, 2387, 2386, 2380, 2372, 2365, 2356, 2350, 2344, 2336, 2329, 2324, 2322, 2321, 2322, 2325, 2327, 2333, 2327, 2316, 2316, 2313, 2309, 2303, 2295, 2291, 2291, 2295, 2295, 2294, 2296, 2302, 2306, 2303, 2311, 2311, 2302, 2308, 2317, 2321, 2324, 2323, 2322, 2321, 2322, 2322, 2322, 2322, 2323, 2325, 2324, 2314, 2309, 2308, 2305, 2304, 2303, 2302, 2297, 2292, 2284, 2283, 2284, 2293, 2290, 2285, 2284, 2285, 2285, 2284, 2283, 2284, 2287, 2289, 2286, 2287, 2286, 2287, 2288, 2295, 2300, 2300, 2301, 2302]}}, {"type": "Feature", "geometry": {"type": "LineString", "coordinates": [[-100.86556, 34.35181], [-100.86534, 34.3516], [-100.86507, 34.35139], [-100.86485, 34.35125], [-100.86467, 34.35117], [-100.86439, 34.35111], [-100.8637, 34.3511], [-100.862615, 34.351105], [-100.86153, 34.35111], [-100.860445, 34.351115], [-100.85936, 34.35112], [-100.858275, 34.351125], [-100.85719, 34.35113], [-100.8562, 34.35125], [-100.85521, 34.35137], [-100.854655, 34.351415], [-100.8541, 34.35146], [-100.85314, 34.351473], [-100.85218, 34.351487], [-100.85122, 34.3515], [-100.85026, 34.351513], [-100.8493, 34.351527], [-100.84834, 34.35154], [-100.847354, 34.351548], [-100.846368, 34.351556], [-100.845382, 34.351564], [-100.844396, 34.351572], [-100.84341, 34.35158], [-100.84245, 34.35157], [-100.84149, 34.35156], [-100.84125, 34.35153], [-100.84098, 34.35145], [-100.84069, 34.35131], [-100.84058, 34.35123], [-100.84033, 34.35104], [-100.84004, 34.35066], [-100.83995, 34.35043], [-100.83988, 34.35013], [-100.83986, 34.34933], [-100.83984, 34.34853], [-100.83982, 34.34773], [-100.83974, 34.34738], [-100.83967, 34.3472], [-100.83942, 34.34686], [-100.8392, 34.34666], [-100.83907, 34.34658], [-100.83861, 34.34636], [-100.83839, 34.3463], [-100.83798, 34.34627], [-100.837225, 34.346285], [-100.83647, 34.3463], [-100.835412, 34.346336], [-100.834354, 34.346372], [-100.833296, 34.346408], [-100.832238, 34.346444], [-100.83118, 34.34648], [-100.830276, 34.346508], [-100.829372, 34.346536], [-100.828468, 34.346564], [-100.827564, 34.346592], [-100.82666, 34.34662], [-100.825765, 34.34663], [-100.82487, 34.34664], [-100.82448, 34.34667], [-100.82388, 34.34682], [-100.8237, 34.3469], [-100.82335, 34.34711], [-100.82312, 34.34733], [-100.82295, 34.34752], [-100.822675, 34.34797], [-100.8224, 34.34842], [-100.82219, 34.34867], [-100.82211, 34.34876], [-100.82188, 34.34894], [-100.8216, 34.34909], [-100.82133, 34.3492], [-100.82084, 34.34928], [-100.819782, 34.34929], [-100.818724, 34.3493], [-100.817666, 34.34931], [-100.816608, 34.34932], [-100.81555, 34.34933], [-100.8153, 34.34931], [-100.81515, 34.34928], [-100.81497, 34.34921], [-100.81463, 34.34905], [-100.81432, 34.34881], [-100.814, 34.3484], [-100.81394, 34.34825], [-100.8139, 34.34818], [-100.81385, 34.34789], [-100.813832, 34.34702], [-100.813814, 34.34615], [-100.813796, 34.34528], [-100.813778, 34.34441], [-100.81376, 34.34354], [-100.81373, 34.34329], [-100.81364, 34.343], [-100.81354, 34.34282], [-100.81331, 34.34251], [-100.81314, 34.34236], [-100.81291, 34.34221], [-100.81226, 34.34201], [-100.81202, 34.34197], [-100.811065, 34.341975], [-100.81011, 34.34198], [-100.809283, 34.341997], [-100.808457, 34.342013], [-100.80763, 34.34203], [-100.80668, 34.34199], [-100.80647, 34.34194], [-100.80626, 34.34186], [-100.80603, 34.34174], [-100.8057, 34.34147], [-100.8055, 34.34127], [-100.80535, 34.34101], [-100.8053, 34.34083], [-100.80523, 34.34037], [-100.805213, 34.33952], [-100.805197, 34.33867], [-100.80518, 34.33782], [-100.805163, 34.33697], [-100.805147, 34.33612], [-100.80513, 34.33527], [-100.805113, 34.33442], [-100.805097, 34.33357], [-100.80508, 34.33272], [-100.805063, 34.33187], [-100.805047, 34.33102], [-100.80503, 34.33017], [-100.805013, 34.32932], [-100.804997, 34.32847], [-100.80498, 34.32762], [-100.80499, 34.32682], [-100.804965, 34.326135], [-100.80494, 34.32545], [-100.8049, 34.32518], [-100.80481, 34.32491], [-100.80464, 34.32458], [-100.80449, 34.32438], [-100.804, 34.32397], [-100.80391, 34.3239], [-100.80357, 34.32375], [-100.80325, 34.32363], [-100.8029, 34.32356], [-100.801975, 34.32356], [-100.80105, 34.32356], [-100.800187, 34.323577], [-100.799323, 34.323593], [-100.79846, 34.32361], [-100.797413, 34.32362], [-100.796367, 34.32363], [-100.79532, 34.32364], [-100.7944, 34.32368], [-100.79348, 34.32372], [-100.79268, 34.32368], [-100.79213, 34.32362], [-100.7916, 34.32352], [-100.7912, 34.32342], [-100.790323, 34.323163], [-100.789447, 34.322907], [-100.78857, 34.32265], [-100.78765, 34.322365], [-100.78673, 34.32208], [-100.78603, 34.321883], [-100.78533, 34.321687], [-100.78463, 34.32149], [-100.78423, 34.32141], [-100.78369, 34.32134], [-100.78329, 34.32132], [-100.782363, 34.321328], [-100.781435, 34.321335], [-100.780508, 34.321343], [-100.77958, 34.32135], [-100.77934, 34.32134], [-100.77902, 34.32129], [-100.77821, 34.32108], [-100.77781, 34.32094], [-100.77727, 34.32069], [-100.7767, 34.3204], [-100.77647, 34.32023], [-100.77614, 34.31994], [-100.77563, 34.319485], [-100.77512, 34.31903], [-100.77474, 34.31874], [-100.77436, 34.31848], [-100.7741, 34.31833], [-100.77356, 34.31808], [-100.77275, 34.31782], [-100.77181, 34.31767], [-100.77145, 34.31764], [-100.77042, 34.317645], [-100.76939, 34.31765], [-100.76854, 34.317667], [-100.76769, 34.317683], [-100.76684, 34.3177], [-100.765903, 34.317716], [-100.764966, 34.317731], [-100.764029, 34.317747], [-100.763091, 34.317763], [-100.762154, 34.317779], [-100.761217, 34.317794], [-100.76028, 34.31781], [-100.759348, 34.317833], [-100.758415, 34.317855], [-100.757483, 34.317878], [-100.75655, 34.3179], [-100.75566, 34.31789], [-100.75468, 34.31784], [-100.75381, 34.31774], [-100.75292, 34.31761], [-100.751953, 34.31743], [-100.750987, 34.31725], [-100.75002, 34.31707], [-100.749024, 34.316864], [-100.748028, 34.316658], [-100.747032, 34.316452], [-100.746036, 34.316246], [-100.74504, 34.31604], [-100.74423, 34.31583], [-100.74375, 34.31569], [-100.74352, 34.3156], [-100.74289, 34.31533], [-100.74219, 34.315003], [-100.74149, 34.314677], [-100.74079, 34.31435], [-100.74004, 34.3141], [-100.73971, 34.31403], [-100.73874, 34.31391], [-100.73779, 34.3139], [-100.736804, 34.31398], [-100.735819, 34.31406], [-100.734833, 34.31414], [-100.733848, 34.31422], [-100.732862, 34.3143], [-100.731877, 34.31438], [-100.730891, 34.31446], [-100.729906, 34.31454], [-100.72892, 34.31462], [-100.72834, 34.31468], [-100.72776, 34.31474], [-100.72675, 34.31481], [-100.72574, 34.31488], [-100.72504, 34.31487], [-100.72441, 34.31483], [-100.72391, 34.31476], [-100.72335, 34.314615], [-100.72279, 34.31447], [-100.72225, 34.31426], [-100.72167, 34.31398], [-100.72086, 34.31341], [-100.7205, 34.3131], [-100.72006, 34.312675], [-100.71962, 34.31225], [-100.71898, 34.31171], [-100.71824, 34.31128], [-100.71764, 34.31098], [-100.71667, 34.31068], [-100.71619, 34.31057], [-100.71576, 34.31052], [-100.71528, 34.31048], [-100.714194, 34.310436], [-100.713108, 34.310392], [-100.712022, 34.310348], [-100.710936, 34.310304], [-100.70985, 34.31026], [-100.709205, 34.31026], [-100.70856, 34.31026], [-100.707573, 34.310223], [-100.706587, 34.310187], [-100.7056, 34.31015], [-100.704747, 34.310125], [-100.703895, 34.3101], [-100.703042, 34.310075], [-100.70219, 34.31005], [-100.70125, 34.31], [-100.70063, 34.30994], [-100.69979, 34.30981], [-100.6992, 34.30966], [-100.69843, 34.30943], [-100.69778, 34.30918]]}, "properties": {"surface": "pavement", "label": "Pavement", "color": "#4A5568", "miles": 11.78, "start_mi": 53.31, "end_mi": 65.09, "road": "FM 656", "elev_ft": [2297, 2295, 2293, 2294, 2294, 2297, 2297, 2297, 2297, 2291, 2291, 2291, 2291, 2291, 2288, 2288, 2288, 2288, 2288, 2267, 2267, 2267, 2267, 2267, 2267, 2267, 2260, 2260, 2260, 2260, 2260, 2260, 2260, 2260, 2257, 2257, 2257, 2257, 2257, 2247, 2247, 2247, 2247, 2247, 2247, 2247, 2247, 2247, 2247, 2247, 2247, 2251, 2251, 2251, 2251, 2251, 2251, 2251, 2251, 2251, 2242, 2242, 2242, 2242, 2242, 2242, 2242, 2242, 2242, 2242, 2242, 2242, 2242, 2242, 2242, 2242, 2242, 2242, 2242, 2244, 2244, 2244, 2244, 2244, 2244, 2244, 2244, 2244, 2244, 2244, 2244, 2244, 2244, 2241, 2241, 2241, 2241, 2241, 2241, 2241, 2241, 2241, 2241, 2241, 2241, 2237, 2237, 2237, 2237, 2237, 2237, 2237, 2237, 2235, 2235, 2235, 2235, 2235, 2235, 2227, 2227, 2227, 2227, 2227, 2227, 2227, 2227, 2216, 2216, 2216, 2216, 2216, 2216, 2216, 2216, 2202, 2202, 2202, 2202, 2202, 2200, 2200, 2200, 2200, 2200, 2200, 2184, 2184, 2184, 2184, 2184, 2184, 2184, 2173, 2173, 2173, 2173, 2173, 2173, 2173, 2173, 2163, 2163, 2163, 2163, 2171, 2171, 2171, 2171, 2171, 2171, 2171, 2171, 2171, 2171, 2171, 2171, 2171, 2148, 2148, 2148, 2148, 2148, 2148, 2148, 2148, 2148, 2148, 2148, 2160, 2160, 2160, 2160, 2160, 2160, 2160, 2162, 2162, 2162, 2162, 2173, 2173, 2173, 2172, 2172, 2172, 2172, 2172, 2172, 2140, 2140, 2140, 2140, 2140, 2140, 2140, 2140, 2140, 2140, 2140, 2161, 2161, 2161, 2161, 2161, 2161, 2161, 2161, 2161, 2161, 2161, 2161, 2191, 2191, 2191, 2191, 2191, 2191, 2191, 2191, 2191, 2180, 2180, 2180, 2180, 2180, 2180, 2180, 2180, 2180, 2150, 2150, 2150, 2150, 2150, 2150, 2150, 2141, 2141, 2141, 2141, 2141, 2141, 2177, 2177, 2177, 2177, 2177, 2195, 2195, 2195, 2195, 2195, 2195, 2195, 2146, 2146, 2146, 2146, 2146, 2146]}}, {"type": "Feature", "geometry": {"type": "LineString", "coordinates": [[-100.69729, 34.30895], [-100.69717, 34.30903], [-100.69717, 34.30902], [-100.69666, 34.30947], [-100.69615, 34.30992], [-100.69615, 34.30992], [-100.69561, 34.31063], [-100.69534, 34.31125], [-100.69485, 34.311813], [-100.69436, 34.312377], [-100.69387, 34.31294], [-100.69358, 34.313455], [-100.69329, 34.31397], [-100.69315, 34.31429], [-100.69288, 34.3147], [-100.69244, 34.31552], [-100.692, 34.31634], [-100.69179, 34.316765], [-100.69158, 34.31719], [-100.69146, 34.31764], [-100.69145, 34.31785], [-100.69154, 34.31863], [-100.69161, 34.31912], [-100.69168, 34.31961], [-100.69168, 34.31983], [-100.69145, 34.32036], [-100.691197, 34.321033], [-100.690943, 34.321707], [-100.69069, 34.32238], [-100.690325, 34.32316], [-100.68996, 34.32394], [-100.68974, 34.32436], [-100.68952, 34.32478], [-100.68934, 34.32517], [-100.68891, 34.32595], [-100.68878, 34.32606], [-100.6885, 34.3262], [-100.68767, 34.32649]]}, "properties": {"surface": "unknown", "label": "Unverified", "color": "#9A9389", "miles": 1.38, "start_mi": 65.09, "end_mi": 66.47, "road": "County Road 15", "elev_ft": [2146, 2146, 2146, 2146, 2150, 2146, 2146, 2144, 2144, 2144, 2144, 2144, 2144, 2144, 2108, 2108, 2108, 2108, 2108, 2108, 2108, 2108, 2108, 2108, 2036, 2036, 2036, 2036, 2036, 2036, 2036, 2036, 2036, 2036, 2060, 2060, 2060, 2060]}}, {"type": "Feature", "geometry": {"type": "LineString", "coordinates": [[-100.68792, 34.32704], [-100.68828, 34.32778], [-100.68864, 34.32852], [-100.68873, 34.32861], [-100.68886, 34.32868], [-100.68931, 34.3289], [-100.68961, 34.32901], [-100.68975, 34.32914], [-100.68981, 34.32934], [-100.69006, 34.32986], [-100.69015, 34.33013], [-100.69019, 34.33058], [-100.69017, 34.33104], [-100.69015, 34.3315], [-100.69019, 34.33175], [-100.69028, 34.33194], [-100.69043, 34.33216], [-100.69064, 34.33236], [-100.6907, 34.33253], [-100.6907, 34.33259], [-100.69051, 34.33268], [-100.69028, 34.3327], [-100.6902, 34.3328], [-100.69015, 34.33307], [-100.69003, 34.33345], [-100.68993, 34.33361], [-100.68976, 34.33379], [-100.6897, 34.33393], [-100.68963, 34.33446], [-100.68953, 34.33475], [-100.68939, 34.33501], [-100.68928, 34.33538], [-100.68921, 34.33543], [-100.68918, 34.3355], [-100.68913, 34.336], [-100.68908, 34.3365], [-100.68908, 34.33667], [-100.68912, 34.33689], [-100.68918, 34.33709], [-100.68917, 34.33724], [-100.68913, 34.33734], [-100.68904, 34.33751], [-100.68881, 34.33774], [-100.68836, 34.33827], [-100.68822, 34.3384], [-100.68782, 34.33872], [-100.68773, 34.33883], [-100.68769, 34.33891], [-100.68764, 34.33946], [-100.68751, 34.33991], [-100.68751, 34.33997], [-100.68765, 34.34046], [-100.68764, 34.34082], [-100.68755, 34.34139], [-100.68738, 34.3417], [-100.68733, 34.34188], [-100.68734, 34.34193], [-100.68742, 34.34204], [-100.68766, 34.34213], [-100.68778, 34.34215], [-100.68833, 34.34216], [-100.68854, 34.3422], [-100.68872, 34.34231], [-100.68887, 34.34245], [-100.68899, 34.34259], [-100.68953, 34.34307], [-100.68961, 34.34335], [-100.68962, 34.34345], [-100.68961, 34.34372], [-100.68932, 34.34431], [-100.68926, 34.3448], [-100.68934, 34.3452], [-100.68952, 34.3455], [-100.68949, 34.34565], [-100.68943, 34.34581], [-100.68891, 34.34639], [-100.68872, 34.34692], [-100.68867, 34.34713], [-100.688435, 34.347635], [-100.6882, 34.34814], [-100.68818, 34.34826], [-100.68818, 34.34892], [-100.68779, 34.34947], [-100.6876, 34.34989], [-100.68746, 34.35025], [-100.687125, 34.350825], [-100.68679, 34.3514], [-100.686565, 34.351845], [-100.68634, 34.35229], [-100.68631, 34.35252], [-100.68626, 34.35267], [-100.68617, 34.35312], [-100.68595, 34.35351], [-100.68569, 34.35391], [-100.68558, 34.35405], [-100.68536, 34.35443], [-100.6852, 34.35455], [-100.68482, 34.35535], [-100.68473, 34.35567], [-100.68459, 34.35587], [-100.68446, 34.35612], [-100.68438, 34.35621], [-100.68433, 34.35632], [-100.68429, 34.35653], [-100.68429, 34.35672], [-100.68435, 34.35686], [-100.68452, 34.35717], [-100.68478, 34.35749], [-100.68491, 34.3577], [-100.68492, 34.35789], [-100.68487, 34.35808], [-100.68482, 34.35817], [-100.68466, 34.35826], [-100.68442, 34.35852], [-100.68416, 34.35862], [-100.68406, 34.35866], [-100.68393, 34.35865], [-100.68366, 34.3587], [-100.68352, 34.3587], [-100.68341, 34.35866], [-100.68323, 34.35867], [-100.68313, 34.35871], [-100.68312, 34.35894], [-100.68303, 34.3591], [-100.6829, 34.35954], [-100.68281, 34.3601], [-100.68258, 34.36061], [-100.68239, 34.36127], [-100.68236, 34.36152], [-100.68227, 34.36176], [-100.68215, 34.36188], [-100.68179, 34.36218], [-100.68164, 34.36249], [-100.6816, 34.36282], [-100.68164, 34.36329], [-100.6816, 34.36346], [-100.68121, 34.36397], [-100.68091, 34.36444], [-100.68061, 34.36491], [-100.68039, 34.36542], [-100.68035, 34.36557], [-100.68035, 34.36572], [-100.68041, 34.36593], [-100.68053, 34.36617], [-100.6809, 34.36626], [-100.68143, 34.36622], [-100.68218, 34.36621], [-100.68247, 34.36623], [-100.68264, 34.3663], [-100.68276, 34.36638], [-100.6829, 34.36654], [-100.68299, 34.36671], [-100.68296, 34.36718], [-100.68291, 34.36748], [-100.68276, 34.36769], [-100.68258, 34.36782], [-100.68236, 34.36805], [-100.68209, 34.36841], [-100.682, 34.36851], [-100.68191, 34.36867], [-100.68187, 34.36879], [-100.68188, 34.36894], [-100.682165, 34.36968], [-100.68245, 34.37042], [-100.68246, 34.3705], [-100.68244, 34.37071], [-100.68242, 34.37084], [-100.68215, 34.371325], [-100.68188, 34.37181], [-100.68178, 34.37209], [-100.68164, 34.37227], [-100.68153, 34.37251], [-100.68151, 34.37275], [-100.68155, 34.37291], [-100.68166, 34.37312], [-100.68201, 34.37354], [-100.68211, 34.37373], [-100.68218, 34.37403], [-100.682145, 34.374615], [-100.68211, 34.3752], [-100.68214, 34.3753], [-100.68205, 34.37563], [-100.68196, 34.37582], [-100.68151, 34.37628], [-100.68143, 34.37643], [-100.68142, 34.37653], [-100.68147, 34.37679], [-100.68152, 34.37689], [-100.681815, 34.377345], [-100.68211, 34.3778], [-100.68223, 34.37803], [-100.68227, 34.37817], [-100.68236, 34.37898], [-100.68246, 34.37936], [-100.68259, 34.37974], [-100.682705, 34.38061], [-100.68282, 34.38148], [-100.682935, 34.38235], [-100.68305, 34.38322], [-100.68321, 34.38369], [-100.68327, 34.38403], [-100.68336, 34.38432], [-100.68344, 34.38443], [-100.68354, 34.38452], [-100.68416, 34.38497], [-100.68455, 34.38519], [-100.68473, 34.38525], [-100.68482, 34.38526], [-100.685583, 34.385077], [-100.686347, 34.384893], [-100.68711, 34.38471], [-100.68787, 34.38455], [-100.68818, 34.38446], [-100.68836, 34.38442], [-100.68849, 34.38444], [-100.68858, 34.38463], [-100.6886, 34.38474], [-100.688635, 34.385345], [-100.68867, 34.38595], [-100.68872, 34.38628], [-100.688745, 34.386735], [-100.68877, 34.38719], [-100.68876, 34.3873], [-100.68869, 34.38755], [-100.688345, 34.38826], [-100.688, 34.38897], [-100.68789, 34.38905], [-100.68757, 34.3892], [-100.68746, 34.38929], [-100.68742, 34.3894], [-100.68742, 34.3895], [-100.68743, 34.38956], [-100.68751, 34.38962], [-100.68764, 34.38968], [-100.68782, 34.38982], [-100.68796, 34.38997], [-100.68827, 34.39034], [-100.68859, 34.39084], [-100.68884, 34.391305], [-100.68909, 34.39177], [-100.68939, 34.3921], [-100.68966, 34.392505], [-100.68993, 34.39291], [-100.69015, 34.39309], [-100.69042, 34.39326], [-100.69056, 34.39342], [-100.69061, 34.3935], [-100.69069, 34.39371], [-100.6908, 34.394275], [-100.69091, 34.39484], [-100.69097, 34.39504], [-100.69132, 34.39569], [-100.691675, 34.39618], [-100.69203, 34.39667], [-100.69214, 34.39691], [-100.69231, 34.39744], [-100.69248, 34.39797], [-100.69261, 34.39824], [-100.69267, 34.39835], [-100.69276, 34.39843], [-100.69284, 34.39847], [-100.69351, 34.39859], [-100.69378, 34.39866], [-100.69402, 34.39877], [-100.69449, 34.39902], [-100.69478, 34.39923], [-100.69499, 34.39943], [-100.695415, 34.399725], [-100.69584, 34.40002], [-100.69638, 34.40047], [-100.69678, 34.40077], [-100.69718, 34.40109], [-100.69745, 34.40145], [-100.697875, 34.40225], [-100.6983, 34.40305], [-100.698545, 34.40364], [-100.69879, 34.40423], [-100.69906, 34.40501], [-100.699195, 34.405545], [-100.69933, 34.40608], [-100.69951, 34.4067], [-100.69969, 34.40719], [-100.69987, 34.40768], [-100.70021, 34.40838], [-100.70032, 34.40856], [-100.70064, 34.40891], [-100.70112, 34.40932], [-100.70117, 34.40944], [-100.70126, 34.4099], [-100.70161, 34.41047], [-100.70196, 34.41124], [-100.70206, 34.41132], [-100.70251, 34.41151], [-100.703075, 34.411775], [-100.70364, 34.41204], [-100.70425, 34.41238], [-100.70467, 34.41268], [-100.70483, 34.41284], [-100.70492, 34.41301], [-100.70512, 34.41386], [-100.70529, 34.41417], [-100.70542, 34.41426], [-100.70592, 34.41453], [-100.70658, 34.41503], [-100.70683, 34.4151], [-100.707445, 34.4152], [-100.70806, 34.4153], [-100.70824, 34.41529], [-100.7087, 34.41522], [-100.70913, 34.41518], [-100.70931, 34.41519], [-100.70999, 34.41542], [-100.71066, 34.41561], [-100.71133, 34.4158], [-100.71157, 34.41584], [-100.71174, 34.41584], [-100.71192, 34.41588], [-100.71281, 34.41624], [-100.713649, 34.416624], [-100.714487, 34.417008], [-100.715326, 34.417391], [-100.716165, 34.417775], [-100.717004, 34.418159], [-100.717842, 34.418543], [-100.718681, 34.418926], [-100.71952, 34.41931], [-100.7203, 34.41972], [-100.72104, 34.42017], [-100.721465, 34.42049], [-100.72189, 34.42081], [-100.72225, 34.42114], [-100.72265, 34.42168], [-100.72288, 34.42205], [-100.72306, 34.42245], [-100.72333, 34.42292], [-100.72346, 34.42309], [-100.72379, 34.4234], [-100.72422, 34.42369], [-100.7244, 34.4238], [-100.72472, 34.42391], [-100.72489, 34.42395], [-100.72512, 34.42393], [-100.72521, 34.42389], [-100.7253, 34.42379], [-100.72531, 34.42371], [-100.7253, 34.42305], [-100.72539, 34.42292], [-100.72561, 34.42284], [-100.72575, 34.42281], [-100.72594, 34.4228], [-100.72641, 34.42257], [-100.7266, 34.42257], [-100.72682, 34.42265], [-100.72755, 34.42301], [-100.72837, 34.42336], [-100.72919, 34.42371], [-100.72941, 34.42383], [-100.72951, 34.42395], [-100.72959, 34.4241], [-100.72964, 34.4243], [-100.72995, 34.42478], [-100.73022, 34.42509], [-100.73035, 34.4252], [-100.73044, 34.42526], [-100.73059, 34.42532], [-100.731145, 34.42546], [-100.7317, 34.4256], [-100.73193, 34.42569], [-100.73261, 34.42609], [-100.73316, 34.42644], [-100.73344, 34.42661], [-100.73403, 34.42687], [-100.73462, 34.42726], [-100.73522, 34.427685], [-100.73582, 34.42811], [-100.73596, 34.42828], [-100.73628, 34.42879], [-100.73636, 34.42895], [-100.73645, 34.42927], [-100.73658, 34.43], [-100.73667, 34.43021], [-100.73681, 34.43066], [-100.73695, 34.43076], [-100.73752, 34.431], [-100.73831, 34.431295], [-100.7391, 34.43159], [-100.74001, 34.431945], [-100.74092, 34.4323], [-100.741955, 34.43256], [-100.74299, 34.43282], [-100.74397, 34.43309], [-100.7445, 34.43315], [-100.7454, 34.43311], [-100.746055, 34.433285], [-100.74671, 34.43346], [-100.74737, 34.43361], [-100.74768, 34.43371], [-100.74781, 34.43378], [-100.74795, 34.43389], [-100.74833, 34.434385], [-100.74871, 34.43488], [-100.74898, 34.43548], [-100.74916, 34.436103], [-100.74934, 34.436727], [-100.74952, 34.43735], [-100.7497, 34.43814], [-100.74985, 34.43898], [-100.74993, 34.4396], [-100.75001, 34.44022], [-100.7501, 34.44078], [-100.75014, 34.44153], [-100.75001, 34.44212], [-100.74993, 34.442885], [-100.74985, 34.44365], [-100.74984, 34.44395], [-100.749862, 34.44465], [-100.749885, 34.44535], [-100.749907, 34.44605], [-100.74993, 34.44675], [-100.74999, 34.44761], [-100.75007, 34.44849], [-100.7502, 34.449193], [-100.75033, 34.449897], [-100.75046, 34.4506], [-100.75047, 34.451], [-100.75059, 34.45134], [-100.75064, 34.45143], [-100.75073, 34.45154], [-100.75086, 34.45164], [-100.751627, 34.45216], [-100.752393, 34.45268], [-100.75316, 34.4532], [-100.753575, 34.453515], [-100.75399, 34.45383], [-100.75408, 34.45398], [-100.75426, 34.45432], [-100.75444, 34.45486], [-100.75471, 34.45553], [-100.75498, 34.4562], [-100.755405, 34.456975], [-100.75583, 34.45775], [-100.75605, 34.458], [-100.75659, 34.45847], [-100.75695, 34.45873], [-100.75722, 34.45889], [-100.75759, 34.45908], [-100.75838, 34.45931], [-100.75883, 34.45948], [-100.75934, 34.45964], [-100.76026, 34.46002], [-100.76109, 34.460435], [-100.76192, 34.46085], [-100.762375, 34.461105], [-100.76283, 34.46136], [-100.76321, 34.46163], [-100.76337, 34.46186], [-100.7634, 34.46194], [-100.76342, 34.46242], [-100.76344, 34.4629], [-100.76342, 34.46359], [-100.7634, 34.46428], [-100.763427, 34.465023], [-100.763453, 34.465767], [-100.76348, 34.46651], [-100.76353, 34.46711], [-100.76354, 34.46798], [-100.76349, 34.46831], [-100.76331, 34.46854], [-100.76331, 34.46861], [-100.76332, 34.46873], [-100.76337, 34.46878], [-100.76362, 34.46883], [-100.764694, 34.468811], [-100.765769, 34.468793], [-100.766843, 34.468774], [-100.767917, 34.468756], [-100.768991, 34.468737], [-100.770066, 34.468719], [-100.77114, 34.4687], [-100.77163, 34.46873], [-100.77201, 34.46882], [-100.7721, 34.46887], [-100.77213, 34.46894], [-100.77217, 34.46913], [-100.77216, 34.469753], [-100.77215, 34.470377], [-100.77214, 34.471], [-100.77215, 34.471627], [-100.77216, 34.472253], [-100.77217, 34.47288], [-100.77221, 34.47296], [-100.77227, 34.47302], [-100.77235, 34.47305], [-100.77257, 34.47303], [-100.77318, 34.472835], [-100.77379, 34.47264], [-100.77425, 34.47251], [-100.77459, 34.47246], [-100.77481, 34.47247], [-100.77581, 34.47266], [-100.77656, 34.47269], [-100.777465, 34.472755], [-100.77837, 34.47282], [-100.77885, 34.47288], [-100.77857, 34.47374], [-100.77855, 34.474407], [-100.77853, 34.475073]]}, "properties": {"surface": "caliche", "label": "Caliche / gravel", "color": "#C98A24", "miles": 14.5, "start_mi": 66.47, "end_mi": 80.97, "road": "County Road 15", "elev_ft": [2052, 2052, 2052, 2052, 2052, 2052, 2052, 2052, 2052, 2052, 2052, 2052, 1984, 1984, 1984, 1984, 1984, 1984, 1984, 1984, 1984, 1984, 1984, 1984, 1984, 1984, 1984, 1984, 1984, 1984, 1984, 1977, 1975, 1974, 1965, 1962, 1962, 1963, 1964, 1965, 1965, 1965, 1963, 1959, 1956, 1948, 1948, 1946, 1941, 1938, 1938, 1929, 1924, 1912, 1908, 1907, 1907, 1906, 1904, 1902, 1897, 1896, 1896, 1897, 1898, 1903, 1903, 1903, 1903, 1903, 1903, 1903, 1903, 1903, 1903, 1903, 2024, 2024, 2024, 2024, 2024, 2024, 2024, 2024, 2024, 2024, 2027, 2032, 2035, 2039, 2044, 2052, 2059, 2057, 2057, 2062, 2062, 2056, 2051, 2043, 2040, 2036, 2035, 2032, 2031, 2031, 2031, 2028, 2027, 2025, 2024, 2024, 2025, 2029, 2032, 2035, 2037, 2043, 2044, 2044, 2044, 2044, 2044, 2042, 2036, 2031, 2029, 2029, 2028, 2027, 2025, 2018, 2014, 2007, 2002, 1998, 1978, 1970, 1951, 1933, 1930, 1927, 1922, 1918, 1917, 1914, 1915, 1916, 1916, 1916, 1916, 1918, 1920, 1919, 1917, 1917, 1921, 1927, 1933, 1936, 1938, 1940, 1949, 1971, 1971, 1974, 1975, 1974, 1985, 1995, 2007, 2024, 2033, 2037, 2040, 2040, 2041, 2042, 2042, 2035, 2034, 2031, 2031, 2037, 2038, 2038, 2040, 2041, 2045, 2047, 2045, 2044, 2043, 2044, 2044, 2042, 2052, 2057, 2065, 2065, 2066, 2066, 2066, 2064, 2072, 2083, 2084, 2083, 2078, 2083, 2077, 2072, 2072, 2073, 2073, 2072, 2072, 2070, 2068, 2071, 2086, 2095, 2095, 2096, 2094, 2095, 2096, 2098, 2101, 2102, 2103, 2103, 2104, 2104, 2104, 2104, 2103, 2101, 2101, 2105, 2107, 2111, 2115, 2117, 2121, 2122, 2122, 2123, 2135, 2137, 2136, 2136, 2137, 2135, 2135, 2137, 2146, 2156, 2161, 2165, 2166, 2164, 2161, 2159, 2161, 2162, 2166, 2172, 2173, 2175, 2176, 2177, 2175, 2173, 2173, 2175, 2176, 2179, 2183, 2190, 2191, 2191, 2193, 2192, 2192, 2192, 2197, 2197, 2202, 2204, 2209, 2211, 2210, 2206, 2200, 2196, 2196, 2196, 2196, 2198, 2198, 2198, 2193, 2190, 2187, 2177, 2165, 2162, 2159, 2159, 2159, 2167, 2174, 2178, 2182, 2183, 2184, 2196, 2204, 2208, 2207, 2209, 2213, 2215, 2222, 2216, 2212, 2211, 2210, 2209, 2208, 2207, 2207, 2209, 2211, 2213, 2215, 2220, 2221, 2222, 2223, 2223, 2222, 2221, 2218, 2210, 2209, 2208, 2208, 2208, 2214, 2216, 2218, 2232, 2240, 2240, 2239, 2239, 2239, 2237, 2238, 2243, 2247, 2250, 2252, 2254, 2255, 2254, 2256, 2258, 2257, 2249, 2244, 2243, 2242, 2242, 2241, 2241, 2242, 2247, 2249, 2256, 2256, 2255, 2257, 2262, 2277, 2270, 2268, 2260, 2254, 2255, 2264, 2273, 2283, 2281, 2279, 2275, 2274, 2267, 2264, 2264, 2267, 2270, 2274, 2281, 2281, 2282, 2282, 2280, 2279, 2279, 2276, 2276, 2276, 2280, 2278, 2273, 2272, 2268, 2264, 2262, 2263, 2264, 2267, 2271, 2271, 2271, 2269, 2268, 2272, 2278, 2281, 2283, 2283, 2284, 2285, 2287, 2285, 2277, 2267, 2260, 2253, 2254, 2255, 2260, 2274, 2280, 2285, 2297, 2300, 2294, 2294, 2300, 2307, 2308, 2308, 2306, 2308, 2309, 2311, 2303, 2291, 2280, 2271, 2270, 2273, 2279, 2279, 2280, 2282, 2283, 2282, 2288, 2294, 2289, 2285, 2291, 2296, 2301, 2311, 2311, 2314, 2315, 2310, 2304, 2302, 2299, 2294, 2289, 2289, 2289, 2289, 2288, 2289, 2290, 2289, 2285, 2284, 2279, 2279, 2281, 2294, 2298, 2301, 2301, 2301]}}, {"type": "Feature", "geometry": {"type": "LineString", "coordinates": [[-100.77851, 34.47574], [-100.77854, 34.476355], [-100.77857, 34.47697], [-100.778572, 34.477852], [-100.778574, 34.478734], [-100.778576, 34.479616], [-100.778578, 34.480498]]}, "properties": {"surface": "pavement", "label": "Pavement", "color": "#4A5568", "miles": 0.33, "start_mi": 80.97, "end_mi": 81.3, "road": "Farm-to-Market Road 657", "elev_ft": [2306, 2303, 2294, 2280, 2268, 2262, 2260]}}, {"type": "Feature", "geometry": {"type": "LineString", "coordinates": [[-100.77858, 34.48138], [-100.778922, 34.481306], [-100.779492, 34.481182], [-100.780404, 34.480984], [-100.781316, 34.480786], [-100.782228, 34.480588], [-100.78314, 34.48039], [-100.78387, 34.48029], [-100.78414, 34.48027], [-100.78515, 34.4803], [-100.786232, 34.480345], [-100.787313, 34.48039], [-100.788395, 34.480435], [-100.789477, 34.48048], [-100.790558, 34.480525], [-100.79164, 34.48057], [-100.792525, 34.480615], [-100.79341, 34.48066], [-100.793965, 34.480665], [-100.79452, 34.48067], [-100.79508, 34.48062], [-100.79564, 34.48057], [-100.79631, 34.48046], [-100.79701, 34.480265], [-100.79771, 34.48007], [-100.798657, 34.479743], [-100.799603, 34.479417], [-100.80055, 34.47909], [-100.80056, 34.47909], [-100.80147, 34.478767], [-100.80238, 34.478443], [-100.80329, 34.47812], [-100.8042, 34.477797], [-100.80511, 34.477473], [-100.80602, 34.47715], [-100.80687, 34.476865], [-100.80772, 34.47658], [-100.80857, 34.476295], [-100.80942, 34.47601], [-100.810351, 34.475685], [-100.811282, 34.475361], [-100.812212, 34.475036], [-100.813143, 34.474712], [-100.814074, 34.474387], [-100.815005, 34.474062], [-100.815936, 34.473738], [-100.816866, 34.473413], [-100.817797, 34.473089], [-100.818728, 34.472764], [-100.819659, 34.472439], [-100.820589, 34.472115], [-100.82152, 34.47179]]}, "properties": {"surface": "two_track", "label": "Ranch two-track", "color": "#6B5A45", "miles": 2.58, "start_mi": 81.3, "end_mi": 83.87, "road": "Caprock Canyons Trailway", "elev_ft": [2263, 2265, 2264, 2266, 2271, 2272, 2276, 2279, 2279, 2284, 2287, 2291, 2294, 2298, 2300, 2303, 2305, 2308, 2309, 2312, 2314, 2313, 2316, 2316, 2317, 2317, 2316, 2314, 2314, 2310, 2308, 2306, 2304, 2302, 2300, 2299, 2298, 2300, 2301, 2301, 2301, 2299, 2296, 2293, 2290, 2285, 2283, 2279, 2276, 2272, 2269, 2268]}}, {"type": "Feature", "geometry": {"type": "LineString", "coordinates": [[-100.82231, 34.47178], [-100.82254, 34.47175], [-100.82277, 34.47168], [-100.823465, 34.471425], [-100.82416, 34.47117], [-100.82416, 34.47116], [-100.824915, 34.470885], [-100.82567, 34.47061], [-100.82648, 34.47034], [-100.82729, 34.47007], [-100.828257, 34.469727], [-100.829223, 34.469383], [-100.83019, 34.46904], [-100.8302, 34.46904], [-100.83064, 34.46898], [-100.83088, 34.46897], [-100.831745, 34.46898], [-100.83261, 34.46899], [-100.833663, 34.468973], [-100.834715, 34.468955], [-100.835768, 34.468938], [-100.83682, 34.46892], [-100.837832, 34.468912], [-100.838844, 34.468904], [-100.839856, 34.468896], [-100.840868, 34.468888], [-100.84188, 34.46888], [-100.84206, 34.46882], [-100.84212, 34.46875], [-100.84212, 34.46874], [-100.84216, 34.4687], [-100.8422, 34.46853], [-100.842205, 34.46786], [-100.84221, 34.46719], [-100.843299, 34.467182], [-100.844388, 34.467175], [-100.845478, 34.467167], [-100.846567, 34.467159], [-100.847656, 34.467152], [-100.848745, 34.467144], [-100.849835, 34.467136], [-100.850924, 34.467129], [-100.852013, 34.467121], [-100.853102, 34.467113], [-100.854192, 34.467105], [-100.855281, 34.467098], [-100.85637, 34.46709], [-100.857313, 34.46708], [-100.858257, 34.46707], [-100.8592, 34.46706], [-100.85943, 34.46704], [-100.85952, 34.46701], [-100.85961, 34.46694], [-100.85966, 34.46684], [-100.8597, 34.46671], [-100.859688, 34.465928], [-100.859676, 34.465146], [-100.859664, 34.464364], [-100.859652, 34.463582], [-100.85964, 34.4628], [-100.859625, 34.462045], [-100.85961, 34.46129], [-100.859595, 34.460535], [-100.85958, 34.45978], [-100.859588, 34.459032], [-100.859595, 34.458285], [-100.859603, 34.457537], [-100.85961, 34.45679], [-100.8596, 34.456215]]}, "properties": {"surface": "caliche", "label": "Caliche / gravel", "color": "#C98A24", "miles": 3.02, "start_mi": 83.87, "end_mi": 86.89, "road": "County Road T", "elev_ft": [2268, 2268, 2268, 2270, 2270, 2270, 2270, 2271, 2270, 2266, 2265, 2256, 2247, 2247, 2245, 2246, 2249, 2254, 2263, 2269, 2268, 2266, 2260, 2255, 2253, 2252, 2253, 2253, 2253, 2253, 2253, 2251, 2247, 2249, 2246, 2245, 2246, 2247, 2252, 2255, 2259, 2258, 2258, 2260, 2266, 2269, 2279, 2285, 2286, 2288, 2288, 2288, 2287, 2287, 2287, 2281, 2278, 2275, 2275, 2274, 2274, 2275, 2276, 2275, 2268, 2267, 2268, 2273, 2277]}}, {"type": "Feature", "geometry": {"type": "LineString", "coordinates": [[-100.85959, 34.45564], [-100.860055, 34.454953], [-100.86052, 34.454265], [-100.860985, 34.453578], [-100.86145, 34.45289], [-100.86146, 34.45289], [-100.86196, 34.452156], [-100.86246, 34.451423], [-100.86296, 34.450689], [-100.86346, 34.449955], [-100.86396, 34.449221], [-100.86446, 34.448488], [-100.86496, 34.447754], [-100.86546, 34.44702], [-100.865944, 34.446314], [-100.866429, 34.445609], [-100.866913, 34.444903], [-100.867398, 34.444198], [-100.867882, 34.443492], [-100.868367, 34.442787], [-100.868851, 34.442081], [-100.869336, 34.441376], [-100.86982, 34.44067], [-100.870337, 34.439908], [-100.870855, 34.439146], [-100.871372, 34.438385], [-100.871889, 34.437623], [-100.872407, 34.436861], [-100.872924, 34.436099], [-100.873441, 34.435337], [-100.873958, 34.434575], [-100.874476, 34.433814], [-100.874993, 34.433052], [-100.87551, 34.43229], [-100.87572, 34.432], [-100.87609, 34.43157], [-100.87646, 34.43114], [-100.87693, 34.43064], [-100.87738, 34.4302], [-100.87807, 34.429606], [-100.87876, 34.429012], [-100.87945, 34.428418], [-100.88014, 34.427824], [-100.88083, 34.42723], [-100.881397, 34.426773], [-100.881963, 34.426317], [-100.88253, 34.42586], [-100.88304, 34.42541], [-100.88338, 34.42508], [-100.88383, 34.42449], [-100.88411, 34.4239], [-100.88428, 34.4233], [-100.884353, 34.422537], [-100.884427, 34.421773], [-100.8845, 34.42101], [-100.88459, 34.42056], [-100.88472, 34.42011], [-100.88481, 34.41992], [-100.88502, 34.41951], [-100.88535, 34.41903], [-100.88568, 34.41867], [-100.88602, 34.41837], [-100.88635, 34.41814], [-100.88725, 34.41773], [-100.88772, 34.41757], [-100.88875, 34.417305], [-100.88978, 34.41704], [-100.89068, 34.41679], [-100.891195, 34.416575], [-100.89171, 34.41636], [-100.8919, 34.41626], [-100.89243, 34.41591], [-100.89301, 34.41549], [-100.89328, 34.41521], [-100.89357, 34.414825], [-100.89386, 34.41444], [-100.89417, 34.41374], [-100.8943, 34.41326], [-100.8944, 34.4125], [-100.89441, 34.41222], [-100.8944, 34.411527], [-100.89439, 34.410833], [-100.89438, 34.41014], [-100.894365, 34.409585], [-100.89435, 34.40903], [-100.894355, 34.40827], [-100.89436, 34.40751], [-100.894335, 34.406815], [-100.89431, 34.40612], [-100.894307, 34.405323], [-100.894305, 34.404525], [-100.894302, 34.403728], [-100.8943, 34.40293], [-100.89428, 34.402275], [-100.89426, 34.40162], [-100.89427, 34.40096], [-100.89431, 34.4007], [-100.89441, 34.40032], [-100.89476, 34.39958], [-100.89498, 34.39923], [-100.8952, 34.39896], [-100.8956, 34.39854], [-100.89619, 34.39814], [-100.89669, 34.39788], [-100.89718, 34.3977], [-100.89763, 34.39756], [-100.89811, 34.39748]]}, "properties": {"surface": "two_track", "label": "Ranch two-track", "color": "#6B5A45", "miles": 4.85, "start_mi": 86.89, "end_mi": 91.73, "road": "Caprock Canyons Trailway", "elev_ft": [2283, 2286, 2290, 2292, 2295, 2295, 2298, 2299, 2301, 2301, 2300, 2299, 2297, 2296, 2294, 2292, 2290, 2288, 2287, 2286, 2284, 2282, 2281, 2280, 2277, 2276, 2275, 2274, 2275, 2277, 2280, 2283, 2286, 2288, 2290, 2292, 2293, 2296, 2298, 2300, 2303, 2306, 2309, 2311, 2315, 2316, 2319, 2323, 2324, 2326, 2327, 2328, 2329, 2332, 2336, 2338, 2340, 2340, 2341, 2341, 2343, 2343, 2343, 2344, 2344, 2344, 2346, 2346, 2346, 2348, 2349, 2353, 2354, 2355, 2356, 2358, 2360, 2361, 2364, 2365, 2365, 2368, 2371, 2372, 2374, 2374, 2377, 2378, 2380, 2378, 2375, 2374, 2371, 2369, 2367, 2365, 2363, 2363, 2361, 2360, 2359, 2358, 2357, 2356, 2355, 2354, 2354]}}, {"type": "Feature", "geometry": {"type": "LineString", "coordinates": [[-100.89872, 34.39743], [-100.898733, 34.396547], [-100.898747, 34.395663], [-100.89876, 34.39478], [-100.89876, 34.394045], [-100.89876, 34.39331], [-100.898165, 34.393315], [-100.89757, 34.39332], [-100.89758, 34.39379]]}, "properties": {"surface": "unknown", "label": "Unverified", "color": "#9A9389", "miles": 0.39, "start_mi": 91.73, "end_mi": 92.12, "road": "2nd Street", "elev_ft": [2355, 2345, 2343, 2341, 2338, 2336, 2332, 2336, 2338]}}]}