{"type": "FeatureCollection", "features": [{"type": "Feature", "geometry": {"type": "LineString", "coordinates": [[-100.89758, 34.39379], [-100.89757, 34.393295], [-100.89756, 34.3928], [-100.89778, 34.3928], [-100.898837, 34.3928], [-100.899893, 34.3928], [-100.90095, 34.3928], [-100.90127, 34.39278], [-100.90113, 34.39203]]}, "properties": {"surface": "pavement", "label": "Pavement", "color": "#4A5568", "miles": 0.33, "start_mi": 0.0, "end_mi": 0.33, "road": "Main Street", "elev_ft": [2338, 2336, 2333, 2333, 2332, 2330, 2329, 2329, 2326]}}, {"type": "Feature", "geometry": {"type": "LineString", "coordinates": [[-100.901115, 34.39137], [-100.9011, 34.39071], [-100.90109, 34.390065], [-100.90108, 34.38942], [-100.901073, 34.388539], [-100.901066, 34.387657], [-100.901059, 34.386776], [-100.901051, 34.385894], [-100.901044, 34.385013], [-100.901037, 34.384131], [-100.90103, 34.38325], [-100.901016, 34.382368], [-100.901002, 34.381486], [-100.900988, 34.380604], [-100.900974, 34.379722], [-100.90096, 34.37884], [-100.900946, 34.377958], [-100.900932, 34.377076], [-100.900918, 34.376194], [-100.900904, 34.375312], [-100.90089, 34.37443], [-100.900893, 34.373565], [-100.900895, 34.3727], [-100.900898, 34.371835], [-100.9009, 34.37097], [-100.900893, 34.37031], [-100.900887, 34.36965], [-100.90088, 34.36899], [-100.900883, 34.3681], [-100.900887, 34.36721], [-100.90089, 34.36632], [-100.90085, 34.3656], [-100.90085, 34.364907], [-100.90085, 34.364213], [-100.90085, 34.36352], [-100.90089, 34.36332], [-100.90098, 34.36323], [-100.90108, 34.36317], [-100.90135, 34.36309], [-100.902377, 34.36309], [-100.903405, 34.36309], [-100.904432, 34.36309], [-100.90546, 34.36309], [-100.906487, 34.36309], [-100.907515, 34.36309], [-100.908542, 34.36309], [-100.90957, 34.36309], [-100.91003, 34.36306], [-100.91025, 34.36299], [-100.91038, 34.36288], [-100.91047, 34.36277], [-100.91056, 34.36261], [-100.910545, 34.36172], [-100.91053, 34.36083], [-100.910485, 34.359975], [-100.91044, 34.35912], [-100.91043, 34.358645], [-100.91042, 34.35817], [-100.910412, 34.357492], [-100.910405, 34.356815], [-100.910397, 34.356137], [-100.91039, 34.35546], [-100.910398, 34.354673], [-100.910407, 34.353887], [-100.910415, 34.3531], [-100.910423, 34.352313], [-100.910432, 34.351527], [-100.91044, 34.35074], [-100.910454, 34.349982], [-100.910468, 34.349224], [-100.910482, 34.348466], [-100.910496, 34.347708], [-100.91051, 34.34695], [-100.91051, 34.346083], [-100.91051, 34.345215], [-100.91051, 34.344348], [-100.91051, 34.34348], [-100.91052, 34.342895], [-100.91053, 34.34231], [-100.91053, 34.3423], [-100.91054, 34.34213], [-100.911487, 34.34213], [-100.912435, 34.34213], [-100.913382, 34.34213], [-100.91433, 34.34213], [-100.915155, 34.34214], [-100.91598, 34.34215], [-100.916805, 34.34216], [-100.91763, 34.34217], [-100.918665, 34.34216]]}, "properties": {"surface": "caliche", "label": "Caliche / gravel", "color": "#C98A24", "miles": 4.39, "start_mi": 0.33, "end_mi": 4.72, "road": "County Road 3", "elev_ft": [2326, 2328, 2327, 2327, 2326, 2325, 2324, 2323, 2318, 2313, 2311, 2318, 2321, 2317, 2316, 2317, 2321, 2323, 2324, 2329, 2329, 2331, 2331, 2330, 2328, 2324, 2323, 2322, 2319, 2318, 2322, 2324, 2325, 2322, 2319, 2319, 2319, 2319, 2321, 2327, 2333, 2338, 2342, 2345, 2349, 2354, 2357, 2359, 2359, 2359, 2359, 2359, 2359, 2362, 2362, 2361, 2358, 2357, 2354, 2352, 2350, 2348, 2347, 2347, 2348, 2348, 2346, 2346, 2344, 2344, 2345, 2343, 2338, 2329, 2323, 2318, 2315, 2313, 2314, 2314, 2315, 2311, 2310, 2310, 2312, 2310, 2306, 2305, 2306, 2306]}}, {"type": "Feature", "geometry": {"type": "LineString", "coordinates": [[-100.9197, 34.34215], [-100.919694, 34.343036], [-100.919689, 34.343921], [-100.919683, 34.344807], [-100.919677, 34.345693], [-100.919671, 34.346579], [-100.919666, 34.347464]]}, "properties": {"surface": "pavement", "label": "Pavement", "color": "#4A5568", "miles": 0.37, "start_mi": 4.72, "end_mi": 5.09, "road": "Farm to Market Road 3323", "elev_ft": [2310, 2315, 2323, 2327, 2328, 2330, 2332]}}, {"type": "Feature", "geometry": {"type": "LineString", "coordinates": [[-100.91966, 34.34835], [-100.920678, 34.348348], [-100.921695, 34.348345], [-100.922713, 34.348343], [-100.92373, 34.34834], [-100.92374, 34.34834], [-100.92469, 34.34833], [-100.92564, 34.34832], [-100.92659, 34.34831], [-100.92754, 34.3483], [-100.92849, 34.34829], [-100.929441, 34.348279], [-100.930393, 34.348267], [-100.931344, 34.348256], [-100.932296, 34.348244], [-100.933247, 34.348233], [-100.934199, 34.348221], [-100.93515, 34.34821], [-100.935905, 34.34821], [-100.93666, 34.34821], [-100.93706, 34.34824], [-100.9372, 34.34832], [-100.93724, 34.34851], [-100.937233, 34.34916], [-100.937227, 34.34981], [-100.93722, 34.35046], [-100.938052, 34.350468], [-100.938885, 34.350475], [-100.939717, 34.350483], [-100.94055, 34.35049], [-100.941387, 34.350483], [-100.942223, 34.350477], [-100.94306, 34.35047], [-100.943807, 34.350483], [-100.944553, 34.350497], [-100.9453, 34.35051]]}, "properties": {"surface": "two_track", "label": "Ranch two-track", "color": "#6B5A45", "miles": 1.61, "start_mi": 5.09, "end_mi": 6.7, "road": "County Road BB", "elev_ft": [2339, 2334, 2333, 2334, 2335, 2335, 2336, 2337, 2339, 2341, 2345, 2344, 2341, 2341, 2340, 2339, 2339, 2339, 2339, 2340, 2341, 2341, 2342, 2344, 2346, 2349, 2349, 2349, 2348, 2346, 2343, 2340, 2339, 2342, 2344, 2348]}}, {"type": "Feature", "geometry": {"type": "LineString", "coordinates": [[-100.946172, 34.350518], [-100.947045, 34.350525], [-100.947917, 34.350533], [-100.94879, 34.35054], [-100.9498, 34.350545], [-100.95081, 34.35055], [-100.95189, 34.35054], [-100.95297, 34.35053], [-100.953775, 34.35054], [-100.95458, 34.35055], [-100.95475, 34.35053], [-100.95492, 34.35043], [-100.95493, 34.35042], [-100.95524, 34.35037], [-100.956216, 34.350376], [-100.957192, 34.350382], [-100.958168, 34.350388], [-100.959144, 34.350394], [-100.96012, 34.3504], [-100.961106, 34.350413], [-100.962092, 34.350425], [-100.963079, 34.350438], [-100.964065, 34.35045], [-100.965051, 34.350463], [-100.966037, 34.350475], [-100.967024, 34.350488], [-100.96801, 34.3505], [-100.969082, 34.350505], [-100.970155, 34.35051], [-100.971227, 34.350515], [-100.9723, 34.35052], [-100.972283, 34.351328], [-100.972265, 34.352135], [-100.972248, 34.352943], [-100.97223, 34.35375]]}, "properties": {"surface": "caliche", "label": "Caliche / gravel", "color": "#C98A24", "miles": 1.72, "start_mi": 6.7, "end_mi": 8.42, "road": "County Road FF", "elev_ft": [2353, 2357, 2360, 2367, 2375, 2381, 2384, 2388, 2391, 2392, 2392, 2393, 2393, 2393, 2395, 2398, 2402, 2405, 2408, 2411, 2414, 2416, 2422, 2424, 2427, 2429, 2431, 2432, 2434, 2435, 2436, 2436, 2451, 2451, 2451]}}, {"type": "Feature", "geometry": {"type": "LineString", "coordinates": [[-100.973222, 34.353756], [-100.974214, 34.353762], [-100.975206, 34.353768], [-100.976198, 34.353774], [-100.97719, 34.35378], [-100.97824, 34.353795], [-100.97929, 34.35381], [-100.980205, 34.353805], [-100.98112, 34.3538], [-100.98202, 34.35381], [-100.98292, 34.35382], [-100.983834, 34.35382], [-100.984748, 34.35382], [-100.985662, 34.35382], [-100.986576, 34.35382], [-100.98749, 34.35382], [-100.988455, 34.353825], [-100.98942, 34.35383], [-100.98973, 34.35383]]}, "properties": {"surface": "two_track", "label": "Ranch two-track", "color": "#6B5A45", "miles": 0.94, "start_mi": 8.42, "end_mi": 9.36, "road": "County Road GG", "elev_ft": [2451, 2451, 2451, 2451, 2451, 2465, 2465, 2465, 2465, 2465, 2465, 2465, 2465, 2465, 2476, 2476, 2476, 2476, 2477]}}, {"type": "Feature", "geometry": {"type": "LineString", "coordinates": [[-100.989727, 34.354614], [-100.989724, 34.355399], [-100.989721, 34.356183], [-100.989719, 34.356967], [-100.989716, 34.357751], [-100.989713, 34.358536], [-100.98971, 34.35932], [-100.989704, 34.360152], [-100.989697, 34.360984], [-100.989691, 34.361815], [-100.989685, 34.362647], [-100.989678, 34.363479], [-100.989672, 34.364311], [-100.989665, 34.365143], [-100.989659, 34.365975], [-100.989653, 34.366806], [-100.989646, 34.367638], [-100.98964, 34.36847], [-100.98964, 34.368491], [-100.989638, 34.369308], [-100.989636, 34.370146], [-100.989634, 34.370984], [-100.989633, 34.371515], [-100.989632, 34.371822]]}, "properties": {"surface": "pavement", "label": "Pavement", "color": "#4A5568", "miles": 1.19, "start_mi": 9.36, "end_mi": 10.55, "road": "Farm to Market Road 2733", "elev_ft": [2469, 2463, 2457, 2452, 2447, 2444, 2446, 2452, 2455, 2450, 2445, 2438, 2428, 2420, 2420, 2418, 2418, 2424, 2424, 2424, 2433, 2438, 2435, 2433]}}, {"type": "Feature", "geometry": {"type": "LineString", "coordinates": [[-100.98963, 34.37266], [-100.98963, 34.373398], [-100.98963, 34.374136], [-100.98963, 34.374874], [-100.98963, 34.375612], [-100.98963, 34.37635], [-100.989622, 34.377112], [-100.989614, 34.377874], [-100.989606, 34.378636], [-100.989598, 34.379398], [-100.98959, 34.38016], [-100.98959, 34.381036], [-100.98959, 34.381911], [-100.98959, 34.382787], [-100.98959, 34.383663], [-100.98959, 34.384539], [-100.98959, 34.385414], [-100.98959, 34.38629], [-100.989585, 34.387188], [-100.989579, 34.388086], [-100.989574, 34.388985], [-100.989568, 34.389883], [-100.989563, 34.390781], [-100.989557, 34.391679], [-100.989552, 34.392577], [-100.989546, 34.393475], [-100.989541, 34.394374], [-100.989535, 34.395272], [-100.98953, 34.39617], [-100.98954, 34.39676], [-100.98955, 34.39735], [-100.988705, 34.39734], [-100.98786, 34.39733], [-100.98684, 34.39732], [-100.98582, 34.39731], [-100.985, 34.397317], [-100.98418, 34.397323], [-100.98336, 34.39733], [-100.982331, 34.397328], [-100.981302, 34.397326], [-100.980273, 34.397325], [-100.979244, 34.397323], [-100.978215, 34.397321], [-100.977185, 34.397319], [-100.976156, 34.397317], [-100.975127, 34.397316], [-100.974098, 34.397314], [-100.973069, 34.397312], [-100.97204, 34.39731], [-100.972037, 34.398187], [-100.972033, 34.399063], [-100.97203, 34.39994], [-100.972, 34.39998], [-100.97189, 34.40005], [-100.9718, 34.40007], [-100.970815, 34.400045], [-100.96983, 34.40002], [-100.968845, 34.399995], [-100.96786, 34.39997], [-100.96769, 34.40005], [-100.96764, 34.40014], [-100.967637, 34.400974], [-100.967634, 34.401808], [-100.967631, 34.402642], [-100.967628, 34.403476], [-100.967625, 34.40431], [-100.967622, 34.405144], [-100.967619, 34.405978], [-100.967616, 34.406812], [-100.967613, 34.407646], [-100.96761, 34.40848], [-100.96759, 34.40853], [-100.96755, 34.40856], [-100.966492, 34.408561], [-100.965435, 34.408562], [-100.964377, 34.408562], [-100.963319, 34.408563], [-100.962262, 34.408564], [-100.961204, 34.408565], [-100.960146, 34.408566], [-100.959088, 34.408566], [-100.958031, 34.408567], [-100.956973, 34.408568], [-100.955915, 34.408569], [-100.954858, 34.408569], [-100.9538, 34.40857], [-100.952762, 34.408568], [-100.951725, 34.408566], [-100.950687, 34.408565], [-100.94965, 34.408563], [-100.948612, 34.408561], [-100.947575, 34.408559], [-100.946537, 34.408557], [-100.9455, 34.408555], [-100.944462, 34.408553], [-100.943425, 34.408552], [-100.942387, 34.40855], [-100.94135, 34.408548], [-100.940312, 34.408546], [-100.939275, 34.408544], [-100.938237, 34.408542], [-100.9372, 34.40854], [-100.93711, 34.40849], [-100.93698, 34.40835], [-100.93696, 34.40812], [-100.936963, 34.40737], [-100.936967, 34.40662], [-100.93697, 34.40587], [-100.936973, 34.40512], [-100.936977, 34.40437], [-100.93698, 34.40362], [-100.936982, 34.402848], [-100.936983, 34.402077], [-100.936985, 34.401305], [-100.936987, 34.400533], [-100.936988, 34.399762], [-100.93699, 34.39899], [-100.936047, 34.398994], [-100.935104, 34.398999], [-100.934161, 34.399003], [-100.933219, 34.399007], [-100.932276, 34.399011], [-100.931333, 34.399016], [-100.93039, 34.39902], [-100.92938, 34.399014], [-100.92837, 34.399008], [-100.92736, 34.399002], [-100.92635, 34.398996], [-100.92534, 34.39899], [-100.92433, 34.398984], [-100.92332, 34.398978], [-100.92231, 34.398972], [-100.9213, 34.398966], [-100.92029, 34.39896], [-100.91996, 34.39893], [-100.91906, 34.39874], [-100.918233, 34.398743], [-100.917407, 34.398747], [-100.91658, 34.39875], [-100.91659, 34.39875], [-100.915514, 34.398754], [-100.914438, 34.398758], [-100.913362, 34.398762], [-100.912286, 34.398766], [-100.91121, 34.39877], [-100.910134, 34.398774], [-100.909058, 34.398778], [-100.907982, 34.398782], [-100.906906, 34.398786], [-100.90583, 34.39879], [-100.904754, 34.398794], [-100.903678, 34.398798], [-100.902602, 34.398802], [-100.901526, 34.398806], [-100.90045, 34.39881], [-100.899585, 34.398825]]}, "properties": {"surface": "two_track", "label": "Ranch two-track", "color": "#6B5A45", "miles": 8.26, "start_mi": 10.55, "end_mi": 18.81, "road": "County Road Y", "elev_ft": [2429, 2429, 2435, 2448, 2461, 2476, 2478, 2485, 2486, 2481, 2478, 2480, 2487, 2490, 2497, 2504, 2507, 2508, 2501, 2492, 2487, 2485, 2487, 2491, 2492, 2493, 2498, 2506, 2518, 2519, 2520, 2509, 2502, 2498, 2498, 2499, 2502, 2509, 2505, 2489, 2480, 2485, 2469, 2458, 2462, 2473, 2474, 2467, 2483, 2478, 2468, 2459, 2459, 2458, 2456, 2457, 2457, 2452, 2451, 2449, 2449, 2438, 2431, 2420, 2413, 2408, 2405, 2404, 2402, 2401, 2400, 2400, 2400, 2397, 2397, 2397, 2397, 2397, 2397, 2399, 2400, 2400, 2400, 2400, 2399, 2397, 2394, 2392, 2392, 2395, 2401, 2407, 2419, 2427, 2424, 2414, 2406, 2404, 2403, 2403, 2405, 2409, 2408, 2407, 2405, 2403, 2397, 2392, 2388, 2385, 2382, 2377, 2373, 2370, 2369, 2375, 2379, 2375, 2369, 2369, 2377, 2379, 2384, 2388, 2383, 2383, 2388, 2389, 2386, 2386, 2390, 2396, 2406, 2401, 2396, 2387, 2374, 2368, 2365, 2365, 2363, 2362, 2362, 2362, 2364, 2368, 2374, 2374, 2367, 2364, 2360, 2358, 2357, 2356, 2358, 2361]}}, {"type": "Feature", "geometry": {"type": "LineString", "coordinates": [[-100.89872, 34.39884], [-100.89872, 34.398135], [-100.89872, 34.39743], [-100.898733, 34.396547], [-100.898747, 34.395663], [-100.89876, 34.39478], [-100.89876, 34.394045], [-100.89876, 34.39331], [-100.898165, 34.393315], [-100.89757, 34.39332], [-100.89758, 34.39379]]}, "properties": {"surface": "unknown", "label": "Unverified", "color": "#9A9389", "miles": 0.48, "start_mi": 18.81, "end_mi": 19.29, "road": "2nd Street", "elev_ft": [2364, 2356, 2355, 2345, 2343, 2341, 2338, 2336, 2332, 2336, 2338]}}]}