{"type": "FeatureCollection", "features": [{"type": "Feature", "geometry": {"type": "LineString", "coordinates": [[-100.89759, 34.393811], [-100.89759, 34.393811], [-100.89748, 34.39281], [-100.89826, 34.39281], [-100.89904, 34.3928], [-100.89904, 34.3928], [-100.89999, 34.39281], [-100.90095, 34.39281], [-100.90113, 34.3928], [-100.90126, 34.39279]]}, "properties": {"surface": "pavement", "label": "Pavement", "color": "#4A5568", "miles": 0.29, "start_mi": 0.0, "end_mi": 0.29, "road": "Main Street", "elev_ft": [2339, 2339, 2335, 2333, 2332, 2332, 2332, 2333, 2333, 2333]}}, {"type": "Feature", "geometry": {"type": "LineString", "coordinates": [[-100.90122, 34.39257], [-100.90122, 34.39257], [-100.90112, 34.39204], [-100.90111, 34.39193], [-100.9011, 34.39104], [-100.90109, 34.39014], [-100.90108, 34.38925], [-100.90108, 34.38925], [-100.90108, 34.38865], [-100.90107, 34.38805], [-100.90106, 34.38719], [-100.90105, 34.38632], [-100.90103, 34.38546], [-100.90103, 34.38472], [-100.90103, 34.38399], [-100.90102, 34.38325], [-100.90101, 34.38237], [-100.901, 34.38149], [-100.90098, 34.38061], [-100.90097, 34.37973], [-100.90095, 34.37885], [-100.90094, 34.37796], [-100.90093, 34.37708], [-100.90091, 34.3762], [-100.9009, 34.37532], [-100.90089, 34.37444], [-100.90089, 34.37357], [-100.90089, 34.37271], [-100.90089, 34.37184], [-100.9009, 34.37098], [-100.90089, 34.37032], [-100.90089, 34.36967], [-100.90088, 34.36899], [-100.90087, 34.36832], [-100.90087, 34.36765], [-100.90087, 34.36699], [-100.90086, 34.36633], [-100.90084, 34.36561], [-100.90084, 34.36492], [-100.90084, 34.36422], [-100.90084, 34.36353], [-100.90085, 34.36342], [-100.90088, 34.36333], [-100.90097, 34.36324], [-100.90108, 34.36317], [-100.90122, 34.36312], [-100.90134, 34.3631], [-100.90147, 34.36309], [-100.90185, 34.36308], [-100.90265, 34.36309], [-100.90345, 34.36309], [-100.90444, 34.3631], [-100.90543, 34.3631], [-100.90642, 34.3631], [-100.90742, 34.3631], [-100.90799, 34.3631], [-100.90857, 34.3631], [-100.90857, 34.3631], [-100.90955, 34.36309], [-100.90992, 34.36308], [-100.91003, 34.36307], [-100.91014, 34.36303], [-100.91024, 34.36299], [-100.91032, 34.36294], [-100.91037, 34.36289], [-100.91047, 34.36278], [-100.91052, 34.36267], [-100.91053, 34.36261], [-100.91054, 34.36246], [-100.91054, 34.3619], [-100.91054, 34.36134], [-100.91052, 34.36083], [-100.91048, 34.35998], [-100.91044, 34.35912], [-100.91042, 34.35865], [-100.9104, 34.35818], [-100.9104, 34.3575], [-100.91039, 34.35682], [-100.91039, 34.35615], [-100.91039, 34.35547], [-100.9104, 34.35483], [-100.91041, 34.35419], [-100.91042, 34.35347], [-100.91042, 34.35276], [-100.91043, 34.35205], [-100.91043, 34.35133], [-100.91044, 34.35075], [-100.91045, 34.35016], [-100.91046, 34.34938], [-100.91046, 34.34859], [-100.91047, 34.34778], [-100.91049, 34.34696], [-100.91049, 34.34609], [-100.91049, 34.34522], [-100.9105, 34.34435], [-100.9105, 34.34349], [-100.91051, 34.34301], [-100.91052, 34.34254], [-100.91052, 34.34254], [-100.91053, 34.34213], [-100.91148, 34.34213], [-100.91243, 34.34214], [-100.91338, 34.34214], [-100.91433, 34.34214], [-100.91523, 34.34215], [-100.91613, 34.34216], [-100.91704, 34.34218], [-100.91761, 34.34218], [-100.91865, 34.34217]]}, "properties": {"surface": "caliche", "label": "Caliche / gravel", "color": "#C98A24", "miles": 4.47, "start_mi": 0.29, "end_mi": 4.76, "road": "County Road 3", "elev_ft": [2332, 2332, 2331, 2331, 2329, 2327, 2325, 2325, 2324, 2323, 2323, 2322, 2321, 2320, 2312, 2304, 2308, 2311, 2312, 2313, 2316, 2320, 2323, 2325, 2329, 2332, 2331, 2329, 2327, 2326, 2324, 2322, 2321, 2320, 2319, 2321, 2323, 2322, 2320, 2319, 2317, 2317, 2318, 2319, 2320, 2321, 2322, 2322, 2322, 2327, 2329, 2333, 2341, 2345, 2351, 2351, 2354, 2354, 2357, 2358, 2358, 2359, 2359, 2359, 2359, 2359, 2360, 2360, 2360, 2361, 2362, 2362, 2362, 2361, 2360, 2359, 2356, 2354, 2353, 2353, 2352, 2351, 2349, 2348, 2347, 2347, 2347, 2346, 2345, 2344, 2343, 2340, 2331, 2328, 2325, 2322, 2320, 2316, 2316, 2313, 2314, 2314, 2315, 2316, 2316, 2316, 2316, 2316, 2316]}}, {"type": "Feature", "geometry": {"type": "LineString", "coordinates": [[-100.91969, 34.34216], [-100.91969, 34.34231], [-100.91969, 34.34231], [-100.91968, 34.34293], [-100.91968, 34.3437], [-100.91967, 34.34448], [-100.91967, 34.34526], [-100.91966, 34.34603], [-100.91966, 34.34681], [-100.91966, 34.34758]]}, "properties": {"surface": "pavement", "label": "Pavement", "color": "#4A5568", "miles": 0.37, "start_mi": 4.76, "end_mi": 5.13, "road": "Farm to Market Road 3323", "elev_ft": [2316, 2317, 2317, 2320, 2324, 2328, 2332, 2334, 2336, 2338]}}, {"type": "Feature", "geometry": {"type": "LineString", "coordinates": [[-100.91965, 34.34836], [-100.9207, 34.34836], [-100.92175, 34.34836], [-100.92279, 34.34836], [-100.92386, 34.34835], [-100.92493, 34.34834], [-100.926, 34.34832], [-100.92706, 34.34831], [-100.92813, 34.3483], [-100.9292, 34.34829], [-100.93026, 34.34828], [-100.93133, 34.34827], [-100.9324, 34.34826], [-100.93347, 34.34824], [-100.93431, 34.34823], [-100.93515, 34.34822], [-100.93621, 34.34822], [-100.93664, 34.34822], [-100.93704, 34.34825], [-100.93712, 34.34827], [-100.93716, 34.34829], [-100.93719, 34.34832], [-100.93722, 34.34839], [-100.93724, 34.34851], [-100.93723, 34.349], [-100.93723, 34.349], [-100.93722, 34.34973], [-100.93721, 34.35046], [-100.93813, 34.35048], [-100.93904, 34.35049], [-100.93979, 34.35049], [-100.94053, 34.3505], [-100.94159, 34.3505], [-100.94232, 34.35049], [-100.94306, 34.35048], [-100.94365, 34.35048], [-100.94424, 34.35049], [-100.94528, 34.35052], [-100.9461, 34.35052]]}, "properties": {"surface": "two_track", "label": "Ranch two-track", "color": "#6B5A45", "miles": 1.66, "start_mi": 5.13, "end_mi": 6.79, "road": "County Road BB", "elev_ft": [2340, 2340, 2340, 2343, 2345, 2346, 2347, 2349, 2348, 2348, 2348, 2346, 2345, 2344, 2344, 2344, 2344, 2344, 2344, 2345, 2345, 2345, 2345, 2346, 2348, 2348, 2352, 2357, 2358, 2357, 2356, 2354, 2352, 2349, 2348, 2345, 2344, 2350, 2354]}}, {"type": "Feature", "geometry": {"type": "LineString", "coordinates": [[-100.94692, 34.35052], [-100.94785, 34.35053], [-100.94878, 34.35054], [-100.94979, 34.35055], [-100.9508, 34.35055], [-100.95188, 34.35054], [-100.95297, 34.35054], [-100.95377, 34.35054], [-100.95458, 34.35055], [-100.95474, 34.35053], [-100.95489, 34.35044], [-100.95503, 34.3504], [-100.95518, 34.35038], [-100.95585, 34.35037], [-100.95685, 34.35039], [-100.95766, 34.35039], [-100.95848, 34.3504], [-100.9593, 34.3504], [-100.96012, 34.35041], [-100.9611, 34.35042], [-100.96209, 34.35043], [-100.96307, 34.35044], [-100.96406, 34.35045], [-100.96505, 34.35047], [-100.96603, 34.35048], [-100.96702, 34.35049], [-100.96801, 34.3505], [-100.96898, 34.3505], [-100.96995, 34.35051], [-100.97073, 34.35051], [-100.97152, 34.35052], [-100.97152, 34.35052], [-100.97229, 34.35052], [-100.97228, 34.34986], [-100.97227, 34.34919], [-100.97227, 34.34847], [-100.97228, 34.34776], [-100.97228, 34.34704], [-100.97228, 34.34617], [-100.97227, 34.3453], [-100.97227, 34.34443], [-100.97227, 34.34356], [-100.97227, 34.34269], [-100.97227, 34.34182], [-100.97228, 34.34095], [-100.97228, 34.34008], [-100.97229, 34.33921]]}, "properties": {"surface": "caliche", "label": "Caliche / gravel", "color": "#C98A24", "miles": 2.23, "start_mi": 6.79, "end_mi": 9.02, "road": "County Road FF", "elev_ft": [2357, 2362, 2373, 2383, 2385, 2388, 2392, 2394, 2396, 2396, 2397, 2397, 2397, 2400, 2404, 2409, 2413, 2416, 2418, 2422, 2424, 2423, 2422, 2424, 2427, 2431, 2435, 2437, 2437, 2437, 2437, 2437, 2438, 2434, 2434, 2437, 2439, 2442, 2445, 2447, 2448, 2451, 2450, 2448, 2448, 2448, 2448]}}, {"type": "Feature", "geometry": {"type": "LineString", "coordinates": [[-100.97318, 34.33921], [-100.97407, 34.33921], [-100.97496, 34.33922], [-100.97585, 34.33922], [-100.97675, 34.33923], [-100.97765, 34.33923], [-100.97855, 34.33924], [-100.97925, 34.33924], [-100.97996, 34.33924], [-100.98075, 34.33926], [-100.9815, 34.33927], [-100.98214, 34.33926], [-100.98278, 34.33926], [-100.98386, 34.33927], [-100.98495, 34.33928], [-100.98588, 34.33928], [-100.98681, 34.33928], [-100.98774, 34.33928], [-100.98868, 34.33927], [-100.98961, 34.33927], [-100.98961, 34.33927]]}, "properties": {"surface": "two_track", "label": "Ranch two-track", "color": "#6B5A45", "miles": 0.94, "start_mi": 9.02, "end_mi": 9.96, "road": "County Road DD", "elev_ft": [2450, 2450, 2448, 2449, 2450, 2451, 2455, 2457, 2460, 2465, 2468, 2469, 2471, 2477, 2481, 2485, 2487, 2488, 2488, 2487, 2487]}}, {"type": "Feature", "geometry": {"type": "LineString", "coordinates": [[-100.98978, 34.33927], [-100.98978, 34.33991], [-100.98997, 34.34062], [-100.99002, 34.34075], [-100.99009, 34.34087], [-100.99023, 34.3411], [-100.99033, 34.34124], [-100.99047, 34.34141], [-100.99065, 34.3416], [-100.99083, 34.34177], [-100.99103, 34.34194], [-100.99125, 34.34209], [-100.99137, 34.34217], [-100.99159, 34.34228], [-100.99194, 34.34243], [-100.99215, 34.34252], [-100.99244, 34.34261], [-100.9927, 34.34266], [-100.99302, 34.34271], [-100.99344, 34.34274], [-100.99422, 34.34278], [-100.99486, 34.3428], [-100.9955, 34.34283], [-100.9964, 34.34285], [-100.99742, 34.34285], [-100.99845, 34.34284], [-100.99948, 34.34284], [-101.00051, 34.34284], [-101.00154, 34.34284], [-101.00246, 34.34284], [-101.00339, 34.34285], [-101.00435, 34.34284], [-101.00531, 34.34283], [-101.00627, 34.34282], [-101.00723, 34.34282], [-101.00813, 34.34281], [-101.00903, 34.34281], [-101.00994, 34.3428], [-101.01075, 34.3428], [-101.01157, 34.34281], [-101.01239, 34.34281], [-101.0133, 34.3428], [-101.01422, 34.3428], [-101.01513, 34.34279], [-101.01604, 34.34279], [-101.01683, 34.34279], [-101.01763, 34.34279], [-101.01763, 34.34279], [-101.01866, 34.34278], [-101.01969, 34.34278], [-101.02072, 34.34278], [-101.0215, 34.34278], [-101.02227, 34.34277], [-101.02305, 34.34276], [-101.02346, 34.34277]]}, "properties": {"surface": "pavement", "label": "Pavement", "color": "#4A5568", "miles": 2.07, "start_mi": 9.96, "end_mi": 12.03, "road": "Farm to Market Road 599", "elev_ft": [2487, 2489, 2490, 2490, 2490, 2490, 2490, 2490, 2490, 2491, 2491, 2492, 2492, 2492, 2492, 2492, 2492, 2493, 2493, 2494, 2495, 2495, 2496, 2496, 2496, 2496, 2495, 2495, 2495, 2495, 2495, 2495, 2495, 2495, 2495, 2494, 2494, 2494, 2493, 2493, 2492, 2490, 2490, 2490, 2490, 2490, 2490, 2490, 2489, 2489, 2489, 2490, 2490, 2492, 2493]}}, {"type": "Feature", "geometry": {"type": "LineString", "coordinates": [[-101.02363, 34.3428], [-101.0237, 34.34276], [-101.02376, 34.34275], [-101.02435, 34.34269], [-101.02444, 34.34268], [-101.02454, 34.34265], [-101.02454, 34.34265], [-101.02458, 34.34263], [-101.02464, 34.34258], [-101.02473, 34.34246], [-101.02473, 34.34253], [-101.02473, 34.34253], [-101.02473, 34.34253], [-101.02475, 34.34185], [-101.02475, 34.34144], [-101.02475, 34.3407], [-101.02474, 34.33996], [-101.02474, 34.33921], [-101.02575, 34.33923], [-101.02677, 34.33924], [-101.02778, 34.33925], [-101.02866, 34.33925], [-101.02955, 34.33925], [-101.03043, 34.33925], [-101.03135, 34.33927], [-101.03227, 34.33928], [-101.0332, 34.33929], [-101.03338, 34.33928], [-101.03343, 34.33927], [-101.03346, 34.33925], [-101.03349, 34.3392], [-101.03349, 34.33915], [-101.03348, 34.33859], [-101.03347, 34.33803], [-101.03346, 34.33764], [-101.0335, 34.33752], [-101.03352, 34.3375], [-101.03356, 34.33748], [-101.03364, 34.33746], [-101.03373, 34.33744], [-101.0347, 34.33744], [-101.03567, 34.33743], [-101.03664, 34.33743], [-101.03756, 34.33744], [-101.03848, 34.33744], [-101.03939, 34.33745], [-101.04031, 34.33746], [-101.04123, 34.33747], [-101.04215, 34.33748], [-101.04214, 34.337], [-101.04214, 34.33652], [-101.04213, 34.33579], [-101.04213, 34.33505], [-101.04212, 34.33432], [-101.04212, 34.33351], [-101.04213, 34.33269], [-101.04213, 34.33259], [-101.04223, 34.33217], [-101.04225, 34.33195], [-101.04225, 34.3314], [-101.04225, 34.33084], [-101.04226, 34.33011], [-101.04228, 34.32938], [-101.04227, 34.3285], [-101.04227, 34.32762], [-101.04226, 34.32674], [-101.04227, 34.32588], [-101.04228, 34.32503], [-101.04228, 34.32417], [-101.04229, 34.32331], [-101.04229, 34.32246], [-101.0423, 34.3216], [-101.04231, 34.32074], [-101.04231, 34.31989], [-101.04231, 34.31922], [-101.04231, 34.31855], [-101.04231, 34.31787], [-101.04317, 34.31787], [-101.04317, 34.31787], [-101.0439, 34.31787], [-101.04463, 34.31787], [-101.0456, 34.31787], [-101.04658, 34.31788], [-101.04755, 34.31788], [-101.04863, 34.31788], [-101.04971, 34.31788], [-101.05079, 34.31788], [-101.05187, 34.31787], [-101.05279, 34.31787], [-101.05371, 34.31786], [-101.05462, 34.31786], [-101.05554, 34.31786], [-101.0565, 34.31785], [-101.05745, 34.31785], [-101.0584, 34.31785], [-101.05936, 34.31785]]}, "properties": {"surface": "two_track", "label": "Ranch two-track", "color": "#6B5A45", "miles": 3.75, "start_mi": 12.03, "end_mi": 15.77, "road": "County Road 28", "elev_ft": [2493, 2494, 2494, 2497, 2497, 2497, 2497, 2498, 2498, 2499, 2498, 2498, 2498, 2499, 2499, 2498, 2495, 2493, 2494, 2494, 2496, 2497, 2499, 2500, 2501, 2503, 2504, 2504, 2504, 2504, 2504, 2504, 2504, 2504, 2504, 2504, 2504, 2504, 2504, 2504, 2505, 2506, 2507, 2507, 2508, 2510, 2511, 2511, 2512, 2511, 2511, 2510, 2509, 2508, 2507, 2506, 2505, 2505, 2504, 2503, 2503, 2502, 2502, 2501, 2500, 2501, 2501, 2500, 2500, 2499, 2498, 2497, 2496, 2495, 2494, 2493, 2492, 2493, 2493, 2494, 2495, 2496, 2497, 2498, 2500, 2502, 2505, 2510, 2512, 2512, 2513, 2513, 2513, 2512, 2511, 2512]}}, {"type": "Feature", "geometry": {"type": "LineString", "coordinates": [[-101.05933, 34.31707], [-101.05931, 34.3163], [-101.05929, 34.31552], [-101.05926, 34.31474], [-101.05924, 34.31396], [-101.05922, 34.31318], [-101.05919, 34.31241], [-101.0592, 34.31159], [-101.0592, 34.31077], [-101.05924, 34.31041], [-101.05952, 34.30972], [-101.05971, 34.3093], [-101.06006, 34.3085], [-101.06041, 34.30771], [-101.06053, 34.30742], [-101.06059, 34.30723], [-101.06065, 34.30699], [-101.06069, 34.3068], [-101.06072, 34.30659], [-101.06072, 34.30637], [-101.06071, 34.30615], [-101.06068, 34.30591], [-101.0606, 34.30564], [-101.0606, 34.30564], [-101.0606, 34.30564], [-101.06056, 34.30553], [-101.06079, 34.30548], [-101.0612, 34.30538], [-101.06139, 34.30535], [-101.0617, 34.30534], [-101.06246, 34.30546], [-101.06321, 34.30558], [-101.06346, 34.30561], [-101.06384, 34.30561], [-101.06487, 34.30559], [-101.06554, 34.30555], [-101.06601, 34.30551], [-101.06691, 34.30537], [-101.06781, 34.30523], [-101.06871, 34.30509], [-101.06961, 34.30496], [-101.07051, 34.30482], [-101.07149, 34.30468], [-101.07247, 34.30454], [-101.07325, 34.30445], [-101.0741, 34.30438], [-101.07495, 34.3043], [-101.07593, 34.3042], [-101.0769, 34.30411], [-101.07731, 34.30408], [-101.07838, 34.30398], [-101.07945, 34.30388], [-101.0805, 34.30378], [-101.08155, 34.30369], [-101.0826, 34.3036], [-101.08343, 34.30356], [-101.08442, 34.30353], [-101.08546, 34.30353], [-101.08649, 34.30353], [-101.08753, 34.30353], [-101.08808, 34.30354], [-101.08863, 34.30354], [-101.08955, 34.30353], [-101.0898, 34.30351], [-101.09023, 34.30343], [-101.09058, 34.30334], [-101.09089, 34.30322], [-101.09121, 34.30308], [-101.09148, 34.30292], [-101.09168, 34.30279], [-101.09202, 34.30252], [-101.09264, 34.3019], [-101.09327, 34.30129], [-101.09389, 34.30068], [-101.09416, 34.30046], [-101.09437, 34.30032], [-101.09459, 34.3002], [-101.09484, 34.30006], [-101.09505, 34.29998], [-101.09529, 34.29989], [-101.09556, 34.29981], [-101.09589, 34.29974], [-101.0961, 34.29971], [-101.09639, 34.29968], [-101.09663, 34.29967], [-101.09707, 34.29967]]}, "properties": {"surface": "pavement", "label": "Pavement", "color": "#4A5568", "miles": 3.01, "start_mi": 15.77, "end_mi": 18.78, "road": "Farm to Market Road 689", "elev_ft": [2511, 2511, 2511, 2508, 2505, 2504, 2502, 2491, 2479, 2473, 2464, 2463, 2462, 2462, 2461, 2462, 2462, 2462, 2462, 2462, 2463, 2463, 2463, 2463, 2463, 2463, 2468, 2474, 2478, 2482, 2486, 2489, 2490, 2495, 2512, 2522, 2526, 2531, 2533, 2533, 2532, 2533, 2535, 2538, 2541, 2544, 2549, 2553, 2554, 2555, 2558, 2561, 2561, 2559, 2559, 2560, 2561, 2564, 2567, 2571, 2573, 2577, 2581, 2582, 2582, 2583, 2583, 2583, 2583, 2583, 2584, 2588, 2592, 2592, 2591, 2589, 2587, 2585, 2584, 2582, 2582, 2582, 2584, 2586, 2587, 2590]}}, {"type": "Feature", "geometry": {"type": "LineString", "coordinates": [[-101.09716, 34.29967], [-101.09718, 34.29967], [-101.09678, 34.30043], [-101.09638, 34.3012], [-101.09599, 34.30196], [-101.09559, 34.30272], [-101.09519, 34.30348], [-101.09479, 34.30424], [-101.09439, 34.305], [-101.09399, 34.30576], [-101.09359, 34.30652], [-101.09319, 34.30728], [-101.09279, 34.30804], [-101.09239, 34.3088], [-101.09199, 34.30957], [-101.09156, 34.31039], [-101.09114, 34.31121], [-101.09071, 34.31203], [-101.09028, 34.31286], [-101.08985, 34.31368], [-101.08943, 34.3145], [-101.089, 34.31533], [-101.08857, 34.31615], [-101.0882, 34.31688], [-101.0882, 34.31688], [-101.08787, 34.31753], [-101.08753, 34.31819], [-101.08711, 34.319], [-101.08668, 34.3198], [-101.08625, 34.32061], [-101.08583, 34.32142], [-101.0854, 34.32223], [-101.08498, 34.32304], [-101.08455, 34.32385], [-101.08412, 34.32466], [-101.0837, 34.32547], [-101.0833, 34.32624], [-101.08289, 34.32701], [-101.08249, 34.32778], [-101.08209, 34.32855], [-101.08169, 34.32932], [-101.08129, 34.33008], [-101.08088, 34.33085], [-101.08048, 34.33162], [-101.08008, 34.33239], [-101.07968, 34.33316], [-101.07928, 34.33393], [-101.07888, 34.3347], [-101.07846, 34.33548], [-101.07804, 34.33626], [-101.07762, 34.33708], [-101.07719, 34.33791], [-101.07677, 34.33873], [-101.07634, 34.33956], [-101.07592, 34.34038], [-101.07552, 34.34112], [-101.07512, 34.34186], [-101.07472, 34.34261], [-101.07433, 34.34335], [-101.07393, 34.34409], [-101.07393, 34.34409], [-101.07366, 34.3446], [-101.07327, 34.34536], [-101.07289, 34.34613], [-101.0725, 34.3469], [-101.07211, 34.34764], [-101.07171, 34.34838], [-101.07132, 34.34913], [-101.07093, 34.34987], [-101.07052, 34.35065], [-101.07011, 34.35144], [-101.06971, 34.35222], [-101.0693, 34.353], [-101.06888, 34.35379], [-101.06846, 34.35459], [-101.06805, 34.35538], [-101.06763, 34.35617], [-101.06721, 34.35696], [-101.06679, 34.35775], [-101.06638, 34.35854], [-101.06604, 34.35916], [-101.06571, 34.35979], [-101.06528, 34.36059], [-101.06484, 34.36138], [-101.06441, 34.36218], [-101.06398, 34.36298], [-101.06355, 34.36377], [-101.0633, 34.36425], [-101.06305, 34.36473], [-101.06279, 34.36524], [-101.06253, 34.36575], [-101.06253, 34.36575], [-101.06242, 34.36596]]}, "properties": {"surface": "caliche", "label": "Caliche / gravel", "color": "#C98A24", "miles": 4.99, "start_mi": 18.78, "end_mi": 23.78, "road": "Caprock Canyons Trailway", "elev_ft": [2590, 2590, 2591, 2591, 2581, 2581, 2581, 2569, 2571, 2570, 2566, 2559, 2561, 2552, 2540, 2545, 2541, 2541, 2539, 2529, 2537, 2531, 2530, 2528, 2528, 2527, 2525, 2524, 2535, 2534, 2533, 2532, 2542, 2541, 2543, 2545, 2550, 2551, 2551, 2552, 2553, 2560, 2561, 2561, 2564, 2566, 2567, 2568, 2569, 2570, 2572, 2572, 2574, 2576, 2578, 2581, 2581, 2581, 2581, 2582, 2582, 2584, 2586, 2587, 2589, 2590, 2590, 2590, 2589, 2589, 2589, 2589, 2590, 2590, 2589, 2588, 2586, 2582, 2580, 2579, 2578, 2578, 2577, 2577, 2577, 2575, 2575, 2574, 2574, 2574, 2575, 2575, 2575]}}, {"type": "Feature", "geometry": {"type": "LineString", "coordinates": [[-101.06302, 34.36596], [-101.0639, 34.36596], [-101.06479, 34.36596], [-101.06492, 34.36595], [-101.06588, 34.36595], [-101.06685, 34.36595], [-101.06782, 34.36595], [-101.06878, 34.36595], [-101.06975, 34.36594], [-101.07072, 34.36594], [-101.07168, 34.36594], [-101.07274, 34.36594], [-101.07379, 34.36594], [-101.07485, 34.36594], [-101.07591, 34.36594], [-101.07656, 34.36594], [-101.07722, 34.36594], [-101.07721, 34.36596], [-101.07721, 34.36596]]}, "properties": {"surface": "pavement", "label": "Pavement", "color": "#4A5568", "miles": 0.81, "start_mi": 23.78, "end_mi": 24.59, "road": "State Highway 86", "elev_ft": [2576, 2577, 2578, 2579, 2580, 2582, 2588, 2593, 2596, 2599, 2600, 2604, 2609, 2615, 2621, 2627, 2633, 2633, 2633]}}, {"type": "Feature", "geometry": {"type": "LineString", "coordinates": [[-101.07719, 34.36683], [-101.07719, 34.36737], [-101.0772, 34.36791], [-101.07719, 34.36849], [-101.07719, 34.36908], [-101.07719, 34.36985], [-101.0772, 34.37062], [-101.0772, 34.37139], [-101.07719, 34.37215], [-101.07719, 34.37292], [-101.07718, 34.37368], [-101.07719, 34.37452], [-101.0772, 34.37536], [-101.0772, 34.3762], [-101.07721, 34.37704], [-101.07721, 34.3778], [-101.07721, 34.37856], [-101.0772, 34.37932], [-101.0772, 34.38008], [-101.0772, 34.38084], [-101.07739, 34.38084], [-101.07739, 34.38084], [-101.07739, 34.38084], [-101.07832, 34.38084], [-101.07832, 34.38168], [-101.07833, 34.38252], [-101.07832, 34.38339], [-101.07831, 34.38427], [-101.0783, 34.38514], [-101.07829, 34.38601], [-101.07831, 34.3869], [-101.07832, 34.38778], [-101.07833, 34.38867], [-101.07834, 34.38898], [-101.07833, 34.3896], [-101.07833, 34.3904], [-101.07834, 34.3912], [-101.07835, 34.39177], [-101.07838, 34.39188], [-101.0784, 34.39192], [-101.07844, 34.39196], [-101.07882, 34.39225], [-101.07884, 34.39227], [-101.07885, 34.39231], [-101.07884, 34.39239], [-101.07878, 34.39247], [-101.07874, 34.3925], [-101.0787, 34.39251], [-101.0786, 34.39252], [-101.07848, 34.39252], [-101.07848, 34.39252], [-101.07767, 34.39252], [-101.0768, 34.39252], [-101.07575, 34.39252], [-101.0747, 34.39251], [-101.07364, 34.39251], [-101.07259, 34.39251], [-101.07154, 34.3925], [-101.07048, 34.39251], [-101.06941, 34.39251], [-101.06835, 34.39251], [-101.06728, 34.39252], [-101.06728, 34.39331], [-101.06729, 34.39411], [-101.0673, 34.39478], [-101.06731, 34.39545], [-101.06732, 34.39612], [-101.06732, 34.39663], [-101.06732, 34.39713], [-101.06732, 34.39713], [-101.06732, 34.39796], [-101.06733, 34.39879], [-101.06733, 34.39961], [-101.06734, 34.40044], [-101.06734, 34.40127], [-101.06734, 34.4021], [-101.06735, 34.40293], [-101.06733, 34.40338], [-101.06732, 34.40406], [-101.06731, 34.40474], [-101.06731, 34.40556], [-101.06731, 34.40637], [-101.06729, 34.40706], [-101.06739, 34.40706], [-101.06739, 34.40706], [-101.06739, 34.40706]]}, "properties": {"surface": "two_track", "label": "Ranch two-track", "color": "#6B5A45", "miles": 3.51, "start_mi": 24.59, "end_mi": 28.1, "road": "County Road 25", "elev_ft": [2635, 2635, 2637, 2638, 2635, 2628, 2619, 2609, 2608, 2615, 2619, 2622, 2625, 2621, 2607, 2606, 2606, 2606, 2605, 2603, 2605, 2605, 2605, 2611, 2612, 2613, 2615, 2617, 2620, 2624, 2626, 2626, 2621, 2621, 2624, 2625, 2625, 2623, 2622, 2622, 2622, 2622, 2623, 2623, 2623, 2623, 2623, 2623, 2623, 2623, 2623, 2615, 2624, 2636, 2635, 2633, 2631, 2620, 2604, 2598, 2594, 2593, 2596, 2599, 2604, 2619, 2623, 2624, 2624, 2624, 2620, 2618, 2618, 2619, 2623, 2621, 2617, 2618, 2621, 2625, 2628, 2630, 2632, 2633, 2633, 2633]}}, {"type": "Feature", "geometry": {"type": "LineString", "coordinates": [[-101.067402, 34.408055], [-101.067413, 34.409051], [-101.067425, 34.410046], [-101.067437, 34.411042], [-101.067448, 34.412037]]}, "properties": {"surface": "unknown", "label": "Unverified", "color": "#9A9389", "miles": 0.28, "start_mi": 28.1, "end_mi": 28.38, "road": "", "elev_ft": [2636, 2639, 2641, 2642, 2644]}}, {"type": "Feature", "geometry": {"type": "LineString", "coordinates": [[-101.06746, 34.413032], [-101.06765, 34.41309], [-101.06776, 34.41314], [-101.06794, 34.41318], [-101.06804, 34.41319], [-101.06815, 34.4132], [-101.06833, 34.41321], [-101.06851, 34.41322], [-101.06859, 34.41323], [-101.06866, 34.41325], [-101.06873, 34.41327], [-101.06878, 34.4133], [-101.06882, 34.41332], [-101.06885, 34.41335], [-101.06888, 34.41339], [-101.06891, 34.41343], [-101.06895, 34.41351], [-101.06897, 34.41356], [-101.06902, 34.41366], [-101.06906, 34.41375], [-101.06915, 34.41392], [-101.06918, 34.41397], [-101.06922, 34.41404], [-101.06928, 34.41414], [-101.06937, 34.41429], [-101.06948, 34.41446], [-101.06962, 34.41466], [-101.06969, 34.41477], [-101.06977, 34.41488], [-101.06981, 34.41492], [-101.06986, 34.41496], [-101.06994, 34.41504], [-101.06996, 34.41505], [-101.07002, 34.4151], [-101.07014, 34.41516], [-101.07032, 34.41524], [-101.07052, 34.41532], [-101.07077, 34.41533], [-101.07113, 34.41532], [-101.07146, 34.41531], [-101.07146, 34.41531], [-101.071547, 34.41561], [-101.071547, 34.41561]]}, "properties": {"surface": "two_track", "label": "Ranch two-track", "color": "#6B5A45", "miles": 0.33, "start_mi": 28.38, "end_mi": 28.71, "road": "", "elev_ft": [2642, 2643, 2644, 2640, 2640, 2639, 2642, 2644, 2644, 2642, 2642, 2642, 2642, 2642, 2643, 2643, 2643, 2643, 2643, 2643, 2642, 2641, 2640, 2640, 2642, 2642, 2643, 2643, 2643, 2644, 2644, 2644, 2644, 2644, 2644, 2646, 2647, 2648, 2650, 2651, 2651, 2649, 2649]}}, {"type": "Feature", "geometry": {"type": "LineString", "coordinates": [[-101.071676, 34.41577], [-101.071676, 34.41577], [-101.071761, 34.416036], [-101.071761, 34.416036], [-101.071944, 34.416108], [-101.071944, 34.416108], [-101.072094, 34.416055], [-101.072094, 34.416055], [-101.072201, 34.41664], [-101.072201, 34.41664], [-101.07248, 34.416606], [-101.07248, 34.416606], [-101.072727, 34.416659], [-101.072727, 34.416659], [-101.07306, 34.416961], [-101.07306, 34.416961], [-101.073521, 34.416988], [-101.073521, 34.416988], [-101.074004, 34.417396], [-101.074004, 34.417396], [-101.074132, 34.417777], [-101.074132, 34.417777], [-101.074326, 34.418291], [-101.074326, 34.418291], [-101.074433, 34.418628], [-101.074433, 34.418628], [-101.074433, 34.418886], [-101.074433, 34.418886], [-101.074604, 34.419046], [-101.074604, 34.419046], [-101.074798, 34.419277], [-101.074798, 34.419277], [-101.074959, 34.419561], [-101.074959, 34.419561], [-101.075141, 34.419694], [-101.075141, 34.419694], [-101.075345, 34.419836], [-101.075345, 34.419836], [-101.075463, 34.420085], [-101.075463, 34.420085], [-101.076085, 34.42036], [-101.076085, 34.42036], [-101.076192, 34.420476], [-101.076192, 34.420476], [-101.076203, 34.421034], [-101.076203, 34.421034], [-101.076166, 34.421042], [-101.076166, 34.421042], [-101.075814, 34.420836], [-101.075814, 34.420836], [-101.075814, 34.420836], [-101.074629, 34.420118], [-101.073443, 34.4194], [-101.073443, 34.4194], [-101.073282, 34.41925], [-101.073282, 34.41925], [-101.072971, 34.419251], [-101.072971, 34.419251], [-101.072574, 34.419278], [-101.072574, 34.419278], [-101.072317, 34.419341], [-101.072317, 34.419341], [-101.072317, 34.419341], [-101.071169, 34.419324], [-101.071169, 34.419324], [-101.070273, 34.419148], [-101.070273, 34.419148], [-101.070085, 34.419073], [-101.070085, 34.419073], [-101.069892, 34.419051], [-101.069892, 34.419051], [-101.069892, 34.419051], [-101.068409, 34.418757], [-101.066925, 34.418463], [-101.066925, 34.418463], [-101.066872, 34.41845], [-101.066872, 34.41845], [-101.066341, 34.418596], [-101.066341, 34.418596], [-101.066177, 34.418575], [-101.066177, 34.418575], [-101.066027, 34.4185], [-101.066027, 34.4185], [-101.065866, 34.418376], [-101.065866, 34.418376]]}, "properties": {"surface": "unknown", "label": "Unverified", "color": "#9A9389", "miles": 1.15, "start_mi": 28.71, "end_mi": 29.86, "road": "", "elev_ft": [2648, 2648, 2645, 2645, 2643, 2643, 2639, 2639, 2612, 2612, 2612, 2612, 2611, 2611, 2615, 2615, 2613, 2613, 2617, 2617, 2625, 2625, 2646, 2646, 2650, 2650, 2659, 2659, 2658, 2658, 2656, 2656, 2662, 2662, 2664, 2664, 2660, 2660, 2663, 2663, 2664, 2664, 2667, 2667, 2669, 2669, 2668, 2668, 2671, 2671, 2671, 2674, 2662, 2662, 2655, 2655, 2650, 2650, 2658, 2658, 2665, 2665, 2665, 2664, 2664, 2665, 2665, 2663, 2663, 2663, 2663, 2663, 2653, 2648, 2648, 2648, 2648, 2646, 2646, 2651, 2651, 2652, 2652, 2646, 2646]}}, {"type": "Feature", "geometry": {"type": "LineString", "coordinates": [[-101.065807, 34.418297], [-101.065807, 34.418297], [-101.065705, 34.418249], [-101.065705, 34.418249], [-101.065571, 34.418315], [-101.065571, 34.418315], [-101.065458, 34.418431], [-101.065458, 34.418431], [-101.065388, 34.418406], [-101.06536, 34.41839], [-101.06533, 34.41842], [-101.0653, 34.41847], [-101.06524, 34.41855], [-101.06513, 34.41865], [-101.06503, 34.41872], [-101.06493, 34.41877], [-101.06487, 34.41879], [-101.06486, 34.4188], [-101.06481, 34.41881], [-101.06471, 34.41884], [-101.06448, 34.41887], [-101.06437, 34.41886], [-101.06437, 34.41886], [-101.06433, 34.41886], [-101.06433, 34.41886], [-101.06432, 34.41922], [-101.06431, 34.4194], [-101.06431, 34.41943], [-101.0643, 34.41958], [-101.0643, 34.41964], [-101.06428, 34.41976], [-101.06427, 34.4198], [-101.06424, 34.41992], [-101.06424, 34.41994], [-101.0642, 34.42002], [-101.06415, 34.42011], [-101.06411, 34.42016], [-101.06406, 34.42021], [-101.06406, 34.42021], [-101.06404, 34.42023], [-101.06402, 34.42025], [-101.06397, 34.42029], [-101.06388, 34.42038], [-101.06387, 34.42039], [-101.0638, 34.42046], [-101.06377, 34.42049], [-101.06374, 34.42051], [-101.06373, 34.42051], [-101.06371, 34.42051], [-101.06366, 34.42052], [-101.06356, 34.42051], [-101.06352, 34.42053], [-101.06349, 34.42054], [-101.06346, 34.42057], [-101.06344, 34.4206], [-101.06343, 34.42066], [-101.06343, 34.42068], [-101.06333, 34.42118], [-101.06331, 34.42121], [-101.06322, 34.42137], [-101.06313, 34.42154], [-101.06309, 34.42159], [-101.063, 34.42169], [-101.06289, 34.42176], [-101.06284, 34.4218], [-101.06284, 34.42181], [-101.06281, 34.4219], [-101.0628, 34.42198], [-101.0628, 34.4221], [-101.0628, 34.42216], [-101.06281, 34.42234], [-101.06283, 34.42252], [-101.0628, 34.42262], [-101.06268, 34.42274], [-101.06257, 34.42278], [-101.06251, 34.42281], [-101.06238, 34.42286], [-101.06229, 34.42291], [-101.06221, 34.42301], [-101.06226, 34.42313], [-101.06229, 34.42321], [-101.06229, 34.4233], [-101.06228, 34.42333], [-101.06226, 34.42345], [-101.06223, 34.42351], [-101.06219, 34.42359], [-101.06219, 34.42368], [-101.06219, 34.42372], [-101.06221, 34.42386], [-101.06222, 34.42389], [-101.06229, 34.42403], [-101.0623, 34.42405], [-101.06234, 34.42414], [-101.06239, 34.42433], [-101.0624, 34.42437], [-101.06243, 34.42449], [-101.06245, 34.42455], [-101.06245, 34.42457], [-101.06252, 34.42467], [-101.06263, 34.42478], [-101.06267, 34.42486], [-101.06233, 34.42542], [-101.06219, 34.42564], [-101.06214, 34.42568], [-101.06214, 34.4257], [-101.06216, 34.42578], [-101.06221, 34.42595], [-101.06221, 34.42596], [-101.06224, 34.42614], [-101.06225, 34.42622], [-101.06247, 34.42652], [-101.06258, 34.42657], [-101.06278, 34.42665], [-101.06296, 34.42674], [-101.06317, 34.42692], [-101.06325, 34.42701], [-101.06338, 34.42716], [-101.06351, 34.4273], [-101.06365, 34.4276], [-101.06366, 34.42782], [-101.06367, 34.42791], [-101.0639, 34.42829], [-101.0639, 34.42832], [-101.06392, 34.42849], [-101.06392, 34.42864], [-101.06393, 34.42867], [-101.06398, 34.42885], [-101.06403, 34.42902], [-101.06409, 34.42923], [-101.06413, 34.42956], [-101.06416, 34.42972], [-101.06425, 34.42983], [-101.06438, 34.43005], [-101.06442, 34.43011], [-101.06451, 34.43019], [-101.06462, 34.43028], [-101.06467, 34.43031], [-101.06476, 34.43035], [-101.06524, 34.4304], [-101.06531, 34.43042], [-101.06543, 34.43045], [-101.06541, 34.43052], [-101.06537, 34.43066], [-101.06541, 34.43067], [-101.0656, 34.43074], [-101.06561, 34.43074], [-101.06574, 34.43076], [-101.06583, 34.43076], [-101.06586, 34.43075], [-101.06589, 34.4306], [-101.06592, 34.43048], [-101.06605, 34.43027], [-101.06612, 34.43016], [-101.06621, 34.43015], [-101.06662, 34.43008], [-101.0667, 34.43006], [-101.06683, 34.4301], [-101.06703, 34.43016], [-101.06723, 34.43024], [-101.06742, 34.43032], [-101.06762, 34.4304], [-101.06767, 34.43043], [-101.06776, 34.43053], [-101.06784, 34.43061], [-101.06787, 34.43068], [-101.06793, 34.43086], [-101.068, 34.43103], [-101.06803, 34.43111], [-101.06816, 34.43155], [-101.06819, 34.43166], [-101.06822, 34.43172], [-101.06839, 34.43201], [-101.06841, 34.43205], [-101.06851, 34.43221], [-101.06855, 34.43228], [-101.06865, 34.43234], [-101.06878, 34.43242], [-101.0688, 34.43246], [-101.06887, 34.43263], [-101.06895, 34.43282], [-101.06887, 34.43308], [-101.06873, 34.4333], [-101.06868, 34.43366], [-101.06866, 34.43384], [-101.06865, 34.43391], [-101.06869, 34.43401], [-101.06876, 34.43418], [-101.06884, 34.43447], [-101.0689, 34.43471], [-101.0689, 34.43473], [-101.06888, 34.43489], [-101.06888, 34.43494], [-101.06881, 34.43506], [-101.06875, 34.43515], [-101.06856, 34.43535], [-101.06852, 34.4354], [-101.06824, 34.43559], [-101.06823, 34.4356], [-101.06806, 34.4357], [-101.06798, 34.43574], [-101.06789, 34.43581], [-101.06782, 34.43585], [-101.06754, 34.43594], [-101.0675, 34.43596], [-101.06738, 34.43603], [-101.06733, 34.43607], [-101.06726, 34.43611], [-101.06727, 34.43621], [-101.06728, 34.43622], [-101.06734, 34.43628], [-101.0674, 34.43636], [-101.06741, 34.43644], [-101.0674, 34.43654], [-101.0674, 34.43656], [-101.06738, 34.43668], [-101.06739, 34.43679], [-101.06744, 34.43688], [-101.06755, 34.43694], [-101.06763, 34.43698], [-101.06765, 34.43699], [-101.06773, 34.43706], [-101.06777, 34.43712], [-101.06784, 34.43719], [-101.06792, 34.43725], [-101.06797, 34.43729], [-101.06811, 34.43735], [-101.06826, 34.4375], [-101.06837, 34.43763], [-101.06841, 34.43767], [-101.0688, 34.43804], [-101.06883, 34.43806], [-101.06896, 34.43821]]}, "properties": {"surface": "two_track", "label": "Ranch two-track", "color": "#6B5A45", "miles": 1.88, "start_mi": 29.86, "end_mi": 31.74, "road": "Trail J - Eagle Point Trail", "elev_ft": [2644, 2644, 2642, 2642, 2640, 2640, 2639, 2639, 2638, 2638, 2638, 2638, 2637, 2637, 2637, 2638, 2638, 2638, 2639, 2639, 2642, 2643, 2643, 2644, 2644, 2647, 2649, 2649, 2650, 2650, 2649, 2648, 2642, 2640, 2633, 2628, 2627, 2626, 2626, 2625, 2624, 2623, 2618, 2616, 2610, 2608, 2607, 2607, 2608, 2609, 2613, 2614, 2614, 2614, 2615, 2615, 2615, 2630, 2629, 2624, 2613, 2610, 2607, 2610, 2611, 2610, 2610, 2608, 2601, 2598, 2592, 2589, 2585, 2577, 2582, 2578, 2573, 2569, 2566, 2560, 2555, 2550, 2549, 2546, 2546, 2544, 2541, 2540, 2536, 2535, 2531, 2530, 2528, 2524, 2524, 2523, 2522, 2522, 2524, 2526, 2524, 2521, 2520, 2520, 2520, 2519, 2514, 2514, 2513, 2513, 2511, 2511, 2511, 2511, 2511, 2510, 2510, 2510, 2508, 2506, 2506, 2509, 2509, 2506, 2503, 2503, 2496, 2489, 2481, 2474, 2470, 2467, 2463, 2461, 2457, 2451, 2448, 2444, 2421, 2419, 2419, 2418, 2416, 2417, 2421, 2421, 2423, 2428, 2429, 2433, 2436, 2440, 2440, 2442, 2461, 2464, 2468, 2469, 2466, 2463, 2462, 2462, 2460, 2458, 2456, 2450, 2444, 2442, 2418, 2410, 2406, 2393, 2393, 2401, 2409, 2417, 2420, 2417, 2404, 2397, 2419, 2411, 2423, 2423, 2423, 2427, 2438, 2443, 2447, 2447, 2448, 2449, 2451, 2452, 2451, 2451, 2449, 2449, 2446, 2444, 2440, 2436, 2421, 2418, 2409, 2409, 2408, 2410, 2411, 2413, 2414, 2417, 2420, 2421, 2423, 2426, 2431, 2435, 2436, 2436, 2437, 2439, 2437, 2439, 2441, 2442, 2438, 2441, 2442, 2456, 2457, 2458]}}, {"type": "Feature", "geometry": {"type": "LineString", "coordinates": [[-101.0689, 34.4383], [-101.0689, 34.4383], [-101.06885, 34.4383], [-101.0688, 34.4383], [-101.0688, 34.4383], [-101.06877, 34.43831], [-101.06869, 34.43833], [-101.0686, 34.43836], [-101.06854, 34.43839], [-101.06849, 34.43842], [-101.06838, 34.43852], [-101.06827, 34.43863], [-101.06822, 34.4387], [-101.06812, 34.43885], [-101.06774, 34.43945], [-101.0676, 34.43965], [-101.06745, 34.43985], [-101.06739, 34.43993], [-101.06733, 34.43998], [-101.06716, 34.44013], [-101.06701, 34.44024], [-101.06686, 34.44035], [-101.0667, 34.44044], [-101.06655, 34.44051], [-101.06653, 34.44052], [-101.06644, 34.44056], [-101.06613, 34.44066], [-101.06573, 34.4408], [-101.06553, 34.44087], [-101.06546, 34.4409], [-101.06534, 34.44096], [-101.06515, 34.44105], [-101.06496, 34.44114], [-101.0647, 34.44127], [-101.0644, 34.44142], [-101.06426, 34.44149], [-101.06421, 34.44152], [-101.06402, 34.4416], [-101.064, 34.44161], [-101.06383, 34.44168], [-101.06383, 34.44169], [-101.06345, 34.44182], [-101.06322, 34.44188], [-101.06312, 34.44191], [-101.06301, 34.44193], [-101.0628, 34.44197], [-101.06258, 34.44201], [-101.06256, 34.44201], [-101.06237, 34.44202], [-101.06215, 34.44203], [-101.06193, 34.44204], [-101.06171, 34.44205], [-101.06128, 34.44207], [-101.06118, 34.44208], [-101.06084, 34.44207], [-101.06053, 34.44206], [-101.06021, 34.44203], [-101.06019, 34.44203], [-101.06013, 34.44202], [-101.06, 34.442], [-101.05993, 34.44199], [-101.05972, 34.44195], [-101.05967, 34.44194], [-101.05958, 34.44192], [-101.05951, 34.4419], [-101.05947, 34.44188], [-101.0594, 34.44184], [-101.05934, 34.44179], [-101.05932, 34.44177], [-101.05929, 34.44173], [-101.05923, 34.44162], [-101.0592, 34.44149], [-101.0592, 34.44145], [-101.05919, 34.44136], [-101.05918, 34.44113], [-101.05909, 34.44086], [-101.05906, 34.44078], [-101.05905, 34.44075], [-101.05899, 34.44062], [-101.05896, 34.44059], [-101.05892, 34.44052], [-101.05885, 34.44045], [-101.05884, 34.44044], [-101.05881, 34.44042], [-101.05875, 34.44038], [-101.05866, 34.44034], [-101.05859, 34.4403], [-101.05846, 34.44028], [-101.0584, 34.44026], [-101.05824, 34.44025], [-101.05822, 34.44025], [-101.05792, 34.44027], [-101.0578, 34.44026], [-101.05774, 34.44026], [-101.05759, 34.44024], [-101.05756, 34.44024], [-101.05742, 34.44021], [-101.05734, 34.44018], [-101.05718, 34.44011], [-101.05705, 34.44006], [-101.0568, 34.43993], [-101.05674, 34.4399], [-101.05624, 34.4396], [-101.05613, 34.43953], [-101.05611, 34.43951], [-101.05607, 34.43947], [-101.05607, 34.43947]]}, "properties": {"surface": "pavement", "label": "Pavement", "color": "#4A5568", "miles": 0.93, "start_mi": 31.74, "end_mi": 32.67, "road": "State Park Road", "elev_ft": [2457, 2457, 2457, 2456, 2456, 2456, 2455, 2455, 2454, 2454, 2453, 2452, 2452, 2452, 2447, 2446, 2446, 2446, 2446, 2446, 2445, 2444, 2444, 2445, 2445, 2446, 2448, 2454, 2457, 2458, 2460, 2462, 2458, 2445, 2437, 2433, 2432, 2430, 2430, 2431, 2431, 2442, 2441, 2443, 2445, 2446, 2448, 2448, 2450, 2449, 2443, 2434, 2421, 2418, 2402, 2369, 2323, 2321, 2314, 2302, 2298, 2300, 2305, 2316, 2325, 2330, 2339, 2348, 2351, 2358, 2374, 2383, 2384, 2386, 2394, 2419, 2425, 2427, 2431, 2432, 2431, 2429, 2428, 2427, 2428, 2433, 2433, 2433, 2432, 2429, 2428, 2424, 2425, 2425, 2426, 2426, 2425, 2425, 2427, 2430, 2437, 2437, 2441, 2442, 2443, 2443, 2443]}}, {"type": "Feature", "geometry": {"type": "LineString", "coordinates": [[-101.055946, 34.439591], [-101.055946, 34.439591], [-101.056096, 34.44018], [-101.056096, 34.44018], [-101.056144, 34.440428], [-101.056144, 34.440428], [-101.056058, 34.440698], [-101.056058, 34.440698], [-101.056091, 34.441048], [-101.056091, 34.441048], [-101.056075, 34.441398], [-101.056075, 34.441398], [-101.055978, 34.441629], [-101.055978, 34.441629], [-101.055806, 34.441797], [-101.055806, 34.441797], [-101.055592, 34.442005], [-101.055592, 34.442005], [-101.055447, 34.442205], [-101.055447, 34.442205], [-101.055318, 34.442364], [-101.055318, 34.442364], [-101.055141, 34.442537], [-101.055141, 34.442537], [-101.055023, 34.442688], [-101.055023, 34.442688], [-101.054857, 34.44279], [-101.054857, 34.44279], [-101.054707, 34.442768], [-101.054707, 34.442768], [-101.05453, 34.442707], [-101.05453, 34.442707], [-101.054406, 34.442645], [-101.054406, 34.442645]]}, "properties": {"surface": "unknown", "label": "Unverified", "color": "#9A9389", "miles": 0.27, "start_mi": 32.67, "end_mi": 32.94, "road": "", "elev_ft": [2443, 2443, 2441, 2441, 2442, 2442, 2442, 2442, 2443, 2443, 2444, 2444, 2444, 2444, 2443, 2443, 2442, 2442, 2441, 2441, 2439, 2439, 2434, 2434, 2430, 2430, 2427, 2427, 2423, 2423, 2420, 2420, 2419, 2419]}}, {"type": "Feature", "geometry": {"type": "LineString", "coordinates": [[-101.05424, 34.442544], [-101.05424, 34.442544], [-101.053961, 34.442558], [-101.05381, 34.44267], [-101.05352, 34.44293], [-101.05337, 34.44306], [-101.05334, 34.44309], [-101.05274, 34.44349], [-101.05257, 34.44367], [-101.05243, 34.4438], [-101.05227, 34.44393], [-101.05212, 34.44406], [-101.05206, 34.4441], [-101.05206, 34.4441], [-101.05196, 34.44418], [-101.05182, 34.4443], [-101.05145, 34.44451], [-101.0513, 34.44459], [-101.05129, 34.44463], [-101.05117, 34.44489], [-101.05128, 34.44532], [-101.0513, 34.44538], [-101.05134, 34.44567], [-101.05137, 34.44585], [-101.05141, 34.44607], [-101.05149, 34.44619], [-101.05159, 34.44635], [-101.0517, 34.44651], [-101.0518, 34.44667], [-101.05187, 34.44677], [-101.05188, 34.44683], [-101.05191, 34.44701], [-101.05198, 34.44741], [-101.05205, 34.44754], [-101.05213, 34.4477], [-101.05216, 34.44776], [-101.05222, 34.44787], [-101.05231, 34.44803], [-101.05239, 34.4482], [-101.05252, 34.44844], [-101.05251, 34.4485], [-101.05251, 34.4485], [-101.0525, 34.44857], [-101.05219, 34.44876], [-101.05213, 34.4488], [-101.05156, 34.44891], [-101.05155, 34.44891], [-101.05143, 34.44889], [-101.05137, 34.44884], [-101.05122, 34.44871], [-101.05117, 34.44866], [-101.05108, 34.44858], [-101.05108, 34.44857], [-101.05096, 34.44861], [-101.05095, 34.44884], [-101.05098, 34.44893], [-101.05098, 34.44893], [-101.05102, 34.44904], [-101.05107, 34.44922], [-101.05109, 34.4493], [-101.05112, 34.44957], [-101.05112, 34.44957], [-101.05073, 34.44962], [-101.05044, 34.44955], [-101.05044, 34.44955], [-101.0503, 34.44952], [-101.0498, 34.44945], [-101.04971, 34.44944], [-101.04958, 34.44944], [-101.04914, 34.44945], [-101.04912, 34.44945], [-101.04895, 34.44952], [-101.04892, 34.44953], [-101.04885, 34.44986], [-101.04882, 34.45001], [-101.04869, 34.45019], [-101.04859, 34.45036], [-101.04822, 34.45055], [-101.04821, 34.45055], [-101.04812, 34.45066], [-101.04779, 34.45072], [-101.04779, 34.45072], [-101.04765, 34.45075], [-101.04757, 34.45076], [-101.04744, 34.4508], [-101.04707, 34.4509], [-101.04681, 34.4509], [-101.04679, 34.4509], [-101.04661, 34.45082], [-101.04658, 34.4508], [-101.04598, 34.45071], [-101.04576, 34.45068], [-101.04564, 34.45066], [-101.04554, 34.45065], [-101.04496, 34.45063], [-101.04468, 34.4506], [-101.04454, 34.45058], [-101.04431, 34.45047], [-101.04386, 34.45035], [-101.0438, 34.45033], [-101.04367, 34.45027], [-101.043, 34.4499], [-101.04276, 34.44978], [-101.04258, 34.44968], [-101.04202, 34.44939], [-101.04152, 34.44912], [-101.04123, 34.44892], [-101.04073, 34.4487], [-101.04053, 34.44867], [-101.04036, 34.44864], [-101.04008, 34.4487], [-101.03993, 34.44872], [-101.03993, 34.44872], [-101.03897, 34.44886], [-101.03882, 34.44889], [-101.03861, 34.44892], [-101.03819, 34.44899], [-101.03798, 34.44902], [-101.03797, 34.44902], [-101.03797, 34.44902]]}, "properties": {"surface": "two_track", "label": "Ranch two-track", "color": "#6B5A45", "miles": 1.53, "start_mi": 32.94, "end_mi": 34.48, "road": "Trail G - Wild Horse Trail", "elev_ft": [2422, 2422, 2425, 2425, 2425, 2427, 2427, 2430, 2431, 2433, 2434, 2434, 2433, 2433, 2431, 2426, 2418, 2417, 2417, 2421, 2427, 2427, 2420, 2417, 2415, 2412, 2409, 2404, 2401, 2396, 2393, 2387, 2369, 2364, 2359, 2357, 2355, 2350, 2350, 2346, 2345, 2345, 2339, 2325, 2320, 2301, 2301, 2300, 2302, 2303, 2303, 2302, 2303, 2299, 2293, 2291, 2291, 2290, 2288, 2288, 2286, 2286, 2276, 2275, 2275, 2280, 2286, 2286, 2286, 2280, 2280, 2276, 2275, 2277, 2278, 2276, 2276, 2269, 2269, 2271, 2285, 2285, 2286, 2286, 2285, 2273, 2265, 2265, 2266, 2267, 2272, 2272, 2271, 2270, 2263, 2260, 2260, 2263, 2270, 2271, 2271, 2272, 2271, 2271, 2262, 2257, 2255, 2252, 2251, 2252, 2256, 2258, 2258, 2258, 2259, 2260, 2267, 2270, 2271, 2271]}}, {"type": "Feature", "geometry": {"type": "LineString", "coordinates": [[-101.03758, 34.44888], [-101.03738, 34.44881], [-101.03688, 34.44863], [-101.03679, 34.44858], [-101.03676, 34.44856], [-101.03665, 34.44844], [-101.03664, 34.44844], [-101.03653, 34.44829], [-101.03641, 34.44814], [-101.03629, 34.44799], [-101.0362, 34.44788], [-101.03615, 34.44786], [-101.03584, 34.44768], [-101.03579, 34.44766], [-101.0356, 34.44757], [-101.03542, 34.44747], [-101.03523, 34.44738], [-101.0352, 34.44737], [-101.03502, 34.44734]]}, "properties": {"surface": "unknown", "label": "Unverified", "color": "#9A9389", "miles": 0.19, "start_mi": 34.48, "end_mi": 34.66, "road": "Trail G - Wild Horse Trail", "elev_ft": [2268, 2268, 2268, 2267, 2267, 2267, 2267, 2266, 2266, 2265, 2264, 2264, 2261, 2260, 2255, 2250, 2245, 2244, 2240]}}, {"type": "Feature", "geometry": {"type": "LineString", "coordinates": [[-101.03459, 34.44726], [-101.03459, 34.44726], [-101.03437, 34.44737], [-101.03385, 34.44772], [-101.03357, 34.44793], [-101.03356, 34.44794], [-101.03321, 34.44821], [-101.03297, 34.44846], [-101.03284, 34.4486], [-101.03281, 34.44863], [-101.03267, 34.44872], [-101.03266, 34.44873], [-101.03266, 34.44873], [-101.03258, 34.44878], [-101.03233, 34.44879], [-101.03227, 34.44877], [-101.03226, 34.44877], [-101.03206, 34.44872], [-101.03163, 34.44861], [-101.03122, 34.44854], [-101.0312, 34.44854], [-101.03058, 34.44843], [-101.03037, 34.44839], [-101.03016, 34.44835], [-101.03013, 34.44835], [-101.02943, 34.4482], [-101.02931, 34.44817], [-101.02911, 34.4481], [-101.02909, 34.44809], [-101.02886, 34.44801], [-101.02845, 34.44776], [-101.02839, 34.44771], [-101.02824, 34.44757], [-101.02822, 34.44756], [-101.02813, 34.44748], [-101.02809, 34.44744], [-101.02795, 34.44731], [-101.02793, 34.44729], [-101.0278, 34.44717], [-101.02772, 34.4471], [-101.02764, 34.44706], [-101.02752, 34.447], [-101.02744, 34.44701], [-101.02717, 34.44705], [-101.02703, 34.44709], [-101.02703, 34.44709], [-101.02701, 34.44709], [-101.02698, 34.4471], [-101.02698, 34.4471], [-101.02687, 34.44695], [-101.02676, 34.44679], [-101.02665, 34.44664], [-101.02654, 34.44648], [-101.02643, 34.44633], [-101.02632, 34.44617], [-101.02627, 34.44611], [-101.02621, 34.44602], [-101.02593, 34.44558], [-101.0259, 34.44554], [-101.02581, 34.44538], [-101.02571, 34.44522], [-101.02555, 34.44493], [-101.02555, 34.44493], [-101.02555, 34.44493], [-101.0255, 34.44485], [-101.0254, 34.44474], [-101.02528, 34.4446], [-101.02502, 34.44431], [-101.0245, 34.44373], [-101.02444, 34.44366], [-101.02436, 34.44359], [-101.02421, 34.44345], [-101.02401, 34.44339], [-101.02397, 34.44338], [-101.02381, 34.44334], [-101.0237, 34.44331], [-101.02334, 34.44316], [-101.02323, 34.44309], [-101.02318, 34.44306], [-101.0231, 34.44295], [-101.02298, 34.4428], [-101.02287, 34.44264], [-101.0228, 34.44256], [-101.02277, 34.44248], [-101.02269, 34.44232], [-101.02262, 34.44215], [-101.02254, 34.44198], [-101.02247, 34.44181], [-101.02234, 34.44152], [-101.02224, 34.4413], [-101.02208, 34.44097], [-101.022, 34.4408], [-101.02195, 34.44061], [-101.02198, 34.44047], [-101.02198, 34.44045], [-101.022, 34.44032], [-101.02209, 34.4401], [-101.0221, 34.44007], [-101.02214, 34.43992], [-101.02215, 34.43985], [-101.02213, 34.43965], [-101.0221, 34.43957], [-101.02206, 34.43944], [-101.02192, 34.43922], [-101.02179, 34.43901], [-101.0217, 34.43891], [-101.02161, 34.43883], [-101.02156, 34.4388], [-101.02139, 34.43869], [-101.02136, 34.43867], [-101.0212, 34.43858], [-101.02102, 34.43844], [-101.02082, 34.43816], [-101.02055, 34.43779], [-101.02016, 34.43723], [-101.02015, 34.43722], [-101.01998, 34.43691], [-101.01997, 34.43689], [-101.01972, 34.43641], [-101.01963, 34.43625], [-101.01959, 34.43618], [-101.01952, 34.43609], [-101.01948, 34.43603], [-101.01943, 34.43598], [-101.0194, 34.43594], [-101.01927, 34.43582], [-101.01915, 34.43565], [-101.01903, 34.4355], [-101.01899, 34.43544], [-101.01892, 34.43535], [-101.01881, 34.43518], [-101.01874, 34.43508], [-101.01872, 34.43504], [-101.01872, 34.43503], [-101.01864, 34.43485], [-101.01845, 34.4344], [-101.0184, 34.43427], [-101.01827, 34.43401], [-101.0182, 34.43385], [-101.01819, 34.43384], [-101.01818, 34.43381], [-101.01808, 34.4335], [-101.01804, 34.4334], [-101.01803, 34.43333], [-101.01803, 34.43332], [-101.01803, 34.43325], [-101.01804, 34.43321], [-101.01804, 34.43321], [-101.01804, 34.43316], [-101.01805, 34.43315], [-101.01806, 34.43308], [-101.01808, 34.43304], [-101.01812, 34.43297], [-101.01816, 34.4329], [-101.01821, 34.43281], [-101.0183, 34.43265], [-101.01837, 34.43254], [-101.01845, 34.43242], [-101.01895, 34.43171], [-101.01904, 34.43157], [-101.01912, 34.43148], [-101.01917, 34.43143], [-101.01937, 34.43131], [-101.01952, 34.43121], [-101.01963, 34.43114], [-101.01984, 34.43103], [-101.0199, 34.431], [-101.0199, 34.43099], [-101.01999, 34.43094], [-101.02008, 34.43089], [-101.02027, 34.43077], [-101.02059, 34.43055], [-101.02079, 34.43042], [-101.02087, 34.43035], [-101.02091, 34.43032], [-101.02092, 34.43031], [-101.0212, 34.43004], [-101.02126, 34.42999], [-101.02134, 34.42991], [-101.02134, 34.4299], [-101.02137, 34.42987], [-101.0216, 34.42962], [-101.0216, 34.42961], [-101.02169, 34.42952], [-101.02174, 34.42947], [-101.02187, 34.42934], [-101.02187, 34.42933], [-101.02201, 34.42919], [-101.02225, 34.42894], [-101.02241, 34.42877], [-101.0225, 34.42868], [-101.02254, 34.42863], [-101.02255, 34.42862], [-101.02268, 34.42848], [-101.02303, 34.4281], [-101.0235, 34.42764], [-101.02364, 34.42751], [-101.02392, 34.42723], [-101.02407, 34.42709], [-101.02432, 34.42685], [-101.02435, 34.42682], [-101.0244, 34.42676], [-101.02447, 34.42668], [-101.02459, 34.42652], [-101.02469, 34.42639], [-101.02471, 34.42637], [-101.02521, 34.4258], [-101.02525, 34.42577], [-101.02538, 34.42568], [-101.02539, 34.42567], [-101.02549, 34.42558], [-101.0256, 34.4255], [-101.02594, 34.42517], [-101.02596, 34.42514], [-101.02597, 34.42513], [-101.02603, 34.42505], [-101.0263, 34.42473], [-101.02643, 34.4246], [-101.02648, 34.42456], [-101.02649, 34.42456], [-101.02656, 34.42451], [-101.02666, 34.42445], [-101.02704, 34.42425], [-101.02713, 34.42419], [-101.02718, 34.42413], [-101.02726, 34.42401], [-101.02728, 34.42397], [-101.0273, 34.42393], [-101.02737, 34.42362], [-101.02738, 34.42362], [-101.02743, 34.42344], [-101.02744, 34.42339], [-101.02749, 34.42325], [-101.02755, 34.42313], [-101.02762, 34.42302], [-101.02768, 34.42295], [-101.02774, 34.42287], [-101.0278, 34.42281], [-101.02781, 34.4228], [-101.02791, 34.42269], [-101.02794, 34.42266], [-101.02806, 34.42253], [-101.02807, 34.42252], [-101.02847, 34.42215], [-101.0285, 34.42212], [-101.02851, 34.42212], [-101.02859, 34.42205], [-101.02865, 34.42201], [-101.02868, 34.422], [-101.02872, 34.42198], [-101.02888, 34.42195], [-101.02889, 34.42195], [-101.02903, 34.42193], [-101.0291, 34.42192], [-101.02915, 34.42192], [-101.02932, 34.42191], [-101.02953, 34.42189], [-101.02975, 34.42187], [-101.02993, 34.42185], [-101.03137, 34.42181], [-101.03149, 34.4218], [-101.03165, 34.42178], [-101.0317, 34.42178], [-101.03171, 34.42177], [-101.03191, 34.42175], [-101.03211, 34.4217], [-101.03213, 34.42169], [-101.03226, 34.42161], [-101.03232, 34.42156], [-101.03239, 34.42149], [-101.03244, 34.42135], [-101.03246, 34.42114], [-101.03246, 34.42108], [-101.03246, 34.42107], [-101.03245, 34.4209], [-101.03245, 34.42089], [-101.03245, 34.42072], [-101.03245, 34.42071], [-101.03243, 34.42017], [-101.03242, 34.42], [-101.03242, 34.41999], [-101.03242, 34.41981], [-101.03241, 34.41964], [-101.03241, 34.41963], [-101.03241, 34.41955], [-101.03241, 34.41945], [-101.0324, 34.41819], [-101.0324, 34.41802], [-101.0324, 34.41801], [-101.0324, 34.41748], [-101.0324, 34.41747], [-101.0324, 34.4173], [-101.0324, 34.41676], [-101.0324, 34.41668], [-101.0324, 34.4164], [-101.03239, 34.41514], [-101.03238, 34.4146], [-101.03238, 34.41316], [-101.03238, 34.41298], [-101.03237, 34.41172], [-101.03236, 34.41082], [-101.03236, 34.41052], [-101.03236, 34.40992], [-101.03236, 34.40975], [-101.03236, 34.40974], [-101.03237, 34.40915], [-101.03236, 34.40869], [-101.03236, 34.40831], [-101.03236, 34.4083], [-101.03236, 34.40812], [-101.03235, 34.40715], [-101.03232, 34.4071], [-101.03231, 34.40706], [-101.03231, 34.40705], [-101.03231, 34.40705], [-101.03231, 34.40706], [-101.03232, 34.4071], [-101.03235, 34.40715], [-101.03235, 34.40715], [-101.02995, 34.40715], [-101.02668, 34.40716], [-101.02646, 34.40717], [-101.02613, 34.40717], [-101.02581, 34.40717], [-101.02255, 34.40719], [-101.0221, 34.40719], [-101.02188, 34.40719], [-101.02092, 34.40719], [-101.01968, 34.40719], [-101.01728, 34.40721], [-101.01706, 34.40721], [-101.01663, 34.40722], [-101.01486, 34.40723], [-101.01428, 34.40723], [-101.01392, 34.40723], [-101.01341, 34.40723], [-101.01237, 34.40724], [-101.01222, 34.40724], [-101.01156, 34.40724], [-101.01132, 34.40724], [-101.00982, 34.40722], [-101.00917, 34.40722], [-101.00829, 34.40721], [-101.00825, 34.40721], [-101.00764, 34.4072], [-101.00645, 34.4072], [-101.00568, 34.40721], [-101.00546, 34.40721], [-101.00437, 34.40722], [-101.00424, 34.40722], [-101.00197, 34.40723], [-101.00175, 34.40723], [-101.00014, 34.40723], [-101.00001, 34.40723], [-100.99979, 34.40724], [-100.99936, 34.40724], [-100.9987, 34.40725], [-100.99848, 34.40725], [-100.99847, 34.40725], [-100.99739, 34.40725], [-100.9963, 34.40726], [-100.99609, 34.40726], [-100.99568, 34.40726], [-100.99413, 34.40728], [-100.99405, 34.40728], [-100.99391, 34.40728], [-100.99347, 34.40728], [-100.9926, 34.40728], [-100.99238, 34.40728], [-100.99151, 34.40728], [-100.99129, 34.40728], [-100.99044, 34.40728], [-100.99042, 34.40728], [-100.98976, 34.40727], [-100.98962, 34.40727], [-100.98957, 34.40726], [-100.98951, 34.40723], [-100.98949, 34.40721], [-100.98947, 34.40717], [-100.98944, 34.4071], [-100.98945, 34.40687], [-100.98946, 34.40645], [-100.98946, 34.40631], [-100.98946, 34.40631], [-100.98946, 34.40574], [-100.98945, 34.4054], [-100.98945, 34.4052], [-100.98945, 34.40502], [-100.98944, 34.4045], [-100.98944, 34.40448], [-100.98943, 34.40424], [-100.98944, 34.40412], [-100.98944, 34.40394], [-100.98944, 34.40384], [-100.98945, 34.40358], [-100.98947, 34.40304], [-100.98948, 34.40252], [-100.98948, 34.40232], [-100.98948, 34.40178], [-100.98948, 34.4016], [-100.98949, 34.40124], [-100.98949, 34.40106], [-100.98949, 34.40088], [-100.98949, 34.40052], [-100.98949, 34.4003], [-100.98949, 34.40004], [-100.98949, 34.39968], [-100.98949, 34.39821], [-100.98949, 34.39789], [-100.98949, 34.39771], [-100.9895, 34.39753], [-100.9895, 34.39735], [-100.9895, 34.39735], [-100.98836, 34.39734], [-100.98816, 34.39734], [-100.98794, 34.39734], [-100.98772, 34.39733], [-100.98732, 34.39733], [-100.98732, 34.39733], [-100.98707, 34.39733], [-100.98663, 34.39732], [-100.98645, 34.39732], [-100.98578, 34.39731], [-100.98489, 34.39732], [-100.98446, 34.39732], [-100.98358, 34.39733], [-100.98336, 34.39733], [-100.98333, 34.39733], [-100.98293, 34.39733], [-100.98249, 34.39732], [-100.98227, 34.39732], [-100.98193, 34.39731], [-100.98118, 34.39731], [-100.98097, 34.39731], [-100.98075, 34.39731], [-100.98053, 34.39731], [-100.98031, 34.39731], [-100.98009, 34.39731], [-100.97964, 34.39731], [-100.97944, 34.39732], [-100.979, 34.39732], [-100.9782, 34.39732], [-100.97791, 34.39732], [-100.97741, 34.39732], [-100.97726, 34.39732], [-100.97682, 34.39732], [-100.97661, 34.39732], [-100.97639, 34.39732], [-100.97559, 34.39732], [-100.97552, 34.39732], [-100.9753, 34.39732], [-100.97486, 34.39731], [-100.97448, 34.39731], [-100.97443, 34.39731], [-100.97355, 34.39731], [-100.97331, 34.39731], [-100.97312, 34.39731], [-100.9729, 34.39731], [-100.97268, 34.39731], [-100.97203, 34.39731], [-100.97203, 34.39731], [-100.97203, 34.39737], [-100.97203, 34.39737], [-100.97203, 34.3976], [-100.97203, 34.39778], [-100.97202, 34.39814], [-100.97202, 34.39832], [-100.97202, 34.3985], [-100.97202, 34.39868], [-100.97202, 34.3994], [-100.97202, 34.39958], [-100.97202, 34.39976], [-100.97202, 34.39976], [-100.97201, 34.39984], [-100.97196, 34.39999], [-100.97182, 34.40009], [-100.97154, 34.40009], [-100.97143, 34.40009], [-100.97024, 34.40004], [-100.96893, 34.39999], [-100.96806, 34.39996], [-100.96793, 34.39997], [-100.96782, 34.39999], [-100.96765, 34.40006], [-100.96761, 34.40008], [-100.96758, 34.40018], [-100.96758, 34.40022], [-100.96759, 34.40086], [-100.96759, 34.40094], [-100.9676, 34.40112], [-100.9676, 34.40166], [-100.9676, 34.40184], [-100.9676, 34.40202], [-100.96761, 34.40328], [-100.96761, 34.40346], [-100.96761, 34.40436], [-100.96762, 34.40454], [-100.96762, 34.40508], [-100.96763, 34.40634], [-100.96763, 34.40741], [-100.96763, 34.40744], [-100.96763, 34.40777], [-100.96764, 34.40813], [-100.96764, 34.40856], [-100.96764, 34.40856], [-100.9664, 34.40856], [-100.96444, 34.40856], [-100.96435, 34.40856], [-100.96365, 34.40855], [-100.96307, 34.40855], [-100.96248, 34.40855], [-100.9612, 34.40855], [-100.9588, 34.40855], [-100.95755, 34.40855], [-100.95755, 34.40855], [-100.95755, 34.40855], [-100.956407, 34.408541], [-100.955265, 34.408531], [-100.954122, 34.408522], [-100.95298, 34.408513], [-100.951837, 34.408504], [-100.950695, 34.408494], [-100.949552, 34.408485], [-100.948409, 34.408476], [-100.947267, 34.408467], [-100.946124, 34.408457], [-100.944982, 34.408448], [-100.943839, 34.408439], [-100.942696, 34.408429], [-100.941554, 34.40842], [-100.940411, 34.408411], [-100.939269, 34.408402], [-100.938126, 34.408392], [-100.936984, 34.408383], [-100.936984, 34.408383], [-100.936984, 34.408383], [-100.936984, 34.407449], [-100.936984, 34.406515], [-100.936984, 34.405581], [-100.936984, 34.404646], [-100.936984, 34.403712], [-100.936984, 34.402778], [-100.936984, 34.401844], [-100.936984, 34.400909], [-100.936984, 34.399975], [-100.936984, 34.399041], [-100.93693, 34.39896], [-100.9369, 34.39897], [-100.93684, 34.39899], [-100.93676, 34.39899], [-100.93647, 34.39899], [-100.93583, 34.39899], [-100.93565, 34.39899], [-100.93496, 34.39899], [-100.93475, 34.39899], [-100.93452, 34.39899], [-100.93372, 34.399], [-100.93365, 34.399], [-100.93343, 34.399], [-100.93275, 34.399], [-100.93212, 34.39901], [-100.93186, 34.39901], [-100.93169, 34.39901], [-100.93086, 34.399], [-100.93081, 34.399], [-100.9306, 34.399], [-100.93038, 34.399], [-100.92975, 34.399], [-100.92907, 34.399], [-100.92733, 34.39899], [-100.92691, 34.39899], [-100.92633, 34.39899], [-100.92633, 34.39899], [-100.92458, 34.39898], [-100.92393, 34.39898], [-100.92371, 34.39897], [-100.92327, 34.39897], [-100.92306, 34.39897], [-100.92262, 34.39897], [-100.9224, 34.39897], [-100.92175, 34.39897], [-100.92153, 34.39896], [-100.92109, 34.39896], [-100.92102, 34.39896], [-100.92088, 34.39896], [-100.92066, 34.39897], [-100.92031, 34.39897], [-100.92013, 34.39896], [-100.92001, 34.39895], [-100.91998, 34.39894], [-100.91979, 34.39891], [-100.91973, 34.3989], [-100.91944, 34.39882], [-100.91925, 34.39878], [-100.91915, 34.39876], [-100.91902, 34.39876], [-100.91858, 34.39876], [-100.91836, 34.39876], [-100.91792, 34.39876], [-100.91771, 34.39876], [-100.91705, 34.39876], [-100.91662, 34.39877], [-100.91596, 34.39877], [-100.91531, 34.39877], [-100.91487, 34.39877], [-100.91444, 34.39877], [-100.91422, 34.39877], [-100.91269, 34.39878], [-100.91181, 34.39878], [-100.91136, 34.39878], [-100.91117, 34.39878], [-100.90942, 34.39879], [-100.9092, 34.39879], [-100.90855, 34.39879], [-100.90833, 34.39879], [-100.9079, 34.39879], [-100.90702, 34.39879], [-100.90637, 34.39879], [-100.90528, 34.39879], [-100.90462, 34.3988], [-100.90441, 34.3988], [-100.90201, 34.39882], [-100.90179, 34.39882], [-100.90158, 34.39882], [-100.90114, 34.39882], [-100.90048, 34.39883], [-100.89961, 34.39884], [-100.89939, 34.39884], [-100.89933, 34.39884], [-100.89917, 34.39884], [-100.89895, 34.39884]]}, "properties": {"surface": "two_track", "label": "Ranch two-track", "color": "#6B5A45", "miles": 13.58, "start_mi": 34.66, "end_mi": 48.24, "road": "County Road 29", "elev_ft": [2242, 2242, 2244, 2246, 2246, 2246, 2245, 2242, 2241, 2241, 2242, 2242, 2242, 2242, 2242, 2242, 2242, 2243, 2243, 2244, 2244, 2245, 2245, 2245, 2245, 2246, 2247, 2250, 2250, 2257, 2263, 2264, 2265, 2266, 2266, 2267, 2267, 2267, 2266, 2266, 2266, 2266, 2267, 2266, 2266, 2266, 2266, 2266, 2266, 2271, 2274, 2276, 2279, 2282, 2288, 2291, 2297, 2325, 2326, 2330, 2336, 2347, 2347, 2347, 2352, 2358, 2364, 2367, 2380, 2382, 2384, 2385, 2386, 2386, 2387, 2389, 2404, 2408, 2410, 2414, 2417, 2422, 2424, 2427, 2432, 2436, 2436, 2434, 2433, 2429, 2427, 2428, 2429, 2430, 2430, 2429, 2428, 2428, 2427, 2428, 2427, 2427, 2428, 2430, 2432, 2431, 2429, 2428, 2426, 2426, 2425, 2425, 2426, 2429, 2434, 2434, 2436, 2436, 2443, 2444, 2445, 2445, 2445, 2445, 2445, 2444, 2440, 2435, 2434, 2435, 2438, 2441, 2442, 2442, 2449, 2455, 2456, 2460, 2461, 2461, 2462, 2465, 2465, 2465, 2465, 2465, 2464, 2464, 2464, 2464, 2464, 2464, 2464, 2464, 2464, 2464, 2463, 2462, 2461, 2460, 2459, 2459, 2458, 2458, 2459, 2460, 2460, 2460, 2461, 2462, 2464, 2467, 2471, 2473, 2474, 2474, 2475, 2474, 2472, 2472, 2471, 2461, 2461, 2460, 2460, 2459, 2459, 2460, 2466, 2469, 2468, 2468, 2468, 2466, 2464, 2455, 2455, 2462, 2463, 2464, 2464, 2463, 2462, 2463, 2464, 2464, 2483, 2483, 2484, 2484, 2488, 2489, 2492, 2493, 2493, 2493, 2502, 2505, 2506, 2506, 2506, 2506, 2503, 2505, 2507, 2510, 2510, 2512, 2522, 2522, 2528, 2529, 2532, 2534, 2535, 2537, 2537, 2539, 2539, 2538, 2538, 2543, 2543, 2562, 2563, 2563, 2565, 2567, 2568, 2568, 2567, 2567, 2565, 2565, 2565, 2565, 2567, 2572, 2575, 2575, 2573, 2572, 2572, 2572, 2571, 2569, 2569, 2567, 2565, 2563, 2566, 2564, 2563, 2563, 2559, 2558, 2542, 2543, 2582, 2584, 2584, 2584, 2582, 2582, 2582, 2581, 2578, 2578, 2578, 2576, 2575, 2574, 2570, 2570, 2567, 2561, 2560, 2558, 2558, 2557, 2556, 2556, 2555, 2555, 2555, 2555, 2554, 2554, 2554, 2554, 2553, 2553, 2553, 2553, 2553, 2553, 2553, 2553, 2553, 2549, 2543, 2542, 2542, 2541, 2537, 2537, 2537, 2537, 2538, 2539, 2539, 2540, 2547, 2552, 2555, 2558, 2567, 2569, 2577, 2580, 2583, 2583, 2582, 2582, 2582, 2576, 2571, 2570, 2565, 2564, 2553, 2552, 2537, 2536, 2535, 2531, 2527, 2528, 2528, 2530, 2527, 2526, 2524, 2512, 2511, 2510, 2507, 2501, 2498, 2486, 2483, 2475, 2474, 2459, 2457, 2456, 2455, 2455, 2455, 2454, 2452, 2449, 2448, 2448, 2444, 2444, 2444, 2443, 2442, 2442, 2443, 2442, 2442, 2442, 2444, 2447, 2449, 2451, 2455, 2456, 2459, 2461, 2464, 2470, 2473, 2477, 2482, 2511, 2516, 2519, 2522, 2524, 2524, 2515, 2511, 2507, 2505, 2503, 2503, 2502, 2498, 2498, 2501, 2502, 2502, 2505, 2505, 2505, 2505, 2505, 2504, 2502, 2494, 2491, 2487, 2483, 2482, 2483, 2485, 2485, 2484, 2478, 2473, 2464, 2462, 2463, 2465, 2468, 2474, 2475, 2476, 2477, 2477, 2477, 2475, 2475, 2476, 2477, 2479, 2490, 2490, 2490, 2490, 2489, 2488, 2486, 2485, 2482, 2479, 2467, 2464, 2461, 2461, 2460, 2457, 2456, 2456, 2456, 2457, 2456, 2457, 2457, 2457, 2457, 2457, 2456, 2455, 2445, 2443, 2441, 2434, 2432, 2430, 2419, 2418, 2412, 2411, 2407, 2402, 2398, 2398, 2397, 2398, 2400, 2400, 2399, 2397, 2397, 2395, 2394, 2393, 2401, 2402, 2401, 2401, 2401, 2400, 2396, 2391, 2388, 2386, 2390, 2402, 2408, 2419, 2423, 2424, 2421, 2416, 2410, 2408, 2408, 2408, 2409, 2409, 2409, 2406, 2401, 2398, 2393, 2387, 2381, 2377, 2373, 2370, 2373, 2373, 2373, 2373, 2372, 2371, 2368, 2367, 2365, 2364, 2365, 2376, 2377, 2378, 2378, 2380, 2381, 2381, 2383, 2384, 2384, 2384, 2383, 2380, 2385, 2385, 2386, 2386, 2383, 2386, 2388, 2391, 2393, 2396, 2398, 2401, 2403, 2403, 2403, 2403, 2403, 2400, 2399, 2397, 2397, 2395, 2394, 2391, 2389, 2388, 2386, 2383, 2382, 2379, 2378, 2374, 2371, 2368, 2365, 2363, 2361, 2361, 2364, 2361, 2361, 2362, 2366, 2366, 2366, 2366, 2366, 2365, 2363, 2359, 2358, 2358, 2351, 2350, 2351, 2352, 2356, 2362, 2362, 2362, 2362, 2362]}}, {"type": "Feature", "geometry": {"type": "LineString", "coordinates": [[-100.89874, 34.39884], [-100.89874, 34.39884], [-100.89874, 34.39876], [-100.89871, 34.39876], [-100.89871, 34.3981], [-100.89871, 34.39744], [-100.89873, 34.39655], [-100.89874, 34.39567], [-100.89876, 34.39479], [-100.89876, 34.39405], [-100.89876, 34.39332], [-100.89876, 34.39332], [-100.89876, 34.39332], [-100.89876, 34.39332], [-100.89876, 34.39332], [-100.89816, 34.39332], [-100.89816, 34.39332], [-100.89756, 34.39332], [-100.89758, 34.3938], [-100.8976, 34.3938], [-100.8976, 34.393814], [-100.8976, 34.393814], [-100.8976, 34.394171]]}, "properties": {"surface": "unknown", "label": "Unverified", "color": "#9A9389", "miles": 0.51, "start_mi": 48.24, "end_mi": 48.75, "road": "2nd Street", "elev_ft": [2361, 2361, 2361, 2361, 2357, 2349, 2342, 2341, 2339, 2337, 2335, 2335, 2335, 2335, 2335, 2336, 2336, 2337, 2339, 2339, 2339, 2339, 2339]}}]}