{"type": "FeatureCollection", "features": [{"type": "Feature", "geometry": {"type": "LineString", "coordinates": [[-96.32785, 30.04858], [-96.32793, 30.04863], [-96.32808, 30.04873], [-96.32821, 30.04881], [-96.32837, 30.04891], [-96.32859, 30.04906], [-96.3286399, 30.0491], [-96.32871, 30.04914], [-96.32887, 30.04925], [-96.32903, 30.04937], [-96.32926, 30.04954], [-96.32935, 30.0496], [-96.32951, 30.04971], [-96.32954, 30.04973], [-96.32956, 30.04974], [-96.32982, 30.04993], [-96.32983, 30.04994], [-96.32988, 30.04997], [-96.32999, 30.05005], [-96.3301, 30.05013], [-96.33015, 30.05017], [-96.3302, 30.0502], [-96.33031, 30.05028], [-96.33036, 30.05032], [-96.33067, 30.05054], [-96.33092, 30.05072], [-96.33112, 30.05088], [-96.3313, 30.05102], [-96.33151, 30.0512], [-96.33169, 30.05137], [-96.33171, 30.05139], [-96.33183, 30.05151], [-96.33187, 30.05155], [-96.33189, 30.05157], [-96.33202, 30.05171], [-96.3321799, 30.05187], [-96.33227, 30.05197], [-96.33228, 30.05198], [-96.3326699, 30.05241], [-96.33291, 30.05267], [-96.333, 30.05277], [-96.33305, 30.05283], [-96.33317, 30.05295], [-96.33318, 30.05297], [-96.33328, 30.05307], [-96.33331, 30.05311], [-96.33343, 30.05324], [-96.3335199, 30.05334], [-96.33373, 30.05355], [-96.33395, 30.05375], [-96.33402, 30.05381], [-96.33417, 30.05394], [-96.3344, 30.05409], [-96.33461, 30.05422], [-96.33484, 30.05436], [-96.33495, 30.05441], [-96.33502, 30.05446], [-96.33539, 30.05467], [-96.33554, 30.05475], [-96.33568, 30.05483], [-96.33589, 30.05495], [-96.336, 30.05501], [-96.3360299, 30.05503], [-96.33624, 30.05514], [-96.33648, 30.05528], [-96.3366999, 30.0554], [-96.33702, 30.05558], [-96.33717, 30.05567], [-96.33747, 30.05584], [-96.33758, 30.05592], [-96.3377, 30.05602], [-96.3378, 30.05613], [-96.33784, 30.05619], [-96.33788, 30.05627], [-96.3379099, 30.05631], [-96.33792, 30.05633], [-96.33795, 30.05643], [-96.33796, 30.05649], [-96.33797, 30.05653], [-96.33798, 30.05663], [-96.33798, 30.05667], [-96.33797, 30.05679], [-96.33796, 30.05689], [-96.33793, 30.05702], [-96.33793, 30.05702], [-96.33843, 30.05713], [-96.33852, 30.05715], [-96.33854, 30.05716], [-96.33866, 30.05718], [-96.33872, 30.0572], [-96.33906, 30.05726], [-96.33936, 30.05731], [-96.33963, 30.05734], [-96.33984, 30.05735], [-96.33995, 30.05735], [-96.3399699, 30.05735], [-96.3400599, 30.05735], [-96.34016, 30.05734], [-96.34029, 30.05733], [-96.34056, 30.0573], [-96.34075, 30.05726], [-96.34078, 30.05725], [-96.34079, 30.05725], [-96.3409, 30.05723], [-96.34099, 30.0572], [-96.34116, 30.05715], [-96.34119, 30.05714], [-96.34133, 30.05709], [-96.34146, 30.05704], [-96.34159, 30.05698], [-96.3417599, 30.0569], [-96.34195, 30.05679], [-96.34209, 30.0567], [-96.34228, 30.05658], [-96.34258, 30.05638], [-96.34284, 30.0562], [-96.34289, 30.05617], [-96.34324, 30.05593], [-96.34333, 30.05586], [-96.34348, 30.05575], [-96.34371, 30.0556], [-96.34403, 30.05538], [-96.34409, 30.05534], [-96.34428, 30.05521], [-96.34437, 30.05516], [-96.34454, 30.05506], [-96.34478, 30.05494], [-96.3449, 30.0549], [-96.34509, 30.05483], [-96.3451, 30.05482], [-96.34524, 30.05479], [-96.34548, 30.05473], [-96.34573, 30.0547], [-96.34595, 30.05468], [-96.34636, 30.05466], [-96.34658, 30.05464], [-96.34671, 30.05464], [-96.34698, 30.0546], [-96.3472, 30.05456], [-96.3472, 30.05456]]}, "properties": {"surface": "pavement", "label": "Pavement", "color": "#4A5568", "miles": 1.47, "start_mi": 0.0, "end_mi": 1.47, "road": "Loop 497", "elev_ft": [389, 388, 387, 387, 386, 385, 385, 384, 383, 382, 381, 381, 380, 380, 380, 381, 381, 381, 382, 383, 386, 387, 388, 388, 389, 392, 395, 398, 400, 402, 402, 404, 405, 406, 406, 405, 403, 403, 400, 400, 400, 400, 400, 400, 400, 400, 400, 399, 398, 398, 398, 397, 396, 393, 392, 395, 398, 402, 404, 407, 411, 411, 411, 410, 406, 401, 396, 394, 390, 386, 383, 380, 379, 378, 377, 377, 375, 374, 373, 372, 372, 371, 370, 370, 370, 366, 364, 364, 361, 360, 359, 356, 353, 351, 350, 350, 350, 348, 347, 344, 342, 342, 342, 341, 340, 338, 338, 338, 338, 338, 338, 336, 335, 333, 332, 332, 331, 329, 329, 327, 323, 322, 322, 322, 321, 321, 320, 320, 320, 320, 320, 317, 312, 310, 311, 319, 324, 330, 332, 332]}}, {"type": "Feature", "geometry": {"type": "LineString", "coordinates": [[-96.34725, 30.05465], [-96.34729, 30.05478], [-96.34729, 30.05479], [-96.34732, 30.0549], [-96.34732, 30.05495], [-96.34732, 30.05497], [-96.34732, 30.05499], [-96.34726, 30.05516], [-96.34719, 30.05525], [-96.34711, 30.05533], [-96.34702, 30.05541], [-96.34701, 30.05542], [-96.34686, 30.05555], [-96.34684, 30.05557], [-96.34679, 30.05564], [-96.34676, 30.0557], [-96.3467299, 30.05577], [-96.34674, 30.05614], [-96.3468199, 30.05701], [-96.34686, 30.05724], [-96.34695, 30.05748], [-96.34698, 30.05756], [-96.34717, 30.05798], [-96.34772, 30.05912], [-96.34778, 30.05932], [-96.34784, 30.05951], [-96.34798, 30.06006], [-96.34809, 30.06029], [-96.34817, 30.06043], [-96.34819, 30.06045], [-96.34826, 30.06053], [-96.34854, 30.06081], [-96.34871, 30.06096], [-96.34878, 30.06103], [-96.3492, 30.06146], [-96.3494599, 30.06171], [-96.34953, 30.06182], [-96.34954, 30.06183], [-96.34966, 30.06205], [-96.34969, 30.06213], [-96.3498199, 30.06248], [-96.34983, 30.06249], [-96.34997, 30.06292], [-96.35002, 30.06308], [-96.3501, 30.06335], [-96.35012, 30.06339], [-96.35023, 30.06375], [-96.35024, 30.06378], [-96.35029, 30.06391], [-96.3503099, 30.06404], [-96.3503099, 30.06411], [-96.35029, 30.06416], [-96.35023, 30.06423], [-96.3495, 30.06492], [-96.34936, 30.06505], [-96.34876, 30.06561], [-96.34853, 30.06583], [-96.34848, 30.06589], [-96.34845, 30.06594], [-96.34844, 30.06602], [-96.34845, 30.06615], [-96.34848, 30.06622], [-96.34849, 30.06624], [-96.34857, 30.06632], [-96.34924, 30.06684], [-96.3494, 30.06696], [-96.34985, 30.06732], [-96.3506, 30.06791], [-96.35089, 30.06812], [-96.351, 30.0682], [-96.351, 30.0682], [-96.35155, 30.06781], [-96.35252, 30.06713], [-96.3535, 30.06644], [-96.3543, 30.06587], [-96.35465, 30.06562], [-96.35469, 30.0656], [-96.35479, 30.06559], [-96.35486, 30.0656], [-96.35496, 30.06565], [-96.35514, 30.0658], [-96.35536, 30.06598], [-96.3556, 30.06617], [-96.3558, 30.06632], [-96.3559, 30.0664], [-96.35614, 30.06659], [-96.3562199, 30.06664], [-96.35638, 30.06675], [-96.35666, 30.06689], [-96.35674, 30.06693], [-96.35704, 30.06708], [-96.35717, 30.06713], [-96.3573, 30.06715], [-96.35745, 30.06713], [-96.35808, 30.06704], [-96.3583699, 30.06699], [-96.35849, 30.06695], [-96.35851, 30.06693], [-96.35857, 30.06689], [-96.3589, 30.06661], [-96.35896, 30.06655], [-96.35911, 30.06641], [-96.35915, 30.06639], [-96.3592, 30.06637], [-96.35923, 30.06637], [-96.35925, 30.06637], [-96.35928, 30.06637], [-96.35935, 30.0664], [-96.35948, 30.06648], [-96.3595, 30.06649], [-96.35974, 30.06669], [-96.3598899, 30.06681], [-96.36064, 30.06743], [-96.36076, 30.06753], [-96.36096, 30.06766], [-96.36104, 30.06771], [-96.36113, 30.06774], [-96.36122, 30.06775], [-96.36135, 30.06773], [-96.3614, 30.06772], [-96.36201, 30.06742], [-96.36282, 30.06707], [-96.36319, 30.06691], [-96.3634299, 30.06679], [-96.36363, 30.06666], [-96.36376, 30.06653], [-96.36385, 30.06641], [-96.36391, 30.06633], [-96.36432, 30.06572], [-96.36434, 30.06569], [-96.3644, 30.06561], [-96.36467, 30.06524], [-96.36509, 30.06466], [-96.36523, 30.06452], [-96.36533, 30.06443], [-96.36535, 30.0644], [-96.36556, 30.06428], [-96.36573, 30.06418], [-96.36603, 30.06401], [-96.36605, 30.064], [-96.36615, 30.06396], [-96.36662, 30.06378], [-96.36668, 30.06375], [-96.36741, 30.06347], [-96.36763, 30.06338], [-96.36794, 30.06326], [-96.36825, 30.06312], [-96.36857, 30.06299], [-96.36867, 30.06294], [-96.36937, 30.06261], [-96.36939, 30.0626], [-96.3700999, 30.06222], [-96.37024, 30.06215], [-96.37062, 30.06192], [-96.37064, 30.06191], [-96.37072, 30.06184], [-96.37084, 30.06175], [-96.37091, 30.06166], [-96.3709499, 30.06161], [-96.37106, 30.06145], [-96.37118, 30.06129], [-96.37124, 30.06122], [-96.37125, 30.06121], [-96.37143, 30.06106], [-96.37156, 30.06097], [-96.37168, 30.06089], [-96.37187, 30.0608], [-96.37221, 30.0607], [-96.37253, 30.06062], [-96.37275, 30.06059], [-96.3729199, 30.06058], [-96.37308, 30.06059], [-96.37333, 30.06061], [-96.3734, 30.06062], [-96.3738599, 30.06068], [-96.3742199, 30.0607], [-96.3743, 30.06069], [-96.37433, 30.06068], [-96.37449, 30.06059], [-96.37461, 30.06048], [-96.37509, 30.05997], [-96.37552, 30.05963], [-96.3757399, 30.05952], [-96.37581, 30.0595], [-96.37627, 30.05935], [-96.3767, 30.05922], [-96.3767, 30.05922], [-96.37724, 30.05904], [-96.37724, 30.05904], [-96.37744, 30.05929]]}, "properties": {"surface": "caliche", "label": "Caliche / gravel", "color": "#C98A24", "miles": 3.08, "start_mi": 1.47, "end_mi": 4.55, "road": "Rocky Road", "elev_ft": [333, 334, 334, 335, 335, 335, 335, 335, 334, 333, 331, 331, 328, 327, 326, 326, 325, 325, 322, 323, 322, 322, 323, 331, 331, 331, 333, 334, 335, 335, 336, 341, 342, 342, 342, 343, 342, 342, 343, 343, 347, 347, 350, 351, 353, 354, 358, 358, 359, 360, 360, 360, 361, 366, 366, 368, 368, 368, 369, 370, 371, 371, 372, 373, 379, 380, 382, 382, 381, 381, 381, 377, 367, 364, 363, 359, 359, 358, 357, 356, 353, 349, 345, 342, 340, 338, 337, 335, 333, 332, 328, 327, 325, 325, 325, 323, 324, 324, 325, 325, 325, 330, 330, 331, 332, 332, 333, 333, 333, 333, 328, 325, 307, 304, 297, 294, 291, 291, 291, 291, 285, 282, 283, 287, 287, 288, 290, 291, 290, 290, 290, 286, 281, 278, 270, 270, 280, 282, 283, 284, 284, 285, 285, 284, 281, 278, 275, 278, 278, 277, 277, 275, 277, 281, 281, 281, 281, 279, 277, 271, 268, 268, 268, 267, 266, 266, 265, 263, 262, 262, 262, 262, 262, 262, 262, 261, 260, 260, 259, 258, 254, 251, 252, 252, 256, 259, 259, 260, 260, 266]}}, {"type": "Feature", "geometry": {"type": "LineString", "coordinates": [[-96.37783, 30.05979], [-96.37787, 30.05984], [-96.3778899, 30.06007], [-96.3779, 30.06013], [-96.37792, 30.06043], [-96.37793, 30.06052], [-96.37779, 30.0608], [-96.37784, 30.06131], [-96.37785, 30.06134], [-96.37786, 30.06136], [-96.378, 30.06155], [-96.37806, 30.0618], [-96.37812, 30.06204], [-96.37815, 30.06215], [-96.37818, 30.0623], [-96.37826, 30.06236], [-96.37848, 30.06252], [-96.37853, 30.06255], [-96.37878, 30.06265], [-96.37891, 30.0627], [-96.37942, 30.06304], [-96.37989, 30.06332], [-96.38005, 30.06344], [-96.38013, 30.06348], [-96.38016, 30.06349], [-96.38026, 30.06352], [-96.3804399, 30.06355], [-96.38074, 30.0636], [-96.3807999, 30.06361], [-96.38122, 30.0637], [-96.38176, 30.06378], [-96.38215, 30.06384], [-96.38297, 30.06401], [-96.3831, 30.06404], [-96.3837999, 30.06412], [-96.38404, 30.06415], [-96.38421, 30.06412], [-96.38452, 30.06406], [-96.38463, 30.06408], [-96.3847399, 30.06411], [-96.3849, 30.0641], [-96.38517, 30.06403], [-96.38523, 30.064], [-96.3854, 30.06392], [-96.38547, 30.06392], [-96.3856, 30.06394], [-96.38561, 30.06395], [-96.38573, 30.06399], [-96.38585, 30.06405], [-96.38605, 30.06421], [-96.38623, 30.06432], [-96.38633, 30.06435], [-96.38633, 30.06435], [-96.38632, 30.06432], [-96.38633, 30.06428], [-96.38634, 30.0642], [-96.38636, 30.06415], [-96.3864, 30.0641], [-96.3865, 30.06399], [-96.38698, 30.06349], [-96.38718, 30.06329], [-96.38718, 30.06329]]}, "properties": {"surface": "unknown", "label": "Unverified", "color": "#9A9389", "miles": 0.8, "start_mi": 4.55, "end_mi": 5.35, "road": "New Wehdem Road", "elev_ft": [272, 273, 274, 274, 275, 275, 274, 274, 274, 274, 275, 277, 282, 283, 284, 287, 290, 291, 295, 297, 313, 328, 331, 331, 331, 332, 333, 335, 336, 340, 343, 342, 341, 341, 338, 338, 338, 339, 340, 340, 341, 342, 342, 343, 343, 343, 343, 344, 344, 344, 344, 344, 344, 344, 344, 344, 344, 345, 345, 344, 343, 343]}}, {"type": "Feature", "geometry": {"type": "LineString", "coordinates": [[-96.38727, 30.06319], [-96.3876499, 30.06283], [-96.38861, 30.06188], [-96.3893, 30.06121], [-96.38957, 30.06094], [-96.39012, 30.0604], [-96.39054, 30.05999], [-96.3907, 30.05983], [-96.39071, 30.05982], [-96.39077, 30.0598], [-96.39084, 30.05979], [-96.39087, 30.05979], [-96.3909, 30.0598], [-96.39093, 30.05982], [-96.39117, 30.06001], [-96.39127, 30.06009], [-96.3914099, 30.06022], [-96.39148, 30.06028], [-96.3916, 30.06035], [-96.39162, 30.06036], [-96.39165, 30.06037], [-96.3916799, 30.06037], [-96.39174, 30.06037], [-96.39176, 30.06036], [-96.39179, 30.06035], [-96.39184, 30.06032], [-96.39206, 30.06011], [-96.39247, 30.0597], [-96.39343, 30.05876], [-96.39402, 30.05818], [-96.39427, 30.05796], [-96.3944999, 30.05775]]}, "properties": {"surface": "two_track", "label": "Ranch two-track", "color": "#6B5A45", "miles": 0.63, "start_mi": 5.35, "end_mi": 5.99, "road": "Bleiblerville Road", "elev_ft": [344, 345, 339, 342, 343, 337, 331, 328, 328, 328, 327, 327, 327, 327, 330, 331, 333, 334, 335, 335, 336, 336, 336, 336, 337, 337, 337, 338, 329, 324, 324, 324]}}, {"type": "Feature", "geometry": {"type": "LineString", "coordinates": [[-96.39456, 30.0577], [-96.39456, 30.0577], [-96.39467, 30.0578], [-96.39501, 30.05807], [-96.3956199, 30.05856], [-96.39624, 30.05904], [-96.39627, 30.05907], [-96.39718, 30.05975], [-96.39749, 30.05999], [-96.39758, 30.06006], [-96.39776, 30.06021], [-96.39804, 30.06042], [-96.39809, 30.06049], [-96.3981, 30.06049], [-96.39813, 30.06056], [-96.39814, 30.06067], [-96.39813, 30.06073], [-96.3981, 30.06078], [-96.39806, 30.06082], [-96.39779, 30.06109], [-96.39757, 30.0613], [-96.39748, 30.06138], [-96.39729, 30.06157], [-96.39728, 30.06158], [-96.39702, 30.06184], [-96.39688, 30.06197], [-96.3966, 30.06224], [-96.39646, 30.06238], [-96.39634, 30.0625], [-96.39633, 30.06251], [-96.39619, 30.06265], [-96.39604, 30.06278], [-96.3956199, 30.06318], [-96.39534, 30.06344], [-96.39506, 30.06371], [-96.39478, 30.06397], [-96.3947, 30.06405], [-96.3943199, 30.06442], [-96.39409, 30.06464], [-96.39363, 30.06509], [-96.39268, 30.06604], [-96.3925, 30.06621], [-96.39211, 30.06657], [-96.39207, 30.06661], [-96.39184, 30.06684], [-96.39138, 30.0673], [-96.3912, 30.06748], [-96.39099, 30.06768], [-96.39096, 30.06773], [-96.39095, 30.06777], [-96.39094, 30.06781], [-96.39094, 30.06811], [-96.39094, 30.06818], [-96.39094, 30.06818], [-96.39096, 30.06821], [-96.39096, 30.06824], [-96.39096, 30.06827], [-96.39095, 30.06832], [-96.39093, 30.06838], [-96.3909, 30.06843], [-96.39067, 30.06867], [-96.39025, 30.06906], [-96.38983, 30.06945], [-96.38951, 30.06975], [-96.38948, 30.06978], [-96.38931, 30.06993], [-96.38918, 30.07004], [-96.38902, 30.07018], [-96.38899, 30.07021], [-96.38897, 30.07023], [-96.38875, 30.07045], [-96.38806, 30.07113], [-96.38779, 30.0714], [-96.38733, 30.07185], [-96.38693, 30.07223], [-96.38678, 30.07235], [-96.38665, 30.07243], [-96.38658, 30.07245], [-96.38649, 30.07246], [-96.38641, 30.07245], [-96.3863499, 30.07243], [-96.38621, 30.07233], [-96.38615, 30.07229], [-96.38544, 30.07173], [-96.38513, 30.07148], [-96.3851, 30.07146], [-96.38507, 30.07144], [-96.385, 30.07141], [-96.38495, 30.07139], [-96.38488, 30.07137], [-96.3846499, 30.07132], [-96.38455, 30.07132], [-96.38372, 30.07128], [-96.38247, 30.07123], [-96.38185, 30.07122], [-96.38167, 30.07122], [-96.38157, 30.07123], [-96.3814699, 30.07126], [-96.38144, 30.07127], [-96.38134, 30.07132], [-96.38121, 30.07142], [-96.38113, 30.07149], [-96.38037, 30.07221], [-96.3798, 30.07275], [-96.37945, 30.07308], [-96.37875, 30.07374], [-96.3781, 30.07435], [-96.37805, 30.0744], [-96.37776, 30.07467], [-96.3775299, 30.07488], [-96.3775299, 30.07488], [-96.37763, 30.07503], [-96.37765, 30.07506], [-96.37765, 30.07507], [-96.37765, 30.07509], [-96.37765, 30.0751], [-96.37764, 30.07512], [-96.37761, 30.07514], [-96.37756, 30.07518], [-96.37751, 30.07523], [-96.37744, 30.07527], [-96.37744, 30.07527], [-96.37735, 30.07532], [-96.3773, 30.07535], [-96.37725, 30.07536], [-96.37719, 30.07534], [-96.3771, 30.0753], [-96.3771, 30.0753], [-96.37678, 30.0756], [-96.3764999, 30.07587], [-96.3758, 30.07653], [-96.37543, 30.07689], [-96.37538, 30.07693], [-96.3751, 30.07719], [-96.37481, 30.07745], [-96.37439, 30.07785], [-96.37382, 30.07838], [-96.37361, 30.07858], [-96.37349, 30.07869], [-96.37348, 30.07871], [-96.37341, 30.07878], [-96.37313, 30.07906], [-96.37304, 30.07915], [-96.37284, 30.07932], [-96.37233, 30.07981], [-96.37191, 30.08021], [-96.37182, 30.0803], [-96.37164, 30.08046], [-96.37149, 30.0806], [-96.37147, 30.08062], [-96.37135, 30.08073], [-96.37107, 30.08099], [-96.3710399, 30.08103], [-96.37064, 30.0814], [-96.37044, 30.08159], [-96.37027, 30.08177], [-96.37027, 30.08177], [-96.37006, 30.08162], [-96.36984, 30.08145], [-96.36949, 30.08118], [-96.36937, 30.08108], [-96.3688899, 30.08068], [-96.36861, 30.08044], [-96.36841, 30.08028], [-96.36836, 30.08024], [-96.36794, 30.07991], [-96.36721, 30.07935], [-96.3669, 30.0791], [-96.36665, 30.0789], [-96.36659, 30.07887], [-96.36652, 30.07883], [-96.3664, 30.0788], [-96.36626, 30.07881], [-96.36578, 30.0789], [-96.36558, 30.07893], [-96.36532, 30.07897], [-96.36483, 30.07905], [-96.36452, 30.07913], [-96.36452, 30.07913]]}, "properties": {"surface": "unknown", "label": "Unverified", "color": "#9A9389", "miles": 3.15, "start_mi": 5.99, "end_mi": 9.13, "road": "New Wehdem Road", "elev_ft": [324, 324, 325, 328, 334, 337, 337, 334, 333, 333, 332, 329, 329, 329, 329, 330, 330, 331, 331, 332, 331, 331, 328, 328, 320, 315, 303, 299, 298, 298, 299, 304, 320, 329, 332, 327, 326, 324, 326, 332, 313, 316, 319, 319, 318, 305, 300, 300, 300, 301, 302, 308, 308, 308, 308, 308, 308, 309, 309, 311, 319, 332, 342, 347, 347, 347, 347, 347, 347, 347, 346, 334, 333, 335, 332, 331, 331, 331, 331, 332, 332, 337, 339, 353, 357, 358, 358, 358, 358, 357, 356, 355, 346, 328, 313, 310, 310, 309, 309, 309, 311, 313, 338, 351, 356, 368, 379, 380, 381, 378, 378, 378, 378, 378, 378, 378, 377, 377, 376, 376, 375, 375, 374, 373, 372, 372, 371, 371, 365, 361, 353, 353, 353, 358, 364, 374, 384, 385, 386, 385, 385, 383, 382, 380, 373, 372, 373, 375, 377, 377, 379, 383, 383, 389, 391, 393, 393, 393, 393, 392, 392, 390, 389, 389, 389, 390, 390, 390, 390, 390, 390, 391, 392, 396, 397, 397, 396, 392, 392]}}, {"type": "Feature", "geometry": {"type": "LineString", "coordinates": [[-96.36454, 30.07907], [-96.36454, 30.07905], [-96.36454, 30.079], [-96.36453, 30.07897], [-96.36452, 30.07894], [-96.36449, 30.07891], [-96.36373, 30.07831], [-96.3634299, 30.07807], [-96.36297, 30.07771], [-96.36258, 30.0774], [-96.36219, 30.07709], [-96.36061, 30.07583], [-96.36036, 30.07564], [-96.35972, 30.07513], [-96.35937, 30.07485], [-96.3593, 30.07479], [-96.35857, 30.0742], [-96.35836, 30.07399], [-96.35826, 30.07391], [-96.35702, 30.07296], [-96.35702, 30.07296], [-96.35668, 30.07331], [-96.35662, 30.07338], [-96.35614, 30.07393], [-96.35612, 30.07396], [-96.35591, 30.07419], [-96.35577, 30.07436], [-96.35556, 30.07453], [-96.35523, 30.07477], [-96.35503, 30.0749], [-96.35497, 30.07493], [-96.35493, 30.07496], [-96.35428, 30.07535], [-96.35422, 30.07538], [-96.35388, 30.07558], [-96.35306, 30.07605], [-96.35301, 30.07608], [-96.35286, 30.07619], [-96.35229, 30.07664], [-96.35183, 30.077], [-96.35163, 30.07714], [-96.35149, 30.0772], [-96.3513, 30.07723], [-96.351, 30.07725], [-96.34995, 30.0773], [-96.34971, 30.07731], [-96.34951, 30.07733], [-96.3493699, 30.07733], [-96.34924, 30.07734], [-96.34922, 30.07734], [-96.34891, 30.07735], [-96.34891, 30.07735], [-96.34882, 30.07719], [-96.34867, 30.07694]]}, "properties": {"surface": "caliche", "label": "Caliche / gravel", "color": "#C98A24", "miles": 1.25, "start_mi": 9.13, "end_mi": 10.39, "road": "Dabney Road", "elev_ft": [392, 392, 392, 392, 392, 392, 391, 390, 385, 382, 378, 357, 352, 340, 333, 332, 320, 317, 316, 316, 316, 319, 319, 326, 327, 328, 327, 326, 327, 328, 329, 329, 335, 336, 338, 345, 346, 347, 351, 352, 353, 355, 357, 359, 369, 370, 371, 371, 371, 371, 370, 370, 371, 371]}}, {"type": "Feature", "geometry": {"type": "LineString", "coordinates": [[-96.34867, 30.07694], [-96.34856, 30.077], [-96.34847, 30.07703], [-96.34838, 30.07704], [-96.34807, 30.07701], [-96.34801, 30.077], [-96.34787, 30.07696], [-96.34748, 30.07684], [-96.34654, 30.07652], [-96.34598, 30.07633], [-96.34593, 30.07631], [-96.34577, 30.07625], [-96.34571, 30.07623], [-96.34537, 30.07611], [-96.34536, 30.07611], [-96.34527, 30.07606], [-96.34518, 30.07604], [-96.34514, 30.07603], [-96.34511, 30.07602], [-96.34508, 30.07602], [-96.34505, 30.07603], [-96.34495, 30.07607], [-96.34492, 30.07608], [-96.3449, 30.0761], [-96.34483, 30.07616], [-96.34482, 30.07618], [-96.3448, 30.07619], [-96.34452, 30.07652], [-96.34418, 30.07686], [-96.34408, 30.07696], [-96.34369, 30.07737], [-96.34358, 30.07749], [-96.34307, 30.07808], [-96.34283, 30.07833], [-96.34281, 30.07834], [-96.3427899, 30.07835], [-96.34268, 30.07839], [-96.34256, 30.07841], [-96.34156, 30.07858], [-96.34154, 30.07858], [-96.34128, 30.07862], [-96.34031, 30.07877], [-96.3396999, 30.07887], [-96.3386699, 30.07902], [-96.33827, 30.07909], [-96.33776, 30.07917], [-96.33765, 30.07918], [-96.33719, 30.07925], [-96.33663, 30.07934], [-96.33622, 30.07941], [-96.33563, 30.0795], [-96.33543, 30.07954], [-96.33543, 30.07954], [-96.33534, 30.07917], [-96.33521, 30.07864], [-96.33487, 30.07705], [-96.33486, 30.07697], [-96.33483, 30.07677], [-96.33484, 30.07669], [-96.33486, 30.07648], [-96.33487, 30.07645], [-96.33488, 30.07636], [-96.3349999, 30.07585], [-96.33502, 30.07568], [-96.33504, 30.07557], [-96.33501, 30.07544], [-96.33499, 30.07529], [-96.33495, 30.07513], [-96.33485, 30.07476], [-96.33477, 30.07451], [-96.33463, 30.07401], [-96.33452, 30.07363], [-96.33433, 30.07291], [-96.33419, 30.07241], [-96.33401, 30.0717], [-96.33394, 30.07142], [-96.33378, 30.07082], [-96.33364, 30.07028], [-96.33362, 30.0702], [-96.33346, 30.06963], [-96.33345, 30.06958], [-96.33341, 30.06943], [-96.33341, 30.06933], [-96.33345, 30.06926], [-96.33351, 30.0692], [-96.3337899, 30.06911], [-96.33384, 30.0691], [-96.33426, 30.06904], [-96.33446, 30.069], [-96.33471, 30.06896], [-96.33507, 30.0689], [-96.33527, 30.06886], [-96.33588, 30.06877], [-96.33589, 30.06877], [-96.33644, 30.06868], [-96.33691, 30.0686], [-96.33711, 30.06856], [-96.3375499, 30.0685], [-96.33793, 30.06843], [-96.33795, 30.06842], [-96.33829, 30.06837], [-96.33833, 30.06835], [-96.33839, 30.06833], [-96.33842, 30.06827], [-96.33844, 30.06821], [-96.33845, 30.06819], [-96.33839, 30.06806], [-96.33789, 30.06766], [-96.33721, 30.06714], [-96.33651, 30.0666], [-96.33623, 30.06637], [-96.33559, 30.06589], [-96.33451, 30.06504], [-96.33436, 30.06492], [-96.33419, 30.06478], [-96.3341, 30.06471], [-96.33408, 30.0647], [-96.33382, 30.06449], [-96.33322, 30.064], [-96.33246, 30.06339], [-96.33233, 30.06328], [-96.33214, 30.06316], [-96.33181, 30.06297], [-96.33177, 30.06294], [-96.3317299, 30.0629], [-96.33167, 30.06284], [-96.33162, 30.06278], [-96.33159, 30.06272], [-96.33153, 30.06259], [-96.33151, 30.06252], [-96.33147, 30.0624], [-96.33134, 30.06186], [-96.33125, 30.06147], [-96.33114, 30.06102], [-96.33108, 30.06077], [-96.33077, 30.05942], [-96.3306999, 30.05907], [-96.3306099, 30.05883], [-96.3306099, 30.05883], [-96.33059, 30.05874], [-96.33057, 30.05865], [-96.33055, 30.05856], [-96.33053, 30.05847], [-96.3305, 30.05835], [-96.33041, 30.05794], [-96.33039, 30.05786], [-96.33037, 30.05777], [-96.33033, 30.05759], [-96.33031, 30.0575], [-96.3303, 30.05741], [-96.33024, 30.05715], [-96.33018, 30.05688], [-96.33015, 30.05674], [-96.33, 30.05609], [-96.32991, 30.05571], [-96.32975, 30.05499], [-96.32957, 30.05425], [-96.32951, 30.05395], [-96.32939, 30.05342], [-96.32926, 30.05278], [-96.32914, 30.05225], [-96.32914, 30.05222], [-96.32906, 30.0519], [-96.32904, 30.0518], [-96.32894, 30.05134], [-96.3289099, 30.05119], [-96.32885, 30.05084], [-96.32881, 30.05061], [-96.32877, 30.05048], [-96.32866, 30.0501], [-96.32859, 30.04992], [-96.32849, 30.04972], [-96.32847, 30.04968], [-96.32845, 30.04964], [-96.3283299, 30.04951], [-96.32812, 30.04938], [-96.32777, 30.04921], [-96.32763, 30.04913], [-96.32733, 30.04897], [-96.32717, 30.04887], [-96.32708, 30.04882], [-96.32708, 30.04882], [-96.32707, 30.04874], [-96.32705, 30.04857], [-96.32707, 30.04851], [-96.32707, 30.0485], [-96.3271199, 30.04842], [-96.32713, 30.0484], [-96.32724, 30.04827], [-96.32727, 30.04824], [-96.32727, 30.04824], [-96.32762, 30.04844], [-96.3277899, 30.04854], [-96.32782, 30.04856]]}, "properties": {"surface": "unknown", "label": "Unverified", "color": "#9A9389", "miles": 3.6, "start_mi": 10.39, "end_mi": 13.99, "road": "Phillipsburg Church Road", "elev_ft": [371, 371, 370, 370, 370, 370, 370, 373, 382, 387, 387, 389, 390, 391, 391, 391, 390, 390, 389, 389, 389, 388, 387, 387, 386, 386, 385, 382, 379, 378, 377, 378, 382, 382, 382, 382, 381, 381, 370, 370, 367, 362, 353, 341, 338, 339, 340, 344, 346, 346, 340, 338, 338, 336, 338, 318, 317, 314, 313, 305, 305, 304, 319, 322, 325, 330, 331, 335, 345, 349, 355, 360, 368, 373, 375, 375, 370, 367, 366, 358, 358, 356, 354, 353, 352, 348, 348, 342, 341, 341, 345, 347, 353, 353, 360, 366, 369, 375, 382, 382, 386, 386, 386, 385, 385, 384, 381, 371, 363, 350, 347, 338, 356, 359, 362, 363, 363, 360, 350, 331, 329, 325, 316, 315, 315, 315, 316, 318, 321, 323, 327, 339, 344, 353, 357, 374, 377, 378, 378, 379, 381, 383, 386, 390, 402, 404, 405, 407, 408, 410, 411, 410, 408, 405, 403, 401, 394, 389, 381, 381, 384, 384, 384, 384, 380, 379, 373, 371, 372, 378, 380, 382, 382, 382, 385, 388, 391, 394, 397, 397, 397, 397, 395, 393, 393, 392, 391, 391, 390, 390, 390, 390, 389, 389]}}]}