{"type": "FeatureCollection", "features": [{"type": "Feature", "geometry": {"type": "LineString", "coordinates": [[-96.328, 30.04867], [-96.32808, 30.04873], [-96.32821, 30.04881], [-96.32837, 30.04891], [-96.32859, 30.04906], [-96.3286399, 30.0491], [-96.32871, 30.04914], [-96.32887, 30.04925], [-96.32903, 30.04937], [-96.32926, 30.04954], [-96.32935, 30.0496], [-96.32951, 30.04971], [-96.32954, 30.04973], [-96.32956, 30.04974], [-96.32982, 30.04993], [-96.32983, 30.04994], [-96.32988, 30.04997], [-96.32999, 30.05005], [-96.3301, 30.05013], [-96.33015, 30.05017], [-96.3302, 30.0502], [-96.33031, 30.05028], [-96.33036, 30.05032], [-96.33067, 30.05054], [-96.33092, 30.05072], [-96.33112, 30.05088], [-96.3313, 30.05102], [-96.33151, 30.0512], [-96.33169, 30.05137], [-96.33171, 30.05139], [-96.33183, 30.05151], [-96.33187, 30.05155], [-96.33189, 30.05157], [-96.33202, 30.05171], [-96.3321799, 30.05187], [-96.33227, 30.05197], [-96.33228, 30.05198], [-96.3326699, 30.05241], [-96.33291, 30.05267], [-96.333, 30.05277], [-96.33305, 30.05283], [-96.33317, 30.05295], [-96.33318, 30.05297], [-96.33328, 30.05307], [-96.33331, 30.05311], [-96.33343, 30.05324], [-96.3335199, 30.05334], [-96.33373, 30.05355], [-96.33395, 30.05375], [-96.33402, 30.05381], [-96.33417, 30.05394], [-96.3344, 30.05409], [-96.33461, 30.05422], [-96.33484, 30.05436], [-96.33495, 30.05441], [-96.33502, 30.05446], [-96.33539, 30.05467], [-96.33554, 30.05475], [-96.33589, 30.05495], [-96.336, 30.05501], [-96.33624, 30.05514], [-96.33648, 30.05528], [-96.3366999, 30.0554], [-96.33702, 30.05558], [-96.33717, 30.05567], [-96.33747, 30.05584], [-96.33758, 30.05592], [-96.3377, 30.05602], [-96.3378, 30.05613], [-96.33784, 30.05619], [-96.33788, 30.05627], [-96.3379099, 30.05631], [-96.33792, 30.05633], [-96.33795, 30.05643], [-96.33796, 30.05649], [-96.33797, 30.05653], [-96.33798, 30.05663], [-96.33798, 30.05667], [-96.33797, 30.05679], [-96.33796, 30.05689], [-96.33793, 30.05702], [-96.33793, 30.05702], [-96.33852, 30.05715], [-96.33854, 30.05716], [-96.33866, 30.05718], [-96.33872, 30.0572], [-96.33906, 30.05726], [-96.33936, 30.05731], [-96.33963, 30.05734], [-96.33984, 30.05735], [-96.33995, 30.05735], [-96.3399699, 30.05735], [-96.3400599, 30.05735], [-96.34016, 30.05734], [-96.34029, 30.05733], [-96.34056, 30.0573], [-96.34075, 30.05726], [-96.34078, 30.05725], [-96.34079, 30.05725], [-96.3409, 30.05723], [-96.34099, 30.0572], [-96.34116, 30.05715], [-96.34119, 30.05714], [-96.34127, 30.05711], [-96.34133, 30.05709], [-96.34146, 30.05704], [-96.34159, 30.05698], [-96.3417599, 30.0569], [-96.34195, 30.05679], [-96.34209, 30.0567], [-96.34228, 30.05658], [-96.34258, 30.05638], [-96.34284, 30.0562], [-96.34289, 30.05617], [-96.34324, 30.05593], [-96.34333, 30.05586], [-96.34348, 30.05575], [-96.34371, 30.0556], [-96.34403, 30.05538], [-96.34409, 30.05534], [-96.34428, 30.05521], [-96.34437, 30.05516], [-96.34454, 30.05506], [-96.34478, 30.05494], [-96.3449, 30.0549], [-96.34509, 30.05483], [-96.3451, 30.05482], [-96.34524, 30.05479], [-96.34548, 30.05473], [-96.34573, 30.0547], [-96.34595, 30.05468], [-96.34636, 30.05466], [-96.34658, 30.05464], [-96.34671, 30.05464], [-96.34698, 30.0546], [-96.3472, 30.05456], [-96.3472, 30.05456]]}, "properties": {"surface": "pavement", "label": "Pavement", "color": "#4A5568", "miles": 1.46, "start_mi": 0.0, "end_mi": 1.46, "road": "Loop 497", "elev_ft": [388, 387, 387, 386, 385, 385, 384, 383, 382, 381, 381, 380, 380, 380, 381, 381, 381, 382, 383, 386, 387, 388, 388, 389, 392, 395, 398, 400, 402, 402, 404, 405, 406, 406, 405, 403, 403, 400, 400, 400, 400, 400, 400, 400, 400, 400, 399, 398, 398, 398, 397, 396, 393, 392, 395, 398, 402, 404, 411, 411, 410, 406, 401, 396, 394, 390, 386, 383, 380, 379, 378, 377, 377, 375, 374, 373, 372, 372, 371, 370, 370, 370, 364, 364, 361, 360, 359, 356, 353, 351, 350, 350, 350, 348, 347, 344, 342, 342, 342, 341, 340, 338, 338, 338, 338, 338, 338, 338, 336, 335, 333, 332, 332, 331, 329, 329, 327, 323, 322, 322, 322, 321, 321, 320, 320, 320, 320, 320, 317, 312, 310, 311, 319, 324, 330, 332, 332]}}, {"type": "Feature", "geometry": {"type": "LineString", "coordinates": [[-96.34725, 30.05465], [-96.34729, 30.05478], [-96.34729, 30.05479], [-96.34732, 30.0549], [-96.34732, 30.05495], [-96.34732, 30.05497], [-96.34732, 30.05499], [-96.34726, 30.05516], [-96.34719, 30.05525], [-96.34711, 30.05533], [-96.34702, 30.05541], [-96.34701, 30.05542], [-96.34686, 30.05555], [-96.34684, 30.05557], [-96.34679, 30.05564], [-96.34676, 30.0557], [-96.3467299, 30.05577], [-96.34674, 30.05614], [-96.3468199, 30.05701], [-96.34686, 30.05724], [-96.34695, 30.05748], [-96.34698, 30.05756], [-96.34717, 30.05798], [-96.34772, 30.05912], [-96.34778, 30.05932], [-96.34784, 30.05951], [-96.34798, 30.06006], [-96.34809, 30.06029], [-96.34817, 30.06043], [-96.34819, 30.06045], [-96.34826, 30.06053], [-96.34854, 30.06081], [-96.34871, 30.06096], [-96.34878, 30.06103], [-96.3492, 30.06146], [-96.3494599, 30.06171], [-96.34953, 30.06182], [-96.34954, 30.06183], [-96.34966, 30.06205], [-96.34969, 30.06213], [-96.3498199, 30.06248], [-96.34983, 30.06249], [-96.34997, 30.06292], [-96.35002, 30.06308], [-96.3501, 30.06335], [-96.35012, 30.06339], [-96.35023, 30.06375], [-96.35024, 30.06378], [-96.35029, 30.06391], [-96.3503099, 30.06404], [-96.3503099, 30.06411], [-96.35029, 30.06416], [-96.35023, 30.06423], [-96.3495, 30.06492], [-96.34876, 30.06561], [-96.34853, 30.06583], [-96.34848, 30.06589], [-96.34845, 30.06594], [-96.34844, 30.06602], [-96.34845, 30.06615], [-96.34848, 30.06622], [-96.34849, 30.06624], [-96.34857, 30.06632], [-96.34924, 30.06684], [-96.3494, 30.06696], [-96.34985, 30.06732], [-96.3506, 30.06791], [-96.35089, 30.06812], [-96.351, 30.0682], [-96.351, 30.0682], [-96.35155, 30.06781], [-96.35252, 30.06713], [-96.35293, 30.06683], [-96.3535, 30.06644], [-96.3543, 30.06587], [-96.35465, 30.06562], [-96.35469, 30.0656], [-96.35479, 30.06559], [-96.35486, 30.0656], [-96.35496, 30.06565], [-96.35514, 30.0658], [-96.35536, 30.06598], [-96.3556, 30.06617], [-96.3558, 30.06632], [-96.3559, 30.0664], [-96.35614, 30.06659], [-96.3562199, 30.06664], [-96.35638, 30.06675], [-96.35666, 30.06689], [-96.35674, 30.06693], [-96.35704, 30.06708], [-96.35717, 30.06713], [-96.3573, 30.06715], [-96.35745, 30.06713], [-96.35808, 30.06704], [-96.3583699, 30.06699], [-96.35849, 30.06695], [-96.35851, 30.06693], [-96.35857, 30.06689], [-96.3589, 30.06661], [-96.35896, 30.06655], [-96.35911, 30.06641], [-96.35915, 30.06639], [-96.3592, 30.06637], [-96.35923, 30.06637], [-96.35925, 30.06637], [-96.35928, 30.06637], [-96.35935, 30.0664], [-96.35948, 30.06648], [-96.3595, 30.06649], [-96.35974, 30.06669], [-96.3598899, 30.06681], [-96.36064, 30.06743], [-96.36076, 30.06753], [-96.36096, 30.06766], [-96.36104, 30.06771], [-96.36113, 30.06774], [-96.36122, 30.06775], [-96.36135, 30.06773], [-96.3614, 30.06772], [-96.36201, 30.06742], [-96.36282, 30.06707], [-96.36319, 30.06691], [-96.3634299, 30.06679], [-96.36363, 30.06666], [-96.36376, 30.06653], [-96.36385, 30.06641], [-96.36391, 30.06633], [-96.36432, 30.06572], [-96.36434, 30.06569], [-96.3644, 30.06561], [-96.36467, 30.06524], [-96.36509, 30.06466], [-96.36523, 30.06452], [-96.36533, 30.06443], [-96.36535, 30.0644], [-96.36556, 30.06428], [-96.36573, 30.06418], [-96.36603, 30.06401], [-96.36605, 30.064], [-96.36615, 30.06396], [-96.36662, 30.06378], [-96.36668, 30.06375], [-96.36741, 30.06347], [-96.36763, 30.06338], [-96.36794, 30.06326], [-96.36825, 30.06312], [-96.36857, 30.06299], [-96.36867, 30.06294], [-96.36937, 30.06261], [-96.36939, 30.0626], [-96.3700999, 30.06222], [-96.37024, 30.06215], [-96.37062, 30.06192], [-96.37064, 30.06191], [-96.37072, 30.06184], [-96.37084, 30.06175], [-96.37091, 30.06166], [-96.3709499, 30.06161], [-96.37106, 30.06145], [-96.37118, 30.06129], [-96.37124, 30.06122], [-96.37125, 30.06121], [-96.37143, 30.06106], [-96.37156, 30.06097], [-96.37168, 30.06089], [-96.37187, 30.0608], [-96.37221, 30.0607], [-96.37253, 30.06062], [-96.37275, 30.06059], [-96.3729199, 30.06058], [-96.37308, 30.06059], [-96.37333, 30.06061], [-96.3734, 30.06062], [-96.3738599, 30.06068], [-96.3742199, 30.0607], [-96.3743, 30.06069], [-96.37433, 30.06068], [-96.37449, 30.06059], [-96.37461, 30.06048], [-96.37509, 30.05997], [-96.37552, 30.05963], [-96.3757399, 30.05952], [-96.37581, 30.0595], [-96.37627, 30.05935], [-96.37724, 30.05904], [-96.37804, 30.05877], [-96.37808, 30.05875], [-96.37813, 30.0587], [-96.37828, 30.05851], [-96.37911, 30.05748], [-96.37912, 30.05747], [-96.37925, 30.05729], [-96.37947, 30.05702], [-96.37947, 30.05702], [-96.37974, 30.05723], [-96.38008, 30.05751], [-96.38038, 30.05776], [-96.3807, 30.05802], [-96.3807, 30.05802]]}, "properties": {"surface": "caliche", "label": "Caliche / gravel", "color": "#C98A24", "miles": 3.36, "start_mi": 1.46, "end_mi": 4.82, "road": "Rocky Road", "elev_ft": [333, 334, 334, 335, 335, 335, 335, 335, 334, 333, 331, 331, 328, 327, 326, 326, 325, 325, 322, 323, 322, 322, 323, 331, 331, 331, 333, 334, 335, 335, 336, 341, 342, 342, 342, 343, 342, 342, 343, 343, 347, 347, 350, 351, 353, 354, 358, 358, 359, 360, 360, 360, 361, 366, 368, 368, 368, 369, 370, 371, 371, 372, 373, 379, 380, 382, 382, 381, 381, 381, 377, 367, 365, 364, 363, 359, 359, 358, 357, 356, 353, 349, 345, 342, 340, 338, 337, 335, 333, 332, 328, 327, 325, 325, 325, 323, 324, 324, 325, 325, 325, 330, 330, 331, 332, 332, 333, 333, 333, 333, 328, 325, 307, 304, 297, 294, 291, 291, 291, 291, 285, 282, 283, 287, 287, 288, 290, 291, 290, 290, 290, 286, 281, 278, 270, 270, 280, 282, 283, 284, 284, 285, 285, 284, 281, 278, 275, 278, 278, 277, 277, 275, 277, 281, 281, 281, 281, 279, 277, 271, 268, 268, 268, 267, 266, 266, 265, 263, 262, 262, 262, 262, 262, 262, 262, 261, 260, 260, 259, 258, 254, 251, 252, 252, 256, 260, 260, 260, 260, 259, 255, 255, 255, 256, 256, 260, 271, 272, 268, 268]}}, {"type": "Feature", "geometry": {"type": "LineString", "coordinates": [[-96.38083, 30.05787], [-96.38108, 30.05763], [-96.3811, 30.05761], [-96.38121, 30.05751], [-96.38126, 30.05747], [-96.38153, 30.05721], [-96.38264, 30.05615], [-96.38334, 30.05548], [-96.38355, 30.05528], [-96.38376, 30.05508], [-96.38403, 30.05481], [-96.38458, 30.05428], [-96.38459, 30.05427], [-96.38487, 30.05401], [-96.38491, 30.05397], [-96.38529, 30.05361], [-96.38599, 30.05294], [-96.38627, 30.05268], [-96.38655, 30.05241], [-96.38669, 30.05228], [-96.38669, 30.05227], [-96.3867099, 30.05226], [-96.38693, 30.05208], [-96.38696, 30.05204], [-96.38699, 30.05198], [-96.38701, 30.05194], [-96.38702, 30.05191], [-96.38702, 30.05188], [-96.38702, 30.05185], [-96.38702, 30.05182], [-96.387, 30.05179], [-96.38698, 30.05177], [-96.38695, 30.05174], [-96.3869, 30.0517], [-96.3866, 30.05145], [-96.38628, 30.05119], [-96.38591, 30.0509], [-96.38575, 30.05075], [-96.38571, 30.05069], [-96.3856, 30.05052], [-96.38553, 30.05037], [-96.38546, 30.05024], [-96.3854099, 30.05008], [-96.3854, 30.05003], [-96.3854, 30.05002], [-96.38539, 30.04987], [-96.38539, 30.04985], [-96.3854, 30.04963], [-96.38546, 30.04921], [-96.3854999, 30.04904], [-96.3856, 30.04882], [-96.38562, 30.0488], [-96.3857, 30.04873], [-96.38657, 30.04789], [-96.38659, 30.04786], [-96.38698, 30.04748], [-96.38701, 30.04746], [-96.38712, 30.04735], [-96.38782, 30.04668], [-96.38784, 30.04666], [-96.38796, 30.04655], [-96.38804, 30.04647], [-96.38809, 30.04641], [-96.3881, 30.0464], [-96.38813, 30.04634], [-96.38814, 30.04632], [-96.38814, 30.0463], [-96.38814, 30.04628], [-96.38813, 30.04626], [-96.38812, 30.04623], [-96.38809, 30.0462], [-96.38806, 30.04617], [-96.38799, 30.0461], [-96.38773, 30.0459], [-96.38726, 30.04555], [-96.38715, 30.04546], [-96.38706, 30.04539], [-96.38695, 30.0453], [-96.38665, 30.04506], [-96.3866, 30.04502], [-96.38657, 30.045], [-96.38637, 30.04485], [-96.38625, 30.04474], [-96.38618, 30.04468], [-96.38612, 30.04461], [-96.38609, 30.04456], [-96.38608, 30.04454], [-96.38606, 30.04449], [-96.38605, 30.04448], [-96.38603, 30.04439], [-96.386, 30.04419], [-96.38603, 30.04383], [-96.38607, 30.04359], [-96.38624, 30.04308], [-96.38622, 30.0429], [-96.38615, 30.04271], [-96.38597, 30.04249], [-96.38583, 30.04237], [-96.38571, 30.04223], [-96.38556, 30.04191], [-96.38544, 30.04155], [-96.38531, 30.04128], [-96.3853, 30.04126], [-96.38473, 30.04047], [-96.38452, 30.04021], [-96.38451, 30.04021], [-96.38433, 30.03999], [-96.38424, 30.03988], [-96.38416, 30.03971], [-96.38407, 30.03941], [-96.38405, 30.03932], [-96.38405, 30.03925], [-96.38406, 30.03917], [-96.38437, 30.03873], [-96.38443, 30.03866], [-96.38444, 30.03862], [-96.38448, 30.03855], [-96.38453, 30.03839], [-96.38453, 30.03813], [-96.38445, 30.03772], [-96.38444, 30.03769], [-96.38441, 30.03745], [-96.38441, 30.03722], [-96.38443, 30.03705], [-96.38467, 30.0365], [-96.38481, 30.03617], [-96.38517, 30.03528], [-96.38518, 30.0352], [-96.38518, 30.03514], [-96.38517, 30.03511], [-96.38514, 30.03507], [-96.3851, 30.03502], [-96.38476, 30.03476], [-96.38443, 30.03451], [-96.38414, 30.03428], [-96.38369, 30.03392], [-96.38337, 30.03367], [-96.38288, 30.0333], [-96.38271, 30.03317], [-96.3824099, 30.03294], [-96.38223, 30.03281], [-96.38179, 30.03246], [-96.38149, 30.03222], [-96.38116, 30.03196], [-96.38061, 30.03153], [-96.38056, 30.03149], [-96.3803, 30.03129], [-96.38026, 30.03125], [-96.38, 30.03105], [-96.37998, 30.03103], [-96.37994, 30.03102], [-96.37991, 30.03101], [-96.37982, 30.03101], [-96.3797699, 30.03102], [-96.37969, 30.03107], [-96.37936, 30.03139], [-96.37932, 30.03143], [-96.37909, 30.03166], [-96.37904, 30.0317], [-96.37895, 30.03179], [-96.37881, 30.03192], [-96.37876, 30.03197], [-96.37867, 30.03206], [-96.37825, 30.03246], [-96.37811, 30.03259], [-96.3780699, 30.03263], [-96.37797, 30.03272], [-96.37793, 30.03277], [-96.37783, 30.03286], [-96.37774, 30.03294], [-96.37769, 30.03299], [-96.37765, 30.03303], [-96.37756, 30.03313], [-96.37696, 30.03371], [-96.3768599, 30.0338], [-96.3768, 30.03386], [-96.37672, 30.0339], [-96.37667, 30.03391], [-96.3765899, 30.0339], [-96.37652, 30.03388], [-96.3764999, 30.03386], [-96.37648, 30.03385], [-96.37646, 30.03382], [-96.3762, 30.03362], [-96.3757399, 30.03325], [-96.37559, 30.03313], [-96.37554, 30.03309], [-96.37553, 30.03309], [-96.37544, 30.03301], [-96.37538, 30.03296], [-96.37528, 30.03289], [-96.37524, 30.03285], [-96.37482, 30.03252], [-96.37452, 30.03228], [-96.37436, 30.03216], [-96.37431, 30.03212], [-96.37421, 30.03204], [-96.37416, 30.032], [-96.37412, 30.03197], [-96.37406, 30.03191], [-96.37402, 30.03187]]}, "properties": {"surface": "caliche", "label": "Caliche / gravel", "color": "#C98A24", "miles": 2.84, "start_mi": 4.82, "end_mi": 7.66, "road": "South Rocky Road", "elev_ft": [264, 260, 260, 258, 258, 260, 267, 276, 277, 278, 278, 270, 269, 265, 266, 281, 305, 312, 317, 316, 316, 316, 312, 311, 310, 308, 307, 306, 305, 304, 303, 302, 302, 300, 293, 282, 267, 260, 258, 251, 247, 245, 243, 243, 243, 243, 243, 244, 242, 241, 242, 242, 243, 245, 245, 253, 254, 260, 282, 283, 285, 286, 286, 286, 286, 286, 286, 286, 286, 285, 285, 284, 282, 272, 254, 250, 247, 243, 238, 238, 237, 235, 234, 234, 233, 233, 233, 233, 233, 232, 231, 230, 230, 230, 230, 230, 230, 230, 230, 229, 229, 229, 229, 227, 226, 226, 226, 226, 226, 224, 224, 223, 223, 221, 221, 222, 222, 222, 222, 222, 222, 223, 223, 223, 222, 222, 221, 221, 221, 221, 221, 221, 223, 224, 225, 227, 229, 233, 237, 247, 254, 269, 279, 287, 300, 301, 303, 303, 304, 304, 303, 303, 303, 302, 301, 290, 289, 286, 286, 288, 292, 294, 296, 309, 312, 313, 314, 314, 313, 312, 311, 310, 308, 304, 304, 303, 303, 303, 304, 304, 305, 305, 305, 308, 313, 313, 313, 312, 312, 311, 310, 309, 298, 290, 287, 287, 285, 284, 283, 282, 282]}}, {"type": "Feature", "geometry": {"type": "LineString", "coordinates": [[-96.37392, 30.03178], [-96.37392, 30.03178], [-96.37362, 30.03193], [-96.37345, 30.03203], [-96.37329, 30.03213], [-96.37323, 30.03218], [-96.37309, 30.03229], [-96.37308, 30.0323], [-96.37306, 30.03232], [-96.37287, 30.03249], [-96.37252, 30.03284], [-96.37237, 30.03299], [-96.3722499, 30.03311], [-96.37223, 30.03312], [-96.37182, 30.03354], [-96.37155, 30.03381], [-96.37144, 30.03392], [-96.37142, 30.03394], [-96.37103, 30.03433], [-96.37089, 30.03447], [-96.37047, 30.03489], [-96.37042, 30.03494], [-96.37014, 30.03521], [-96.36976, 30.03562], [-96.36963, 30.03575], [-96.36954, 30.03585], [-96.36941, 30.03601], [-96.3691599, 30.03633], [-96.36911, 30.03641], [-96.36906, 30.03647], [-96.36894, 30.03665], [-96.3687999, 30.03684], [-96.36873, 30.03693], [-96.36866, 30.03702], [-96.36857, 30.03714], [-96.36844, 30.03731], [-96.36843, 30.03731], [-96.36834, 30.03742], [-96.3683099, 30.03746], [-96.36817, 30.03759], [-96.3681, 30.03767], [-96.36794, 30.0378], [-96.36782, 30.0379], [-96.36772, 30.03797], [-96.36754, 30.0381], [-96.3673699, 30.03822], [-96.36717, 30.03833], [-96.36694, 30.03844], [-96.36679, 30.03851], [-96.36668, 30.03855], [-96.36668, 30.03855]]}, "properties": {"surface": "pavement", "label": "Pavement", "color": "#4A5568", "miles": 0.64, "start_mi": 7.66, "end_mi": 8.3, "road": "Farm-to-Market Road 2754", "elev_ft": [281, 281, 278, 276, 275, 275, 274, 274, 273, 271, 270, 271, 271, 271, 274, 275, 275, 274, 274, 273, 272, 271, 272, 280, 283, 286, 287, 289, 289, 289, 289, 288, 288, 289, 289, 290, 290, 291, 291, 294, 295, 295, 295, 296, 298, 301, 304, 306, 307, 309, 309]}}, {"type": "Feature", "geometry": {"type": "LineString", "coordinates": [[-96.36665, 30.03848], [-96.36663, 30.03845], [-96.36655, 30.03834], [-96.36654, 30.03833], [-96.3664299, 30.03822], [-96.3664, 30.0382], [-96.36624, 30.03808], [-96.36608, 30.03796], [-96.36605, 30.03794], [-96.36593, 30.03784], [-96.36577, 30.03772], [-96.36551, 30.03752], [-96.36546, 30.03748], [-96.36532, 30.03735], [-96.3652, 30.03725], [-96.36505, 30.03713], [-96.3649, 30.037], [-96.36476, 30.03687], [-96.36473, 30.03685], [-96.36461, 30.03674], [-96.36421, 30.03633], [-96.3641899, 30.0363], [-96.36355, 30.03564], [-96.36319, 30.03526], [-96.3629, 30.03494], [-96.36287, 30.03491], [-96.36278, 30.03481], [-96.36264, 30.03466], [-96.3625, 30.03452], [-96.36248, 30.03449], [-96.36224, 30.03424], [-96.36221, 30.03422], [-96.3621, 30.03411], [-96.36167, 30.03366], [-96.36139, 30.03341], [-96.3613699, 30.03339], [-96.36125, 30.03332], [-96.36106, 30.03321], [-96.36104, 30.0332], [-96.36083, 30.03313], [-96.36048, 30.03308], [-96.35983, 30.03299], [-96.35839, 30.03278], [-96.35749, 30.03265], [-96.35736, 30.03263], [-96.3571599, 30.0326], [-96.35553, 30.03235], [-96.35468, 30.03222], [-96.35447, 30.03221], [-96.35439, 30.03223], [-96.3543399, 30.03226], [-96.35433, 30.03226], [-96.3542499, 30.03231], [-96.35402, 30.03253], [-96.35375, 30.0328], [-96.35366, 30.03288], [-96.35352, 30.033], [-96.35346, 30.03303], [-96.35342, 30.03304], [-96.35341, 30.03304], [-96.3533999, 30.03304], [-96.35334, 30.03303], [-96.35329, 30.03302], [-96.35299, 30.03278], [-96.35277, 30.03261], [-96.35253, 30.03242], [-96.35222, 30.03217], [-96.3513, 30.03144], [-96.3505799, 30.03088], [-96.35057, 30.03087], [-96.3497299, 30.03022], [-96.34965, 30.03016], [-96.3494599, 30.03001], [-96.34791, 30.0288], [-96.34715, 30.02818], [-96.34688, 30.02796], [-96.34606, 30.02732], [-96.34559, 30.02696], [-96.34506, 30.02655], [-96.34482, 30.02636], [-96.34405, 30.02576], [-96.34359, 30.0254], [-96.3432799, 30.02516], [-96.34235, 30.02444], [-96.34204, 30.0242], [-96.34189, 30.02407], [-96.34146, 30.02374], [-96.34143, 30.02371], [-96.34127, 30.02359], [-96.34067, 30.02309], [-96.34067, 30.02309]]}, "properties": {"surface": "unknown", "label": "Unverified", "color": "#9A9389", "miles": 2.01, "start_mi": 8.3, "end_mi": 10.32, "road": "Arning Road", "elev_ft": [309, 310, 312, 312, 315, 316, 319, 323, 323, 326, 329, 331, 332, 335, 338, 340, 342, 344, 344, 346, 350, 350, 353, 358, 360, 360, 360, 360, 360, 360, 361, 361, 361, 355, 350, 350, 349, 348, 348, 348, 350, 353, 348, 351, 350, 350, 335, 336, 337, 337, 337, 337, 336, 333, 331, 330, 328, 327, 326, 326, 326, 326, 325, 323, 321, 320, 317, 310, 302, 301, 292, 291, 289, 272, 262, 253, 278, 280, 279, 278, 269, 267, 269, 292, 298, 301, 304, 305, 305, 308, 308]}}, {"type": "Feature", "geometry": {"type": "LineString", "coordinates": [[-96.34081, 30.02208], [-96.3409099, 30.0213], [-96.34092, 30.02125], [-96.34099, 30.02072], [-96.34099, 30.02071], [-96.34107, 30.02019], [-96.34115, 30.01962], [-96.34117, 30.01947], [-96.34122, 30.01912], [-96.3413, 30.01857], [-96.34132, 30.01844], [-96.34135, 30.01822], [-96.34141, 30.01775], [-96.3414899, 30.01714], [-96.34154, 30.01679], [-96.3415799, 30.01643], [-96.3416, 30.01616], [-96.34162, 30.01584], [-96.34166, 30.01546], [-96.3416699, 30.0151], [-96.3416699, 30.01501], [-96.34166, 30.01489], [-96.34166, 30.01489]]}, "properties": {"surface": "pavement", "label": "Pavement", "color": "#4A5568", "miles": 0.5, "start_mi": 10.32, "end_mi": 10.81, "road": "Old 36 Road", "elev_ft": [311, 315, 315, 313, 313, 311, 307, 305, 302, 302, 302, 303, 309, 312, 314, 314, 314, 314, 315, 314, 314, 314, 314]}}, {"type": "Feature", "geometry": {"type": "LineString", "coordinates": [[-96.34207, 30.01486], [-96.34215, 30.01485], [-96.34351, 30.01475], [-96.34414, 30.0147], [-96.34509, 30.01463], [-96.34528, 30.0146], [-96.34537, 30.01457], [-96.3455199, 30.01452], [-96.34603, 30.01433], [-96.34662, 30.01412], [-96.34716, 30.01393], [-96.34751, 30.01378], [-96.34757, 30.01375], [-96.34777, 30.01363], [-96.348, 30.01343], [-96.3486099, 30.01288], [-96.34876, 30.01275], [-96.34885, 30.01267], [-96.34907, 30.01251], [-96.34909, 30.0125], [-96.3494599, 30.01232], [-96.34961, 30.01225], [-96.35016, 30.01203], [-96.35093, 30.01171], [-96.3513, 30.01156], [-96.35144, 30.0115], [-96.35157, 30.01145], [-96.35173, 30.01141], [-96.35252, 30.01119], [-96.35324, 30.01099], [-96.35357, 30.01088], [-96.35369, 30.01081], [-96.35389, 30.01071], [-96.3541, 30.01059], [-96.35418, 30.0105], [-96.3542, 30.01048], [-96.3544, 30.01033], [-96.35449, 30.01026], [-96.35495, 30.00996], [-96.35498, 30.00993], [-96.35533, 30.00972], [-96.35624, 30.00912], [-96.35657, 30.0089], [-96.35673, 30.00881], [-96.3568, 30.00876], [-96.3571, 30.00857], [-96.35736, 30.00838], [-96.35755, 30.00826], [-96.35755, 30.00826], [-96.35767, 30.00819], [-96.35797, 30.008], [-96.358, 30.00797], [-96.3583, 30.00776], [-96.3585499, 30.00759], [-96.35888, 30.00728], [-96.3592, 30.00698], [-96.35948, 30.00671], [-96.35964, 30.00655], [-96.35975, 30.00644], [-96.35982, 30.00637]]}, "properties": {"surface": "unknown", "label": "Unverified", "color": "#9A9389", "miles": 1.25, "start_mi": 10.81, "end_mi": 12.06, "road": "Albert Road", "elev_ft": [316, 316, 310, 310, 305, 302, 300, 300, 300, 298, 290, 290, 290, 289, 286, 285, 284, 283, 281, 281, 278, 271, 260, 248, 238, 235, 234, 234, 234, 224, 218, 217, 214, 213, 213, 213, 213, 212, 212, 212, 218, 240, 241, 240, 240, 238, 236, 235, 235, 234, 231, 231, 228, 225, 220, 217, 213, 212, 211, 210]}}, {"type": "Feature", "geometry": {"type": "LineString", "coordinates": [[-96.36029, 30.00589], [-96.36029, 30.00589], [-96.36078, 30.00602], [-96.36093, 30.00607], [-96.362, 30.00652], [-96.36217, 30.00654], [-96.36227, 30.00654], [-96.36239, 30.00653], [-96.36242, 30.00652], [-96.36286, 30.00643], [-96.363, 30.00642], [-96.36366, 30.00645], [-96.36422, 30.0065], [-96.3644599, 30.00656], [-96.36449, 30.00657], [-96.3647, 30.00664], [-96.36487, 30.00672], [-96.36505, 30.00681], [-96.36526, 30.0069], [-96.36544, 30.00698], [-96.3657999, 30.00709], [-96.36602, 30.00714], [-96.36615, 30.00717], [-96.36633, 30.00719], [-96.36636, 30.0072], [-96.3668, 30.00728], [-96.3672799, 30.0074], [-96.3673699, 30.00743], [-96.36788, 30.00758], [-96.36796, 30.00761], [-96.36853, 30.00782], [-96.36912, 30.00803], [-96.36963, 30.00823], [-96.36971, 30.00827], [-96.3698299, 30.00836], [-96.3699199, 30.00844], [-96.37002, 30.00856], [-96.37025, 30.00896], [-96.37036, 30.00916], [-96.37044, 30.00934], [-96.37062, 30.00973], [-96.37084, 30.01032], [-96.37088, 30.01041], [-96.37092, 30.01045], [-96.37099, 30.0105], [-96.37101, 30.01052], [-96.37128, 30.01075], [-96.37139, 30.01086], [-96.37147, 30.01095], [-96.37151, 30.01101], [-96.37159, 30.01123], [-96.37169, 30.0114], [-96.37174, 30.01148], [-96.37183, 30.01162], [-96.37191, 30.01171], [-96.37197, 30.01178], [-96.3721, 30.01189], [-96.37223, 30.012], [-96.37233, 30.01206], [-96.37237, 30.01207], [-96.3725, 30.01211], [-96.37271, 30.01214], [-96.37286, 30.01213], [-96.37302, 30.01211], [-96.37307, 30.0121], [-96.3731899, 30.01205], [-96.37339, 30.01192], [-96.37369, 30.01164], [-96.3737, 30.01163], [-96.37427, 30.01112], [-96.37468, 30.01075], [-96.3747, 30.01073], [-96.37492, 30.01056], [-96.37549, 30.01003], [-96.37555, 30.01], [-96.37568, 30.00996], [-96.37573, 30.00996], [-96.37577, 30.00997], [-96.37596, 30.01011], [-96.376, 30.01015], [-96.3765899, 30.0106], [-96.37682, 30.01076], [-96.37722, 30.011], [-96.37725, 30.01101], [-96.37735, 30.01107], [-96.37765, 30.0112], [-96.3781, 30.01138], [-96.37835, 30.0115], [-96.3786, 30.01173], [-96.37893, 30.01205], [-96.37896, 30.01207], [-96.3790099, 30.01211], [-96.37979, 30.01259], [-96.37982, 30.01261], [-96.38023, 30.01282], [-96.38037, 30.01287], [-96.38119, 30.01321], [-96.38173, 30.01343], [-96.38251, 30.01375], [-96.38271, 30.01384], [-96.38284, 30.01393], [-96.38292, 30.01401], [-96.38296, 30.01406], [-96.38313, 30.01431], [-96.38314, 30.01431], [-96.38333, 30.01463], [-96.38343, 30.01479], [-96.3837099, 30.01534], [-96.38377, 30.01544], [-96.38393, 30.01575], [-96.3841, 30.01608], [-96.38419, 30.01625], [-96.38421, 30.01628], [-96.38427, 30.01641], [-96.38435, 30.01658], [-96.3846, 30.01707], [-96.38468, 30.01724], [-96.38471, 30.0173], [-96.38476, 30.0174], [-96.38484, 30.01757], [-96.38486, 30.01761], [-96.38491, 30.01773], [-96.38493, 30.01776]]}, "properties": {"surface": "two_track", "label": "Ranch two-track", "color": "#6B5A45", "miles": 1.98, "start_mi": 12.06, "end_mi": 14.04, "road": "Glaeser Road", "elev_ft": [211, 211, 215, 216, 230, 232, 232, 232, 232, 235, 239, 250, 260, 263, 263, 264, 263, 261, 259, 256, 247, 240, 238, 236, 235, 226, 219, 219, 213, 212, 209, 211, 211, 210, 210, 210, 211, 211, 211, 211, 211, 211, 211, 210, 210, 210, 211, 212, 213, 214, 215, 217, 218, 219, 221, 222, 224, 227, 229, 230, 233, 237, 240, 244, 245, 247, 252, 260, 260, 272, 274, 273, 272, 265, 265, 264, 264, 264, 263, 263, 259, 256, 252, 252, 253, 256, 259, 260, 263, 265, 265, 265, 263, 263, 264, 264, 261, 258, 254, 253, 253, 253, 253, 252, 252, 248, 243, 223, 221, 213, 216, 218, 219, 219, 223, 230, 235, 236, 237, 238, 238, 239, 240]}}, {"type": "Feature", "geometry": {"type": "LineString", "coordinates": [[-96.38504, 30.01792], [-96.38504, 30.01792], [-96.38505, 30.0179], [-96.3859, 30.01705], [-96.38617, 30.01678], [-96.38639, 30.01656], [-96.3867099, 30.01624], [-96.38694, 30.01602], [-96.38707, 30.01588], [-96.38737, 30.01558], [-96.38789, 30.01507], [-96.38812, 30.01483], [-96.38829, 30.01466], [-96.38843, 30.01452], [-96.38898, 30.01396], [-96.389, 30.01394], [-96.3893499, 30.01359], [-96.38961, 30.01333], [-96.39005, 30.0129], [-96.39018, 30.01278], [-96.39028, 30.0127], [-96.39033, 30.01266], [-96.3904, 30.01261], [-96.39072, 30.01238], [-96.39077, 30.01235], [-96.39098, 30.01224], [-96.39122, 30.01211]]}, "properties": {"surface": "pavement", "label": "Pavement", "color": "#4A5568", "miles": 0.55, "start_mi": 14.04, "end_mi": 14.59, "road": "Farm-to-Market Road 2754", "elev_ft": [242, 242, 242, 215, 210, 210, 209, 207, 206, 203, 200, 200, 200, 200, 203, 204, 209, 211, 211, 213, 214, 215, 216, 219, 219, 220, 220]}}, {"type": "Feature", "geometry": {"type": "LineString", "coordinates": [[-96.39316, 30.01128], [-96.39316, 30.01128], [-96.39326, 30.01141], [-96.39332, 30.01146], [-96.39346, 30.01151], [-96.39352, 30.01153], [-96.39359, 30.01153], [-96.39384, 30.0115], [-96.39446, 30.0114], [-96.39448, 30.01139], [-96.39634, 30.01124], [-96.39661, 30.01121], [-96.39675, 30.01121], [-96.397, 30.0112], [-96.397, 30.0112], [-96.39754, 30.01121], [-96.39758, 30.01121], [-96.39867, 30.01124], [-96.39883, 30.01126], [-96.39906, 30.01129], [-96.39924, 30.01132], [-96.3996, 30.01137], [-96.40019, 30.01148], [-96.4003199, 30.01149], [-96.40036, 30.01148], [-96.40044, 30.01144], [-96.40049, 30.01142], [-96.4005899, 30.01133], [-96.40088, 30.01107], [-96.40159, 30.01041], [-96.40203, 30.01], [-96.4029, 30.00919], [-96.40313, 30.00895], [-96.4031399, 30.00894], [-96.4034099, 30.00868], [-96.40369, 30.00842], [-96.4042599, 30.00789], [-96.40427, 30.00788], [-96.40436, 30.00782], [-96.40445, 30.00779], [-96.40452, 30.00778], [-96.40463, 30.0078], [-96.40471, 30.00782], [-96.40533, 30.00814], [-96.40572, 30.00832], [-96.4058699, 30.00838], [-96.40598, 30.0084], [-96.40607, 30.00841], [-96.40617, 30.00841], [-96.4063199, 30.00838], [-96.40643, 30.00836], [-96.40674, 30.00834], [-96.40684, 30.00834], [-96.40758, 30.00848], [-96.40842, 30.00865], [-96.40883, 30.00873], [-96.40897, 30.00876], [-96.40927, 30.00882], [-96.4095, 30.00884], [-96.4095, 30.00884], [-96.40962, 30.00887], [-96.40969, 30.00891], [-96.4098, 30.00899], [-96.41, 30.00915], [-96.41031, 30.00939], [-96.41034, 30.00941], [-96.4104, 30.00946], [-96.41072, 30.00972], [-96.41087, 30.00983], [-96.41092, 30.00987], [-96.41165, 30.01043], [-96.4117, 30.01047], [-96.41183, 30.01056], [-96.41198, 30.01069], [-96.4126, 30.01118], [-96.41301, 30.01151], [-96.41301, 30.01151], [-96.41275, 30.01176], [-96.41231, 30.01219], [-96.41203, 30.01246], [-96.41161, 30.01286], [-96.41144, 30.01302], [-96.41117, 30.01328], [-96.41105, 30.0134], [-96.41089, 30.01355], [-96.41077, 30.01367], [-96.41074, 30.01369], [-96.4106599, 30.01377], [-96.40994, 30.01449], [-96.40968, 30.01474], [-96.40965, 30.01477], [-96.4096, 30.01482], [-96.40856, 30.01584], [-96.40845, 30.01594], [-96.40803, 30.01635], [-96.40758, 30.01679], [-96.40743, 30.01693], [-96.4072599, 30.01711], [-96.40709, 30.01734], [-96.40704, 30.01743], [-96.4067, 30.01789], [-96.40653, 30.01811], [-96.40653, 30.01811], [-96.40647, 30.01819], [-96.40624, 30.01851], [-96.4057, 30.01926], [-96.40559, 30.01942], [-96.40533, 30.01988], [-96.40518, 30.02018], [-96.40509, 30.0204], [-96.40498, 30.02066], [-96.40473, 30.02143], [-96.40469, 30.02155], [-96.40459, 30.02196], [-96.40458, 30.02199], [-96.40428, 30.02326], [-96.4042599, 30.02337], [-96.40411, 30.02416], [-96.40409, 30.02444], [-96.4041, 30.02459], [-96.40413, 30.02485], [-96.40418, 30.02525], [-96.4042, 30.02571], [-96.40427, 30.02643], [-96.40429, 30.02673], [-96.40432, 30.02697], [-96.40436, 30.02733], [-96.40437, 30.02739], [-96.4044, 30.02768], [-96.40446, 30.02814], [-96.40446, 30.02827], [-96.4044399, 30.0284], [-96.40443, 30.0285], [-96.4044, 30.02862], [-96.40436, 30.02878], [-96.40431, 30.02892], [-96.40419, 30.02911], [-96.40414, 30.02918], [-96.40394, 30.02945], [-96.4038, 30.02967], [-96.40372, 30.0298], [-96.4036, 30.03002], [-96.40351, 30.03015], [-96.40337, 30.03043], [-96.40329, 30.03062], [-96.40327, 30.03067], [-96.40312, 30.03113], [-96.40311, 30.03117], [-96.40304, 30.03144], [-96.40302, 30.03153], [-96.40291, 30.03214], [-96.40284, 30.0325], [-96.40278, 30.0328], [-96.40277, 30.03285], [-96.40266, 30.03338], [-96.40258, 30.03373], [-96.40257, 30.03378], [-96.40248, 30.03424], [-96.40246, 30.03438], [-96.4024, 30.03482], [-96.4023799, 30.03503], [-96.4023799, 30.03534], [-96.4023799, 30.03588], [-96.4023799, 30.03592], [-96.40242, 30.03693], [-96.40243, 30.03724], [-96.40245, 30.0375], [-96.4025, 30.03807], [-96.40258, 30.03887], [-96.40265, 30.03914], [-96.40293, 30.04011], [-96.40297, 30.04035], [-96.40302, 30.04068], [-96.40304, 30.04083], [-96.40308, 30.04154], [-96.40308, 30.04158], [-96.40309, 30.04219], [-96.40308, 30.04268], [-96.40308, 30.04284], [-96.40308, 30.04328], [-96.40306, 30.04379], [-96.4030499, 30.04392], [-96.40304, 30.04397], [-96.40293, 30.04499], [-96.40293, 30.04504], [-96.4029, 30.04544], [-96.4029, 30.04565], [-96.40291, 30.04588], [-96.40297, 30.04637], [-96.40301, 30.04661], [-96.40306, 30.0469], [-96.40317, 30.04749], [-96.40334, 30.04838], [-96.40342, 30.04879], [-96.40349, 30.04909], [-96.40349, 30.04909]]}, "properties": {"surface": "unknown", "label": "Unverified", "color": "#9A9389", "miles": 4.19, "start_mi": 14.59, "end_mi": 18.78, "road": "West Ueckert Road", "elev_ft": [227, 227, 228, 228, 229, 229, 229, 231, 238, 238, 257, 257, 257, 257, 257, 256, 256, 260, 263, 267, 269, 274, 279, 281, 281, 282, 283, 286, 290, 275, 268, 276, 277, 277, 276, 273, 259, 258, 256, 255, 254, 254, 254, 255, 254, 255, 254, 254, 253, 252, 252, 255, 256, 265, 272, 272, 272, 272, 273, 273, 273, 272, 270, 267, 269, 269, 271, 281, 288, 290, 305, 306, 307, 309, 307, 300, 300, 298, 294, 294, 298, 300, 305, 306, 307, 306, 306, 305, 291, 288, 287, 287, 274, 271, 272, 272, 272, 272, 274, 275, 274, 272, 272, 272, 269, 255, 251, 241, 238, 235, 232, 222, 221, 219, 219, 214, 213, 212, 212, 212, 212, 220, 228, 232, 231, 230, 227, 227, 225, 218, 213, 210, 210, 210, 210, 210, 210, 210, 210, 210, 210, 210, 210, 210, 210, 210, 218, 219, 222, 222, 227, 229, 231, 232, 234, 234, 234, 231, 230, 226, 226, 227, 229, 229, 228, 230, 230, 231, 231, 231, 232, 233, 234, 235, 238, 238, 239, 240, 241, 243, 245, 245, 246, 250, 250, 253, 255, 257, 260, 260, 260, 263, 264, 259, 257, 257]}}, {"type": "Feature", "geometry": {"type": "LineString", "coordinates": [[-96.40364, 30.04978], [-96.40365, 30.04984], [-96.40366, 30.04999], [-96.40366, 30.05006], [-96.40364, 30.05013], [-96.40358, 30.05022], [-96.40353, 30.05028], [-96.40342, 30.05038], [-96.4034099, 30.05039], [-96.40319, 30.05052], [-96.40288, 30.05071], [-96.40198, 30.05123], [-96.40148, 30.05152], [-96.4011, 30.05171], [-96.40103, 30.05174], [-96.40093, 30.0518], [-96.40074, 30.05197], [-96.40043, 30.05237], [-96.40028, 30.05256], [-96.39995, 30.05289], [-96.39976, 30.05306], [-96.39967, 30.05314], [-96.39914, 30.05363], [-96.39905, 30.05372], [-96.39876, 30.05397], [-96.3984399, 30.05426], [-96.39831, 30.05436], [-96.39819, 30.05444], [-96.3976799, 30.05482], [-96.39731, 30.05509], [-96.39694, 30.05544], [-96.39567, 30.05663], [-96.39556, 30.05673], [-96.3946799, 30.05761]]}, "properties": {"surface": "two_track", "label": "Ranch two-track", "color": "#6B5A45", "miles": 0.77, "start_mi": 18.78, "end_mi": 19.56, "road": "Bleiblerville Road", "elev_ft": [252, 252, 252, 253, 254, 255, 257, 258, 258, 264, 268, 277, 278, 284, 284, 285, 287, 295, 298, 302, 303, 304, 308, 309, 314, 319, 320, 323, 329, 329, 328, 327, 326, 323]}}, {"type": "Feature", "geometry": {"type": "LineString", "coordinates": [[-96.39456, 30.0577], [-96.39456, 30.0577], [-96.39467, 30.0578], [-96.39501, 30.05807], [-96.3956199, 30.05856], [-96.39622, 30.05903], [-96.39622, 30.05903], [-96.39624, 30.05904], [-96.39627, 30.05907], [-96.39718, 30.05975], [-96.39749, 30.05999], [-96.39758, 30.06006], [-96.39776, 30.06021], [-96.39804, 30.06042], [-96.39809, 30.06049], [-96.3981, 30.06049], [-96.39813, 30.06056], [-96.39814, 30.06067], [-96.39813, 30.06073], [-96.3981, 30.06078], [-96.39806, 30.06082], [-96.39779, 30.06109], [-96.39757, 30.0613], [-96.39748, 30.06138], [-96.39729, 30.06157], [-96.39728, 30.06158], [-96.39702, 30.06184], [-96.39688, 30.06197], [-96.3966, 30.06224], [-96.39646, 30.06238], [-96.39634, 30.0625], [-96.39633, 30.06251], [-96.39619, 30.06265], [-96.39604, 30.06278], [-96.3956199, 30.06318], [-96.39534, 30.06344], [-96.39506, 30.06371], [-96.39478, 30.06397], [-96.3947, 30.06405], [-96.3943199, 30.06442], [-96.39409, 30.06464], [-96.39363, 30.06509], [-96.39268, 30.06604], [-96.3925, 30.06621], [-96.39211, 30.06657], [-96.39207, 30.06661], [-96.39184, 30.06684], [-96.39138, 30.0673], [-96.3912, 30.06748], [-96.39099, 30.06768], [-96.39096, 30.06773], [-96.39095, 30.06777], [-96.39094, 30.06781], [-96.39094, 30.06811], [-96.39094, 30.06818], [-96.39094, 30.06818], [-96.39096, 30.06821], [-96.39096, 30.06824], [-96.39096, 30.06827], [-96.39095, 30.06832], [-96.39093, 30.06838], [-96.3909, 30.06843], [-96.39067, 30.06867], [-96.39025, 30.06906], [-96.38983, 30.06945], [-96.38951, 30.06975], [-96.38948, 30.06978], [-96.38931, 30.06993], [-96.38918, 30.07004], [-96.38902, 30.07018], [-96.38899, 30.07021], [-96.38897, 30.07023], [-96.38875, 30.07045], [-96.38806, 30.07113], [-96.38779, 30.0714], [-96.38733, 30.07185], [-96.38693, 30.07223], [-96.38678, 30.07235], [-96.38665, 30.07243], [-96.38658, 30.07245], [-96.38649, 30.07246], [-96.38641, 30.07245], [-96.3863499, 30.07243], [-96.38621, 30.07233], [-96.38615, 30.07229], [-96.38544, 30.07173], [-96.38513, 30.07148], [-96.3851, 30.07146], [-96.38507, 30.07144], [-96.385, 30.07141], [-96.38495, 30.07139], [-96.38488, 30.07137], [-96.3846499, 30.07132], [-96.38455, 30.07132], [-96.38372, 30.07128], [-96.38247, 30.07123], [-96.38185, 30.07122], [-96.38167, 30.07122], [-96.38157, 30.07123], [-96.3814699, 30.07126], [-96.38144, 30.07127], [-96.38134, 30.07132], [-96.38121, 30.07142], [-96.38113, 30.07149], [-96.38037, 30.07221], [-96.3798, 30.07275], [-96.37945, 30.07308], [-96.37875, 30.07374], [-96.3781, 30.07435], [-96.37805, 30.0744], [-96.37776, 30.07467], [-96.3775299, 30.07488], [-96.37734, 30.07507], [-96.3771, 30.0753], [-96.37678, 30.0756], [-96.3764999, 30.07587], [-96.3758, 30.07653], [-96.37543, 30.07689], [-96.37538, 30.07693], [-96.3751, 30.07719], [-96.37481, 30.07745], [-96.37439, 30.07785], [-96.37382, 30.07838], [-96.37361, 30.07858], [-96.37349, 30.07869], [-96.37348, 30.07871], [-96.37341, 30.07878], [-96.37313, 30.07906], [-96.37304, 30.07915], [-96.37284, 30.07932], [-96.37233, 30.07981], [-96.37191, 30.08021], [-96.37182, 30.0803], [-96.37164, 30.08046], [-96.37149, 30.0806], [-96.37147, 30.08062], [-96.37135, 30.08073], [-96.37107, 30.08099], [-96.3710399, 30.08103], [-96.37064, 30.0814], [-96.37044, 30.08159], [-96.37027, 30.08177], [-96.37027, 30.08177], [-96.37006, 30.08162], [-96.36984, 30.08145], [-96.36949, 30.08118], [-96.36937, 30.08108], [-96.3688899, 30.08068], [-96.36861, 30.08044], [-96.36841, 30.08028], [-96.36836, 30.08024], [-96.36794, 30.07991], [-96.36721, 30.07935], [-96.3669, 30.0791], [-96.36665, 30.0789], [-96.36659, 30.07887], [-96.36652, 30.07883], [-96.3664, 30.0788], [-96.36626, 30.07881], [-96.36578, 30.0789], [-96.36558, 30.07893], [-96.36532, 30.07897], [-96.36483, 30.07905], [-96.36452, 30.07913], [-96.36452, 30.07913]]}, "properties": {"surface": "unknown", "label": "Unverified", "color": "#9A9389", "miles": 3.13, "start_mi": 19.56, "end_mi": 22.68, "road": "New Wehdem Road", "elev_ft": [324, 324, 325, 328, 334, 337, 337, 337, 337, 334, 333, 333, 332, 329, 329, 329, 329, 330, 330, 331, 331, 332, 331, 331, 328, 328, 320, 315, 303, 299, 298, 298, 299, 304, 320, 329, 332, 327, 326, 324, 326, 332, 313, 316, 319, 319, 318, 305, 300, 300, 300, 301, 302, 308, 308, 308, 308, 308, 308, 309, 309, 311, 319, 332, 342, 347, 347, 347, 347, 347, 347, 347, 346, 334, 333, 335, 332, 331, 331, 331, 331, 332, 332, 337, 339, 353, 357, 358, 358, 358, 358, 357, 356, 355, 346, 328, 313, 310, 310, 309, 309, 309, 311, 313, 338, 351, 356, 368, 379, 380, 381, 378, 374, 371, 365, 361, 353, 353, 353, 358, 364, 374, 384, 385, 386, 385, 385, 383, 382, 380, 373, 372, 373, 375, 377, 377, 379, 383, 383, 389, 391, 393, 393, 393, 393, 392, 392, 390, 389, 389, 389, 390, 390, 390, 390, 390, 390, 391, 392, 396, 397, 397, 396, 392, 392]}}, {"type": "Feature", "geometry": {"type": "LineString", "coordinates": [[-96.36454, 30.07907], [-96.36454, 30.07905], [-96.36454, 30.079], [-96.36453, 30.07897], [-96.36452, 30.07894], [-96.36449, 30.07891], [-96.36373, 30.07831], [-96.3634299, 30.07807], [-96.36297, 30.07771], [-96.36258, 30.0774], [-96.36219, 30.07709], [-96.36036, 30.07564], [-96.35972, 30.07513], [-96.35937, 30.07485], [-96.3593, 30.07479], [-96.35857, 30.0742], [-96.35836, 30.07399], [-96.35826, 30.07391], [-96.35702, 30.07296], [-96.35702, 30.07296], [-96.35668, 30.07331], [-96.35662, 30.07338], [-96.35614, 30.07393], [-96.35612, 30.07396], [-96.35591, 30.07419], [-96.35577, 30.07436], [-96.35556, 30.07453], [-96.35523, 30.07477], [-96.35503, 30.0749], [-96.35497, 30.07493], [-96.35493, 30.07496], [-96.35428, 30.07535], [-96.35422, 30.07538], [-96.35388, 30.07558], [-96.35378, 30.07564], [-96.35378, 30.07564], [-96.35306, 30.07605], [-96.35301, 30.07608], [-96.35286, 30.07619], [-96.35229, 30.07664], [-96.35183, 30.077], [-96.35163, 30.07714], [-96.35149, 30.0772], [-96.3513, 30.07723], [-96.351, 30.07725], [-96.34995, 30.0773], [-96.34971, 30.07731], [-96.34951, 30.07733], [-96.3493699, 30.07733], [-96.34924, 30.07734], [-96.34922, 30.07734], [-96.34891, 30.07735], [-96.34891, 30.07735], [-96.34882, 30.07719], [-96.34867, 30.07694]]}, "properties": {"surface": "caliche", "label": "Caliche / gravel", "color": "#C98A24", "miles": 1.25, "start_mi": 22.68, "end_mi": 23.93, "road": "Dabney Road", "elev_ft": [392, 392, 392, 392, 392, 392, 391, 390, 385, 382, 378, 352, 340, 333, 332, 320, 317, 316, 316, 316, 319, 319, 326, 327, 328, 327, 326, 327, 328, 329, 329, 335, 336, 338, 338, 338, 345, 346, 347, 351, 352, 353, 355, 357, 359, 369, 370, 371, 371, 371, 371, 370, 370, 371, 371]}}, {"type": "Feature", "geometry": {"type": "LineString", "coordinates": [[-96.34867, 30.07694], [-96.34856, 30.077], [-96.34847, 30.07703], [-96.34838, 30.07704], [-96.34807, 30.07701], [-96.34801, 30.077], [-96.34787, 30.07696], [-96.34748, 30.07684], [-96.34654, 30.07652], [-96.34598, 30.07633], [-96.34593, 30.07631], [-96.34577, 30.07625], [-96.34571, 30.07623], [-96.34537, 30.07611], [-96.34536, 30.07611], [-96.34527, 30.07606], [-96.34518, 30.07604], [-96.34514, 30.07603], [-96.34511, 30.07602], [-96.34508, 30.07602], [-96.34505, 30.07603], [-96.34495, 30.07607], [-96.34492, 30.07608], [-96.3449, 30.0761], [-96.34483, 30.07616], [-96.34482, 30.07618], [-96.3448, 30.07619], [-96.34452, 30.07652], [-96.34418, 30.07686], [-96.34408, 30.07696], [-96.34369, 30.07737], [-96.34358, 30.07749], [-96.34307, 30.07808], [-96.34283, 30.07833], [-96.34281, 30.07834], [-96.3427899, 30.07835], [-96.34268, 30.07839], [-96.34256, 30.07841], [-96.34156, 30.07858], [-96.34154, 30.07858], [-96.34128, 30.07862], [-96.34031, 30.07877], [-96.3396999, 30.07887], [-96.3386699, 30.07902], [-96.33827, 30.07909], [-96.33765, 30.07918], [-96.33719, 30.07925], [-96.33663, 30.07934], [-96.33622, 30.07941], [-96.33563, 30.0795], [-96.33543, 30.07954], [-96.33543, 30.07954], [-96.33534, 30.07917], [-96.33521, 30.07864], [-96.33487, 30.07705], [-96.33486, 30.07697], [-96.33483, 30.07677], [-96.33484, 30.07669], [-96.33486, 30.07648], [-96.33487, 30.07645], [-96.33488, 30.07636], [-96.3349999, 30.07585], [-96.33502, 30.07568], [-96.33504, 30.07557], [-96.33501, 30.07544], [-96.33499, 30.07529], [-96.33495, 30.07513], [-96.33485, 30.07476], [-96.33477, 30.07451], [-96.33463, 30.07401], [-96.33452, 30.07363], [-96.33433, 30.07291], [-96.33419, 30.07241], [-96.33401, 30.0717], [-96.33394, 30.07142], [-96.33378, 30.07082], [-96.33364, 30.07028], [-96.33362, 30.0702], [-96.33346, 30.06963], [-96.33345, 30.06958], [-96.33341, 30.06943], [-96.33341, 30.06933], [-96.33345, 30.06926], [-96.33351, 30.0692], [-96.3337899, 30.06911], [-96.33384, 30.0691], [-96.33408, 30.06906], [-96.33426, 30.06904], [-96.33446, 30.069], [-96.33471, 30.06896], [-96.33507, 30.0689], [-96.33527, 30.06886], [-96.33588, 30.06877], [-96.33589, 30.06877], [-96.33644, 30.06868], [-96.33691, 30.0686], [-96.33711, 30.06856], [-96.3375499, 30.0685], [-96.33793, 30.06843], [-96.33795, 30.06842], [-96.33829, 30.06837], [-96.33833, 30.06835], [-96.33839, 30.06833], [-96.33842, 30.06827], [-96.33844, 30.06821], [-96.33845, 30.06819], [-96.33839, 30.06806], [-96.33789, 30.06766], [-96.33721, 30.06714], [-96.33651, 30.0666], [-96.33623, 30.06637], [-96.33559, 30.06589], [-96.33451, 30.06504], [-96.33436, 30.06492], [-96.3341, 30.06471], [-96.33408, 30.0647], [-96.33382, 30.06449], [-96.33322, 30.064], [-96.33246, 30.06339], [-96.33233, 30.06328], [-96.33214, 30.06316], [-96.33214, 30.06316], [-96.33205, 30.06316], [-96.33196, 30.06317], [-96.33181, 30.06321], [-96.33167, 30.06325], [-96.33144, 30.06333], [-96.33065, 30.06351], [-96.33038, 30.06354], [-96.3298499, 30.06355], [-96.3297, 30.06355], [-96.32862, 30.0636], [-96.32861, 30.0636], [-96.32832, 30.06361], [-96.32829, 30.06361], [-96.32774, 30.06365], [-96.32771, 30.06364], [-96.32731, 30.06368], [-96.32713, 30.06368], [-96.3271199, 30.06368], [-96.32663, 30.06363], [-96.32646, 30.06364], [-96.32598, 30.06368], [-96.32567, 30.06372], [-96.32383, 30.064], [-96.32331, 30.06409], [-96.32301, 30.06413], [-96.32199, 30.06428], [-96.32143, 30.06437], [-96.32122, 30.06439], [-96.3206, 30.0645], [-96.31979, 30.06463], [-96.31938, 30.0647], [-96.3191, 30.06475], [-96.3189699, 30.06477], [-96.31827, 30.0649], [-96.31782, 30.065], [-96.31767, 30.06502], [-96.31695, 30.06513], [-96.31644, 30.0652], [-96.31623, 30.06524], [-96.31611, 30.06525], [-96.3160599, 30.06525], [-96.31604, 30.06525], [-96.316, 30.06523], [-96.31592, 30.06518], [-96.31591, 30.06516], [-96.31588, 30.06512], [-96.31587, 30.0651], [-96.31577, 30.06448], [-96.31576, 30.06442], [-96.31572, 30.06432], [-96.31571, 30.06431], [-96.3157, 30.0643], [-96.31569, 30.06429], [-96.31568, 30.06429], [-96.31567, 30.06429], [-96.3156, 30.06428], [-96.31529, 30.0643], [-96.31487, 30.06434], [-96.31428, 30.06438], [-96.31404, 30.06441], [-96.31363, 30.06445], [-96.31242, 30.06458], [-96.3123899, 30.06458], [-96.31177, 30.06463], [-96.31146, 30.06466], [-96.3103299, 30.06478], [-96.30971, 30.06484], [-96.30909, 30.0649], [-96.30826, 30.06498], [-96.30771, 30.06504], [-96.3075099, 30.06506], [-96.30723, 30.06509], [-96.30689, 30.06512], [-96.30646, 30.06515], [-96.30607, 30.06519], [-96.30565, 30.06523], [-96.30562, 30.06523], [-96.30549, 30.06531], [-96.30548, 30.06532], [-96.30535, 30.06545], [-96.30509, 30.06584], [-96.30463, 30.06655], [-96.30443, 30.06687], [-96.30439, 30.06692], [-96.30425, 30.06711], [-96.30419, 30.06716], [-96.3041, 30.06725], [-96.30397, 30.06732], [-96.30369, 30.06741], [-96.30325, 30.0675], [-96.30277, 30.06759], [-96.30154, 30.06779], [-96.30121, 30.06782], [-96.30117, 30.06782], [-96.30053, 30.06786], [-96.30038, 30.06788], [-96.30011, 30.06792], [-96.29998, 30.06793], [-96.29997, 30.06794], [-96.29979, 30.06797], [-96.29918, 30.06807], [-96.29804, 30.06827], [-96.2977, 30.06832], [-96.29647, 30.06851], [-96.29565, 30.06863], [-96.2944799, 30.0688], [-96.29442, 30.06881], [-96.2934, 30.06897], [-96.29238, 30.06912], [-96.29231, 30.06913], [-96.29197, 30.06918], [-96.29094, 30.06935], [-96.29092, 30.06935], [-96.29034, 30.06946], [-96.28993, 30.06954], [-96.28964, 30.0696], [-96.28952, 30.06962], [-96.28951, 30.06962], [-96.28891, 30.06973], [-96.28749, 30.06997], [-96.28676, 30.0701], [-96.28676, 30.0701], [-96.28667, 30.06974], [-96.28646, 30.06886], [-96.28638, 30.06851], [-96.2862899, 30.06815], [-96.28625, 30.06798], [-96.28616, 30.06763], [-96.28608, 30.06728], [-96.28599, 30.06693], [-96.28586, 30.0664], [-96.2857499, 30.06595], [-96.28563, 30.06538], [-96.28558, 30.06515], [-96.28556, 30.06506], [-96.28546, 30.06462], [-96.28529, 30.06391], [-96.28505, 30.06285], [-96.28497, 30.06251], [-96.2848999, 30.06218], [-96.28485, 30.06197], [-96.28454, 30.06056], [-96.28438, 30.05985], [-96.28429, 30.0595], [-96.28417, 30.05898], [-96.2841, 30.05868], [-96.28408, 30.05858], [-96.284, 30.05827], [-96.28391, 30.05791], [-96.28382, 30.05756], [-96.28369, 30.05704], [-96.28365, 30.0569], [-96.28348, 30.05616], [-96.28344, 30.05599], [-96.2833799, 30.05571], [-96.28333, 30.05549], [-96.28326, 30.05514], [-96.28315, 30.05461], [-96.28307, 30.05426], [-96.28305, 30.05412], [-96.28295, 30.05373], [-96.28283, 30.05324], [-96.28282, 30.0532], [-96.28274, 30.05282], [-96.28267, 30.05249], [-96.28259, 30.05214], [-96.28246, 30.05161], [-96.28238, 30.05126], [-96.2823, 30.0509], [-96.28228, 30.0508], [-96.28224, 30.05054], [-96.28219, 30.05038], [-96.28219, 30.05038], [-96.28246, 30.05034], [-96.2826, 30.05032], [-96.28337, 30.05022], [-96.28342, 30.05021], [-96.28388, 30.05015], [-96.28485, 30.05002], [-96.28507, 30.04999], [-96.28558, 30.04991], [-96.28608, 30.04983], [-96.2866, 30.04975], [-96.28748, 30.04961], [-96.28762, 30.04959], [-96.28773, 30.04957], [-96.28789, 30.04955], [-96.28803, 30.04953], [-96.2883, 30.04949], [-96.2886, 30.04944], [-96.28879, 30.04943], [-96.28919, 30.04939], [-96.28933, 30.04938], [-96.2897, 30.04935], [-96.28975, 30.04934], [-96.28992, 30.04931], [-96.2901, 30.04927], [-96.29012, 30.04926], [-96.29015, 30.04925], [-96.29034, 30.04919], [-96.29036, 30.04918], [-96.29094, 30.04902], [-96.29114, 30.04897], [-96.2913, 30.04892], [-96.29133, 30.04891], [-96.29153, 30.04886], [-96.29154, 30.04886], [-96.29173, 30.04882], [-96.29222, 30.04873], [-96.29234, 30.04871], [-96.29256, 30.04867], [-96.29275, 30.04863], [-96.29304, 30.04858], [-96.2933, 30.04855], [-96.29347, 30.04852], [-96.29371, 30.04849], [-96.2938099, 30.04847], [-96.29412, 30.04843], [-96.29432, 30.0484], [-96.29494, 30.04831], [-96.29525, 30.04827], [-96.29555, 30.04822], [-96.29561, 30.04822], [-96.2959599, 30.04816], [-96.29629, 30.04811], [-96.2966, 30.04806], [-96.2967, 30.04804], [-96.2968999, 30.04801], [-96.29691, 30.04801], [-96.29706, 30.04798], [-96.29722, 30.04796], [-96.29737, 30.04794], [-96.29746, 30.04792], [-96.29818, 30.04782], [-96.29859, 30.04775], [-96.2992, 30.04765], [-96.29955, 30.04759], [-96.2998099, 30.04755], [-96.30002, 30.04752], [-96.30043, 30.04746], [-96.30063, 30.04742], [-96.3008399, 30.04739], [-96.30103, 30.04736], [-96.30165, 30.04726], [-96.30214, 30.04718], [-96.30255, 30.04711], [-96.30286, 30.04706], [-96.3035699, 30.04694], [-96.30418, 30.04684], [-96.30438, 30.04681], [-96.30453, 30.04677], [-96.30459, 30.04675], [-96.30464, 30.04673], [-96.30468, 30.04671], [-96.30472, 30.04668], [-96.30474, 30.04665], [-96.30476, 30.04661], [-96.30477, 30.04659], [-96.3047799, 30.04656], [-96.3047799, 30.04655], [-96.3047799, 30.04653], [-96.30476, 30.04644], [-96.30466, 30.04581], [-96.30462, 30.04563], [-96.30459, 30.04547], [-96.30454, 30.04517], [-96.30453, 30.04511], [-96.30453, 30.0451], [-96.30453, 30.04505], [-96.30453, 30.04502], [-96.30455, 30.04499], [-96.30456, 30.04496], [-96.30458, 30.04493], [-96.30461, 30.0449], [-96.30464, 30.04488], [-96.30467, 30.04487], [-96.30471, 30.04485], [-96.30484, 30.04482], [-96.30508, 30.04479], [-96.3051799, 30.04477], [-96.30524, 30.04477], [-96.30537, 30.04475], [-96.30578, 30.04468], [-96.30599, 30.04465], [-96.30605, 30.04464], [-96.3066, 30.04455], [-96.30701, 30.04449], [-96.30706, 30.04448], [-96.30721, 30.04446], [-96.308, 30.04433], [-96.30844, 30.04426], [-96.30886, 30.04418], [-96.30905, 30.04415], [-96.30925, 30.04411], [-96.31022, 30.04395], [-96.31027, 30.04394], [-96.31035, 30.04392], [-96.31039, 30.04392], [-96.31091, 30.04383], [-96.3112699, 30.04377], [-96.31162, 30.04371], [-96.31166, 30.0437], [-96.3117, 30.04368], [-96.31173, 30.04365], [-96.31174, 30.04363], [-96.31175, 30.04362], [-96.31177, 30.0436], [-96.31177, 30.04358], [-96.31178, 30.04355], [-96.31178, 30.04353], [-96.31178, 30.04349], [-96.31176, 30.04334], [-96.31173, 30.04322], [-96.3117199, 30.04317], [-96.31171, 30.04309], [-96.3116299, 30.0427], [-96.31162, 30.04264], [-96.31159, 30.04246], [-96.31158, 30.04236], [-96.31158, 30.04231], [-96.31158, 30.04229], [-96.31159, 30.04225], [-96.31161, 30.04222], [-96.31162, 30.04221], [-96.31164, 30.04218], [-96.31171, 30.04214], [-96.31174, 30.04213], [-96.31184, 30.04208], [-96.31202, 30.04198], [-96.31238, 30.0418], [-96.31256, 30.04171], [-96.31278, 30.0416], [-96.31295, 30.04152], [-96.3131499, 30.04142], [-96.31343, 30.04126], [-96.3135, 30.04123], [-96.31356, 30.0412], [-96.31365, 30.04116], [-96.3136899, 30.04115], [-96.31372, 30.04114], [-96.31379, 30.04113], [-96.31387, 30.04112], [-96.31389, 30.04112], [-96.31394, 30.04111], [-96.31405, 30.04111], [-96.31405, 30.04111], [-96.31415, 30.04111], [-96.31431, 30.04112], [-96.31441, 30.04112], [-96.31462, 30.04113], [-96.31464, 30.04113], [-96.31472, 30.04114], [-96.31486, 30.04115], [-96.31488, 30.04115], [-96.31493, 30.04116], [-96.31509, 30.04117], [-96.31534, 30.04121], [-96.3155, 30.04123], [-96.31575, 30.04127], [-96.31589, 30.0413], [-96.31595, 30.04131], [-96.31602, 30.04132], [-96.31605, 30.04133], [-96.31609, 30.04134], [-96.31616, 30.04136], [-96.31622, 30.0414], [-96.31627, 30.04143], [-96.31635, 30.04149], [-96.31644, 30.04157], [-96.31647, 30.04159], [-96.31655, 30.04167], [-96.31689, 30.04199], [-96.31694, 30.04203], [-96.31703, 30.04212], [-96.3173599, 30.04243], [-96.31772, 30.04275], [-96.31774, 30.04277], [-96.31788, 30.0429], [-96.3180299, 30.04303], [-96.31818, 30.04315], [-96.3182, 30.04317], [-96.3182999, 30.04324], [-96.31843, 30.04334], [-96.31856, 30.04342], [-96.31861, 30.04344], [-96.3187, 30.04349], [-96.31879, 30.04353], [-96.31881, 30.04354], [-96.31887, 30.04356], [-96.3188799, 30.04356], [-96.31895, 30.04358], [-96.31899, 30.04359], [-96.31902, 30.0436], [-96.31908, 30.04361], [-96.31914, 30.04362], [-96.31919, 30.04362], [-96.31921, 30.04362], [-96.31927, 30.04361], [-96.31928, 30.04361], [-96.3193299, 30.0436], [-96.31939, 30.04359], [-96.31943, 30.04357], [-96.31949, 30.04354], [-96.31957, 30.04348], [-96.31957, 30.04348]]}, "properties": {"surface": "unknown", "label": "Unverified", "color": "#9A9389", "miles": 9.32, "start_mi": 23.93, "end_mi": 33.25, "road": "Lynn Road", "elev_ft": [371, 371, 370, 370, 370, 370, 370, 373, 382, 387, 387, 389, 390, 391, 391, 391, 390, 390, 389, 389, 389, 388, 387, 387, 386, 386, 385, 382, 379, 378, 377, 378, 382, 382, 382, 382, 381, 381, 370, 370, 367, 362, 353, 341, 338, 340, 344, 346, 346, 340, 338, 338, 336, 338, 318, 317, 314, 313, 305, 305, 304, 319, 322, 325, 330, 331, 335, 345, 349, 355, 360, 368, 373, 375, 375, 370, 367, 366, 358, 358, 356, 354, 353, 352, 348, 348, 344, 342, 341, 341, 345, 347, 353, 353, 360, 366, 369, 375, 382, 382, 386, 386, 386, 385, 385, 384, 381, 371, 363, 350, 347, 338, 356, 359, 363, 363, 360, 350, 331, 329, 325, 325, 323, 321, 319, 319, 319, 319, 318, 310, 310, 295, 295, 291, 292, 308, 308, 311, 309, 309, 307, 306, 305, 303, 305, 303, 300, 285, 281, 281, 288, 300, 304, 302, 299, 291, 293, 296, 313, 314, 314, 314, 313, 313, 313, 312, 312, 312, 312, 315, 315, 315, 315, 315, 315, 315, 314, 314, 311, 311, 316, 318, 319, 310, 310, 299, 289, 273, 264, 257, 252, 247, 246, 255, 262, 270, 273, 275, 275, 275, 275, 274, 269, 260, 256, 255, 255, 256, 257, 260, 264, 272, 276, 285, 291, 291, 296, 296, 295, 293, 293, 290, 287, 276, 271, 268, 269, 277, 277, 277, 287, 287, 283, 264, 263, 253, 247, 243, 242, 243, 256, 277, 281, 281, 276, 257, 248, 241, 238, 232, 227, 225, 234, 236, 230, 229, 229, 232, 242, 261, 266, 268, 272, 288, 297, 299, 292, 288, 287, 284, 280, 276, 280, 282, 292, 293, 295, 295, 291, 282, 277, 272, 269, 269, 268, 265, 268, 274, 284, 289, 292, 292, 290, 288, 288, 287, 289, 295, 295, 297, 304, 307, 315, 324, 328, 340, 341, 341, 342, 342, 342, 341, 338, 328, 326, 320, 319, 318, 319, 320, 320, 325, 326, 338, 341, 345, 346, 348, 349, 349, 340, 338, 334, 330, 324, 314, 315, 322, 323, 330, 335, 350, 359, 366, 368, 371, 377, 376, 375, 374, 374, 371, 370, 368, 367, 356, 354, 351, 353, 355, 356, 356, 355, 353, 350, 341, 338, 334, 332, 327, 322, 321, 322, 322, 323, 323, 323, 323, 324, 324, 325, 325, 325, 326, 336, 340, 342, 342, 342, 342, 342, 342, 342, 342, 342, 342, 342, 342, 342, 341, 339, 338, 338, 336, 330, 327, 327, 324, 331, 331, 332, 337, 341, 342, 343, 343, 346, 346, 346, 347, 348, 348, 347, 347, 347, 347, 348, 348, 348, 348, 348, 348, 349, 350, 351, 351, 352, 352, 352, 351, 351, 351, 351, 351, 351, 351, 351, 351, 351, 351, 352, 351, 350, 349, 350, 354, 357, 357, 358, 359, 359, 360, 361, 362, 362, 363, 365, 365, 366, 369, 370, 371, 372, 375, 380, 380, 381, 381, 380, 379, 376, 374, 374, 373, 372, 372, 371, 370, 370, 370, 369, 369, 369, 370, 371, 372, 376, 382, 383, 385, 386, 388, 389, 390, 392, 394, 394, 395, 395, 395, 395, 395, 395, 395, 395, 395, 394, 394, 394, 393, 393, 393, 393, 393, 393, 394, 394]}}, {"type": "Feature", "geometry": {"type": "LineString", "coordinates": [[-96.31973, 30.0442], [-96.31981, 30.04454], [-96.31985, 30.04472], [-96.31989, 30.0449], [-96.31993, 30.04507], [-96.31996, 30.0452], [-96.31998, 30.04525], [-96.32001, 30.04535], [-96.32005, 30.04542], [-96.3200899, 30.0455], [-96.32015, 30.04557], [-96.32016, 30.04558], [-96.32025, 30.04565], [-96.32035, 30.04572], [-96.32059, 30.04581], [-96.32073, 30.04586], [-96.32088, 30.0459], [-96.32101, 30.04591], [-96.32111, 30.04592], [-96.32122, 30.04592], [-96.32135, 30.04592], [-96.3214799, 30.04592], [-96.32158, 30.04593], [-96.32167, 30.04594], [-96.32182, 30.04597], [-96.32191, 30.04601], [-96.32207, 30.04611], [-96.32209, 30.04612], [-96.32226, 30.04622], [-96.32227, 30.04622], [-96.32243, 30.04629], [-96.32245, 30.04631], [-96.32265, 30.04639], [-96.3228199, 30.04646], [-96.3229999, 30.04652], [-96.32322, 30.04659], [-96.32341, 30.04665], [-96.32347, 30.04667], [-96.3238, 30.04678], [-96.32397, 30.04683], [-96.32444, 30.04698], [-96.32478, 30.0471], [-96.32494, 30.04716], [-96.32526, 30.04729], [-96.32554, 30.0474], [-96.32581, 30.04751], [-96.32615, 30.04766], [-96.32645, 30.04781], [-96.3266, 30.04789], [-96.32717, 30.04819], [-96.32727, 30.04824], [-96.32762, 30.04844], [-96.3277899, 30.04854], [-96.32793, 30.04863], [-96.328, 30.04867], [-96.328, 30.04867]]}, "properties": {"surface": "pavement", "label": "Pavement", "color": "#4A5568", "miles": 0.62, "start_mi": 33.25, "end_mi": 33.87, "road": "Loop 497", "elev_ft": [376, 367, 365, 364, 363, 362, 362, 361, 361, 361, 361, 361, 362, 364, 368, 369, 370, 371, 371, 372, 372, 374, 375, 376, 375, 374, 373, 373, 373, 373, 372, 372, 373, 375, 376, 378, 379, 379, 380, 381, 382, 384, 385, 385, 386, 388, 389, 390, 390, 390, 390, 390, 389, 388, 388, 388]}}]}