{"type": "FeatureCollection", "features": [{"type": "Feature", "geometry": {"type": "LineString", "coordinates": [[-96.32793, 30.04863], [-96.32808, 30.04873], [-96.32821, 30.04881], [-96.32837, 30.04891], [-96.32859, 30.04906], [-96.3286399, 30.0491], [-96.32871, 30.04914], [-96.32887, 30.04925], [-96.32903, 30.04937], [-96.32926, 30.04954], [-96.32935, 30.0496], [-96.32951, 30.04971], [-96.32954, 30.04973], [-96.32956, 30.04974], [-96.32982, 30.04993], [-96.32983, 30.04994], [-96.32988, 30.04997], [-96.32999, 30.05005], [-96.3301, 30.05013], [-96.33015, 30.05017], [-96.3302, 30.0502], [-96.33031, 30.05028], [-96.33036, 30.05032], [-96.33067, 30.05054], [-96.33092, 30.05072], [-96.33112, 30.05088], [-96.3313, 30.05102], [-96.33151, 30.0512], [-96.33169, 30.05137], [-96.33171, 30.05139], [-96.33183, 30.05151], [-96.33187, 30.05155], [-96.33189, 30.05157], [-96.33202, 30.05171], [-96.3321799, 30.05187], [-96.33227, 30.05197], [-96.33228, 30.05198], [-96.3326699, 30.05241], [-96.33291, 30.05267], [-96.333, 30.05277], [-96.33305, 30.05283], [-96.33317, 30.05295], [-96.33318, 30.05297], [-96.33328, 30.05307], [-96.33331, 30.05311], [-96.33343, 30.05324], [-96.3335199, 30.05334], [-96.33373, 30.05355], [-96.33395, 30.05375], [-96.33402, 30.05381], [-96.33417, 30.05394], [-96.3344, 30.05409], [-96.33461, 30.05422], [-96.33484, 30.05436], [-96.33495, 30.05441], [-96.33502, 30.05446], [-96.33539, 30.05467], [-96.33554, 30.05475], [-96.33568, 30.05483], [-96.33589, 30.05495], [-96.336, 30.05501], [-96.3360299, 30.05503], [-96.33624, 30.05514], [-96.33648, 30.05528], [-96.3366999, 30.0554], [-96.33702, 30.05558], [-96.33717, 30.05567], [-96.33747, 30.05584], [-96.33758, 30.05592], [-96.3377, 30.05602], [-96.3378, 30.05613], [-96.33784, 30.05619], [-96.33788, 30.05627], [-96.3379099, 30.05631], [-96.33792, 30.05633], [-96.33795, 30.05643], [-96.33796, 30.05649], [-96.33797, 30.05653], [-96.33798, 30.05663], [-96.33798, 30.05667], [-96.33797, 30.05679], [-96.33796, 30.05689], [-96.33793, 30.05702], [-96.33793, 30.05702], [-96.33852, 30.05715], [-96.33854, 30.05716], [-96.33866, 30.05718], [-96.33872, 30.0572], [-96.33906, 30.05726], [-96.33936, 30.05731], [-96.33963, 30.05734], [-96.33984, 30.05735], [-96.33995, 30.05735], [-96.3399699, 30.05735], [-96.3400599, 30.05735], [-96.34016, 30.05734], [-96.34029, 30.05733], [-96.34056, 30.0573], [-96.34059, 30.05729], [-96.34075, 30.05726], [-96.34078, 30.05725], [-96.34079, 30.05725], [-96.3409, 30.05723], [-96.34099, 30.0572], [-96.34116, 30.05715], [-96.34119, 30.05714], [-96.34133, 30.05709], [-96.34146, 30.05704], [-96.34159, 30.05698], [-96.3417599, 30.0569], [-96.34195, 30.05679], [-96.34209, 30.0567], [-96.34228, 30.05658], [-96.34258, 30.05638], [-96.34284, 30.0562], [-96.34289, 30.05617], [-96.34324, 30.05593], [-96.34333, 30.05586], [-96.34348, 30.05575], [-96.34371, 30.0556], [-96.34403, 30.05538], [-96.34409, 30.05534], [-96.34428, 30.05521], [-96.34437, 30.05516], [-96.34454, 30.05506], [-96.34478, 30.05494], [-96.3449, 30.0549], [-96.34509, 30.05483], [-96.3451, 30.05482], [-96.34524, 30.05479], [-96.34548, 30.05473], [-96.34573, 30.0547], [-96.34595, 30.05468], [-96.34636, 30.05466], [-96.34658, 30.05464], [-96.34671, 30.05464], [-96.34698, 30.0546], [-96.3472, 30.05456], [-96.3472, 30.05456]]}, "properties": {"surface": "pavement", "label": "Pavement", "color": "#4A5568", "miles": 1.47, "start_mi": 0.0, "end_mi": 1.47, "road": "Loop 497", "elev_ft": [388, 387, 387, 386, 385, 385, 384, 383, 382, 381, 381, 380, 380, 380, 381, 381, 381, 382, 383, 386, 387, 388, 388, 389, 392, 395, 398, 400, 402, 402, 404, 405, 406, 406, 405, 403, 403, 400, 400, 400, 400, 400, 400, 400, 400, 400, 399, 398, 398, 398, 397, 396, 393, 392, 395, 398, 402, 404, 407, 411, 411, 411, 410, 406, 401, 396, 394, 390, 386, 383, 380, 379, 378, 377, 377, 375, 374, 373, 372, 372, 371, 370, 370, 370, 364, 364, 361, 360, 359, 356, 353, 351, 350, 350, 350, 348, 347, 344, 344, 342, 342, 342, 341, 340, 338, 338, 338, 338, 338, 338, 336, 335, 333, 332, 332, 331, 329, 329, 327, 323, 322, 322, 322, 321, 321, 320, 320, 320, 320, 320, 317, 312, 310, 311, 319, 324, 330, 332, 332]}}, {"type": "Feature", "geometry": {"type": "LineString", "coordinates": [[-96.34725, 30.05465], [-96.34729, 30.05478], [-96.34729, 30.05479], [-96.34732, 30.0549], [-96.34732, 30.05495], [-96.34732, 30.05497], [-96.34732, 30.05499], [-96.34726, 30.05516], [-96.34719, 30.05525], [-96.34711, 30.05533], [-96.34702, 30.05541], [-96.34701, 30.05542], [-96.34686, 30.05555], [-96.34684, 30.05557], [-96.34679, 30.05564], [-96.34676, 30.0557], [-96.3467299, 30.05577], [-96.34674, 30.05614], [-96.3468199, 30.05701], [-96.34686, 30.05724], [-96.34695, 30.05748], [-96.34698, 30.05756], [-96.34717, 30.05798], [-96.34772, 30.05912], [-96.34778, 30.05932], [-96.34784, 30.05951], [-96.34794, 30.0599], [-96.34798, 30.06006], [-96.34809, 30.06029], [-96.34817, 30.06043], [-96.34819, 30.06045], [-96.34826, 30.06053], [-96.34854, 30.06081], [-96.34871, 30.06096], [-96.34878, 30.06103], [-96.3492, 30.06146], [-96.3494599, 30.06171], [-96.34953, 30.06182], [-96.34954, 30.06183], [-96.34966, 30.06205], [-96.34969, 30.06213], [-96.3498199, 30.06248], [-96.34983, 30.06249], [-96.34997, 30.06292], [-96.35002, 30.06308], [-96.3501, 30.06335], [-96.35012, 30.06339], [-96.35023, 30.06375], [-96.35024, 30.06378], [-96.35029, 30.06391], [-96.3503099, 30.06404], [-96.3503099, 30.06411], [-96.35029, 30.06416], [-96.35023, 30.06423], [-96.3495, 30.06492], [-96.34876, 30.06561], [-96.34853, 30.06583], [-96.34848, 30.06589], [-96.34845, 30.06594], [-96.34844, 30.06602], [-96.34845, 30.06615], [-96.34848, 30.06622], [-96.34849, 30.06624], [-96.34857, 30.06632], [-96.34924, 30.06684], [-96.3494, 30.06696], [-96.34985, 30.06732], [-96.3506, 30.06791], [-96.35089, 30.06812], [-96.351, 30.0682], [-96.351, 30.0682], [-96.35155, 30.06781], [-96.35252, 30.06713], [-96.3535, 30.06644], [-96.3543, 30.06587], [-96.35465, 30.06562], [-96.35469, 30.0656], [-96.35479, 30.06559], [-96.35486, 30.0656], [-96.35496, 30.06565], [-96.35514, 30.0658], [-96.35536, 30.06598], [-96.3556, 30.06617], [-96.3558, 30.06632], [-96.3559, 30.0664], [-96.35593, 30.06643], [-96.35614, 30.06659], [-96.3562199, 30.06664], [-96.35638, 30.06675], [-96.35666, 30.06689], [-96.35674, 30.06693], [-96.35704, 30.06708], [-96.35717, 30.06713], [-96.3573, 30.06715], [-96.35745, 30.06713], [-96.35808, 30.06704], [-96.3583699, 30.06699], [-96.35849, 30.06695], [-96.35851, 30.06693], [-96.35857, 30.06689], [-96.3589, 30.06661], [-96.35896, 30.06655], [-96.35911, 30.06641], [-96.35915, 30.06639], [-96.3592, 30.06637], [-96.35923, 30.06637], [-96.35925, 30.06637], [-96.35928, 30.06637], [-96.35935, 30.0664], [-96.35948, 30.06648], [-96.3595, 30.06649], [-96.35974, 30.06669], [-96.3598899, 30.06681], [-96.36064, 30.06743], [-96.36076, 30.06753], [-96.36096, 30.06766], [-96.36104, 30.06771], [-96.36113, 30.06774], [-96.36122, 30.06775], [-96.36135, 30.06773], [-96.3614, 30.06772], [-96.36201, 30.06742], [-96.36282, 30.06707], [-96.36319, 30.06691], [-96.3634299, 30.06679], [-96.36363, 30.06666], [-96.36376, 30.06653], [-96.36385, 30.06641], [-96.36391, 30.06633], [-96.36432, 30.06572], [-96.36434, 30.06569], [-96.3644, 30.06561], [-96.36467, 30.06524], [-96.36509, 30.06466], [-96.36523, 30.06452], [-96.36533, 30.06443], [-96.36535, 30.0644], [-96.36556, 30.06428], [-96.36573, 30.06418], [-96.36603, 30.06401], [-96.36605, 30.064], [-96.36615, 30.06396], [-96.36662, 30.06378], [-96.36668, 30.06375], [-96.36741, 30.06347], [-96.36763, 30.06338], [-96.36794, 30.06326], [-96.36825, 30.06312], [-96.36857, 30.06299], [-96.36867, 30.06294], [-96.36937, 30.06261], [-96.36939, 30.0626], [-96.3700999, 30.06222], [-96.37024, 30.06215], [-96.37062, 30.06192], [-96.37064, 30.06191], [-96.37072, 30.06184], [-96.37084, 30.06175], [-96.37091, 30.06166], [-96.3709499, 30.06161], [-96.37106, 30.06145], [-96.37118, 30.06129], [-96.37124, 30.06122], [-96.37125, 30.06121], [-96.37143, 30.06106], [-96.37156, 30.06097], [-96.37168, 30.06089], [-96.37187, 30.0608], [-96.37221, 30.0607], [-96.37253, 30.06062], [-96.37275, 30.06059], [-96.3729199, 30.06058], [-96.37308, 30.06059], [-96.37333, 30.06061], [-96.3734, 30.06062], [-96.3738599, 30.06068], [-96.3742199, 30.0607], [-96.3743, 30.06069], [-96.37433, 30.06068], [-96.37449, 30.06059], [-96.37461, 30.06048], [-96.37509, 30.05997], [-96.37552, 30.05963], [-96.3757399, 30.05952], [-96.37581, 30.0595], [-96.37627, 30.05935], [-96.37724, 30.05904], [-96.37804, 30.05877], [-96.37808, 30.05875], [-96.37813, 30.0587], [-96.37828, 30.05851], [-96.37911, 30.05748], [-96.37912, 30.05747], [-96.37925, 30.05729], [-96.37947, 30.05702], [-96.37947, 30.05702], [-96.37974, 30.05723], [-96.38008, 30.05751], [-96.38038, 30.05776], [-96.3807, 30.05802], [-96.3807, 30.05802]]}, "properties": {"surface": "caliche", "label": "Caliche / gravel", "color": "#C98A24", "miles": 3.36, "start_mi": 1.47, "end_mi": 4.83, "road": "Rocky Road", "elev_ft": [333, 334, 334, 335, 335, 335, 335, 335, 334, 333, 331, 331, 328, 327, 326, 326, 325, 325, 322, 323, 322, 322, 323, 331, 331, 331, 333, 333, 334, 335, 335, 336, 341, 342, 342, 342, 343, 342, 342, 343, 343, 347, 347, 350, 351, 353, 354, 358, 358, 359, 360, 360, 360, 361, 366, 368, 368, 368, 369, 370, 371, 371, 372, 373, 379, 380, 382, 382, 381, 381, 381, 377, 367, 364, 363, 359, 359, 358, 357, 356, 353, 349, 345, 342, 340, 340, 338, 337, 335, 333, 332, 328, 327, 325, 325, 325, 323, 324, 324, 325, 325, 325, 330, 330, 331, 332, 332, 333, 333, 333, 333, 328, 325, 307, 304, 297, 294, 291, 291, 291, 291, 285, 282, 283, 287, 287, 288, 290, 291, 290, 290, 290, 286, 281, 278, 270, 270, 280, 282, 283, 284, 284, 285, 285, 284, 281, 278, 275, 278, 278, 277, 277, 275, 277, 281, 281, 281, 281, 279, 277, 271, 268, 268, 268, 267, 266, 266, 265, 263, 262, 262, 262, 262, 262, 262, 262, 261, 260, 260, 259, 258, 254, 251, 252, 252, 256, 260, 260, 260, 260, 259, 255, 255, 255, 256, 256, 260, 271, 272, 268, 268]}}, {"type": "Feature", "geometry": {"type": "LineString", "coordinates": [[-96.38083, 30.05787], [-96.38108, 30.05763], [-96.3811, 30.05761], [-96.38121, 30.05751], [-96.38126, 30.05747], [-96.38153, 30.05721], [-96.38264, 30.05615], [-96.38334, 30.05548], [-96.38355, 30.05528], [-96.38358, 30.05525], [-96.38376, 30.05508], [-96.38403, 30.05481], [-96.38458, 30.05428], [-96.38459, 30.05427], [-96.38487, 30.05401], [-96.38529, 30.05361], [-96.38599, 30.05294], [-96.38627, 30.05268], [-96.38655, 30.05241], [-96.38669, 30.05228], [-96.38669, 30.05227], [-96.3867099, 30.05226], [-96.38693, 30.05208], [-96.38696, 30.05204], [-96.38699, 30.05198], [-96.38701, 30.05194], [-96.38702, 30.05191], [-96.38702, 30.05188], [-96.38702, 30.05185], [-96.38702, 30.05182], [-96.387, 30.05179], [-96.38698, 30.05177], [-96.38695, 30.05174], [-96.3869, 30.0517], [-96.3866, 30.05145], [-96.38628, 30.05119], [-96.38591, 30.0509], [-96.38575, 30.05075], [-96.38571, 30.05069], [-96.3856, 30.05052], [-96.38553, 30.05037], [-96.38546, 30.05024], [-96.3854099, 30.05008], [-96.3854, 30.05003], [-96.3854, 30.05002], [-96.38539, 30.04987], [-96.38539, 30.04985], [-96.3854, 30.04963], [-96.38546, 30.04921], [-96.3854999, 30.04904], [-96.3856, 30.04882], [-96.38562, 30.0488], [-96.3857, 30.04873], [-96.38657, 30.04789], [-96.38659, 30.04786], [-96.38698, 30.04748], [-96.38701, 30.04746], [-96.38712, 30.04735], [-96.38782, 30.04668], [-96.38784, 30.04666], [-96.38796, 30.04655], [-96.38804, 30.04647], [-96.38809, 30.04641], [-96.3881, 30.0464], [-96.38813, 30.04634], [-96.38814, 30.04632], [-96.38814, 30.0463], [-96.38814, 30.04628], [-96.38813, 30.04626], [-96.38812, 30.04623], [-96.38809, 30.0462], [-96.38806, 30.04617], [-96.38799, 30.0461], [-96.38773, 30.0459], [-96.38726, 30.04555], [-96.38715, 30.04546], [-96.38706, 30.04539], [-96.38695, 30.0453], [-96.38665, 30.04506], [-96.3866, 30.04502], [-96.38657, 30.045], [-96.38637, 30.04485], [-96.38625, 30.04474], [-96.38618, 30.04468], [-96.38612, 30.04461], [-96.38609, 30.04456], [-96.38608, 30.04454], [-96.38606, 30.04449], [-96.38605, 30.04448], [-96.38603, 30.04439], [-96.386, 30.04419], [-96.38603, 30.04383], [-96.38607, 30.04359], [-96.38624, 30.04308], [-96.38622, 30.0429], [-96.38615, 30.04271], [-96.38597, 30.04249], [-96.38583, 30.04237], [-96.38571, 30.04223], [-96.38556, 30.04191], [-96.38544, 30.04155], [-96.38531, 30.04128], [-96.3853, 30.04126], [-96.38473, 30.04047], [-96.38452, 30.04021], [-96.38451, 30.04021], [-96.38433, 30.03999], [-96.38424, 30.03988], [-96.38416, 30.03971], [-96.38407, 30.03941], [-96.38405, 30.03932], [-96.38405, 30.03925], [-96.38406, 30.03917], [-96.38437, 30.03873], [-96.38443, 30.03866], [-96.38444, 30.03862], [-96.38448, 30.03855], [-96.38453, 30.03839], [-96.38453, 30.03813], [-96.38445, 30.03772], [-96.38444, 30.03769], [-96.38441, 30.03745], [-96.38441, 30.03722], [-96.38443, 30.03705], [-96.38467, 30.0365], [-96.38481, 30.03617], [-96.38517, 30.03528], [-96.38518, 30.0352], [-96.38518, 30.03514], [-96.38517, 30.03511], [-96.38514, 30.03507], [-96.3851, 30.03502], [-96.38476, 30.03476], [-96.38443, 30.03451], [-96.38414, 30.03428], [-96.38369, 30.03392], [-96.38337, 30.03367], [-96.38288, 30.0333], [-96.38271, 30.03317], [-96.3824099, 30.03294], [-96.38223, 30.03281], [-96.38179, 30.03246], [-96.38149, 30.03222], [-96.38116, 30.03196], [-96.38061, 30.03153], [-96.38056, 30.03149], [-96.3803, 30.03129], [-96.38026, 30.03125], [-96.38, 30.03105], [-96.37998, 30.03103], [-96.37994, 30.03102], [-96.37991, 30.03101], [-96.37982, 30.03101], [-96.3797699, 30.03102], [-96.37969, 30.03107], [-96.37936, 30.03139], [-96.37932, 30.03143], [-96.37909, 30.03166], [-96.37904, 30.0317], [-96.37895, 30.03179], [-96.37881, 30.03192], [-96.37876, 30.03197], [-96.37867, 30.03206], [-96.37825, 30.03246], [-96.37811, 30.03259], [-96.3780699, 30.03263], [-96.37797, 30.03272], [-96.37793, 30.03277], [-96.37783, 30.03286], [-96.37774, 30.03294], [-96.37769, 30.03299], [-96.37765, 30.03303], [-96.37756, 30.03313], [-96.37696, 30.03371], [-96.3768599, 30.0338], [-96.3768, 30.03386], [-96.37672, 30.0339], [-96.37667, 30.03391], [-96.3765899, 30.0339], [-96.37652, 30.03388], [-96.3764999, 30.03386], [-96.37648, 30.03385], [-96.37646, 30.03382], [-96.3762, 30.03362], [-96.3757399, 30.03325], [-96.37559, 30.03313], [-96.37554, 30.03309], [-96.37544, 30.03301], [-96.37538, 30.03296], [-96.37528, 30.03289], [-96.37524, 30.03285], [-96.37482, 30.03252], [-96.37452, 30.03228], [-96.37436, 30.03216], [-96.37431, 30.03212], [-96.37421, 30.03204], [-96.37416, 30.032], [-96.37412, 30.03197], [-96.37406, 30.03191], [-96.37402, 30.03187]]}, "properties": {"surface": "caliche", "label": "Caliche / gravel", "color": "#C98A24", "miles": 2.84, "start_mi": 4.83, "end_mi": 7.66, "road": "South Rocky Road", "elev_ft": [264, 260, 260, 258, 258, 260, 267, 276, 277, 277, 278, 278, 270, 269, 265, 281, 305, 312, 317, 316, 316, 316, 312, 311, 310, 308, 307, 306, 305, 304, 303, 302, 302, 300, 293, 282, 267, 260, 258, 251, 247, 245, 243, 243, 243, 243, 243, 244, 242, 241, 242, 242, 243, 245, 245, 253, 254, 260, 282, 283, 285, 286, 286, 286, 286, 286, 286, 286, 286, 285, 285, 284, 282, 272, 254, 250, 247, 243, 238, 238, 237, 235, 234, 234, 233, 233, 233, 233, 233, 232, 231, 230, 230, 230, 230, 230, 230, 230, 230, 229, 229, 229, 229, 227, 226, 226, 226, 226, 226, 224, 224, 223, 223, 221, 221, 222, 222, 222, 222, 222, 222, 223, 223, 223, 222, 222, 221, 221, 221, 221, 221, 221, 223, 224, 225, 227, 229, 233, 237, 247, 254, 269, 279, 287, 300, 301, 303, 303, 304, 304, 303, 303, 303, 302, 301, 290, 289, 286, 286, 288, 292, 294, 296, 309, 312, 313, 314, 314, 313, 312, 311, 310, 308, 304, 304, 303, 303, 303, 304, 304, 305, 305, 305, 308, 313, 313, 313, 312, 311, 310, 309, 298, 290, 287, 287, 285, 284, 283, 282, 282]}}, {"type": "Feature", "geometry": {"type": "LineString", "coordinates": [[-96.37392, 30.03178], [-96.37392, 30.03178], [-96.37362, 30.03193], [-96.37345, 30.03203], [-96.37329, 30.03213], [-96.37323, 30.03218], [-96.37309, 30.03229], [-96.37308, 30.0323], [-96.37306, 30.03232], [-96.37287, 30.03249], [-96.37252, 30.03284], [-96.37237, 30.03299], [-96.3722499, 30.03311], [-96.37223, 30.03312], [-96.37182, 30.03354], [-96.37155, 30.03381], [-96.37144, 30.03392], [-96.37142, 30.03394], [-96.37103, 30.03433], [-96.37089, 30.03447], [-96.37047, 30.03489], [-96.37042, 30.03494], [-96.37014, 30.03521], [-96.36976, 30.03562], [-96.36963, 30.03575], [-96.36954, 30.03585], [-96.36941, 30.03601], [-96.3691599, 30.03633], [-96.36911, 30.03641], [-96.36906, 30.03647], [-96.36894, 30.03665], [-96.3687999, 30.03684], [-96.36873, 30.03693], [-96.36866, 30.03702], [-96.36857, 30.03714], [-96.36844, 30.03731], [-96.36843, 30.03731], [-96.36834, 30.03742], [-96.3683099, 30.03746], [-96.36817, 30.03759], [-96.3681, 30.03767], [-96.36794, 30.0378], [-96.36782, 30.0379], [-96.36772, 30.03797], [-96.36754, 30.0381], [-96.3673699, 30.03822], [-96.36717, 30.03833], [-96.36694, 30.03844], [-96.36679, 30.03851], [-96.36668, 30.03855], [-96.36668, 30.03855]]}, "properties": {"surface": "pavement", "label": "Pavement", "color": "#4A5568", "miles": 0.64, "start_mi": 7.66, "end_mi": 8.31, "road": "Farm-to-Market Road 2754", "elev_ft": [281, 281, 278, 276, 275, 275, 274, 274, 273, 271, 270, 271, 271, 271, 274, 275, 275, 274, 274, 273, 272, 271, 272, 280, 283, 286, 287, 289, 289, 289, 289, 288, 288, 289, 289, 290, 290, 291, 291, 294, 295, 295, 295, 296, 298, 301, 304, 306, 307, 309, 309]}}, {"type": "Feature", "geometry": {"type": "LineString", "coordinates": [[-96.36665, 30.03848], [-96.36663, 30.03845], [-96.36655, 30.03834], [-96.36654, 30.03833], [-96.3664299, 30.03822], [-96.3664, 30.0382], [-96.36624, 30.03808], [-96.36608, 30.03796], [-96.36605, 30.03794], [-96.36593, 30.03784], [-96.36577, 30.03772], [-96.36551, 30.03752], [-96.36546, 30.03748], [-96.36532, 30.03735], [-96.3652, 30.03725], [-96.36505, 30.03713], [-96.3649, 30.037], [-96.36476, 30.03687], [-96.36473, 30.03685], [-96.36461, 30.03674], [-96.36421, 30.03633], [-96.3641899, 30.0363], [-96.36355, 30.03564], [-96.36319, 30.03526], [-96.3629, 30.03494], [-96.36287, 30.03491], [-96.36278, 30.03481], [-96.36264, 30.03466], [-96.3625, 30.03452], [-96.36248, 30.03449], [-96.36224, 30.03424], [-96.36221, 30.03422], [-96.3621, 30.03411], [-96.36167, 30.03366], [-96.36139, 30.03341], [-96.3613699, 30.03339], [-96.36125, 30.03332], [-96.3610999, 30.03323], [-96.36106, 30.03321], [-96.36104, 30.0332], [-96.36083, 30.03313], [-96.36048, 30.03308], [-96.35983, 30.03299], [-96.35839, 30.03278], [-96.35749, 30.03265], [-96.35736, 30.03263], [-96.3571599, 30.0326], [-96.35553, 30.03235], [-96.35468, 30.03222], [-96.35447, 30.03221], [-96.35439, 30.03223], [-96.3543399, 30.03226], [-96.35433, 30.03226], [-96.3542499, 30.03231], [-96.35402, 30.03253], [-96.35375, 30.0328], [-96.35366, 30.03288], [-96.35352, 30.033], [-96.35346, 30.03303], [-96.35342, 30.03304], [-96.35341, 30.03304], [-96.3533999, 30.03304], [-96.35334, 30.03303], [-96.35329, 30.03302], [-96.35299, 30.03278], [-96.35277, 30.03261], [-96.35253, 30.03242], [-96.35222, 30.03217], [-96.3513, 30.03144], [-96.3505799, 30.03088], [-96.35057, 30.03087], [-96.3497299, 30.03022], [-96.34965, 30.03016], [-96.3494599, 30.03001], [-96.34791, 30.0288], [-96.34715, 30.02818], [-96.34688, 30.02796], [-96.34606, 30.02732], [-96.34559, 30.02696], [-96.34482, 30.02636], [-96.34405, 30.02576], [-96.34359, 30.0254], [-96.3432799, 30.02516], [-96.34235, 30.02444], [-96.34204, 30.0242], [-96.34189, 30.02407], [-96.34146, 30.02374], [-96.34143, 30.02371], [-96.34127, 30.02359], [-96.34067, 30.02309], [-96.34067, 30.02309]]}, "properties": {"surface": "unknown", "label": "Unverified", "color": "#9A9389", "miles": 2.01, "start_mi": 8.31, "end_mi": 10.32, "road": "Arning Road", "elev_ft": [309, 310, 312, 312, 315, 316, 319, 323, 323, 326, 329, 331, 332, 335, 338, 340, 342, 344, 344, 346, 350, 350, 353, 358, 360, 360, 360, 360, 360, 360, 361, 361, 361, 355, 350, 350, 349, 348, 348, 348, 348, 350, 353, 348, 351, 350, 350, 335, 336, 337, 337, 337, 337, 336, 333, 331, 330, 328, 327, 326, 326, 326, 326, 325, 323, 321, 320, 317, 310, 302, 301, 292, 291, 289, 272, 262, 253, 278, 280, 278, 269, 267, 269, 292, 298, 301, 304, 305, 305, 308, 308]}}, {"type": "Feature", "geometry": {"type": "LineString", "coordinates": [[-96.34081, 30.02208], [-96.3409099, 30.0213], [-96.34092, 30.02125], [-96.34099, 30.02072], [-96.34099, 30.02071], [-96.34107, 30.02019], [-96.34115, 30.01962], [-96.34117, 30.01947], [-96.34122, 30.01912], [-96.3413, 30.01857], [-96.34132, 30.01844], [-96.34135, 30.01822], [-96.34141, 30.01775], [-96.3414899, 30.01714], [-96.34154, 30.01679], [-96.3415799, 30.01643], [-96.3416, 30.01616], [-96.34162, 30.01584], [-96.34166, 30.01546], [-96.3416699, 30.0151], [-96.3416699, 30.01501], [-96.34166, 30.01489], [-96.34166, 30.01489]]}, "properties": {"surface": "pavement", "label": "Pavement", "color": "#4A5568", "miles": 0.5, "start_mi": 10.32, "end_mi": 10.82, "road": "Old 36 Road", "elev_ft": [311, 315, 315, 313, 313, 311, 307, 305, 302, 302, 302, 303, 309, 312, 314, 314, 314, 314, 315, 314, 314, 314, 314]}}, {"type": "Feature", "geometry": {"type": "LineString", "coordinates": [[-96.34207, 30.01486], [-96.34215, 30.01485], [-96.34351, 30.01475], [-96.34414, 30.0147], [-96.34509, 30.01463], [-96.34528, 30.0146], [-96.34537, 30.01457], [-96.3455199, 30.01452], [-96.34603, 30.01433], [-96.34662, 30.01412], [-96.34716, 30.01393], [-96.34751, 30.01378], [-96.34757, 30.01375], [-96.34777, 30.01363], [-96.348, 30.01343], [-96.34844, 30.01303], [-96.3486099, 30.01288], [-96.34876, 30.01275], [-96.34885, 30.01267], [-96.34907, 30.01251], [-96.34909, 30.0125], [-96.3494599, 30.01232], [-96.34961, 30.01225], [-96.35016, 30.01203], [-96.35093, 30.01171], [-96.3513, 30.01156], [-96.35144, 30.0115], [-96.35157, 30.01145], [-96.35173, 30.01141], [-96.35252, 30.01119], [-96.35324, 30.01099], [-96.35357, 30.01088], [-96.35369, 30.01081], [-96.35389, 30.01071], [-96.3541, 30.01059], [-96.35418, 30.0105], [-96.3542, 30.01048], [-96.3544, 30.01033], [-96.35449, 30.01026], [-96.35495, 30.00996], [-96.35498, 30.00993], [-96.35533, 30.00972], [-96.35624, 30.00912], [-96.35657, 30.0089], [-96.35673, 30.00881], [-96.3568, 30.00876], [-96.3571, 30.00857], [-96.35736, 30.00838], [-96.35767, 30.00819], [-96.35797, 30.008], [-96.358, 30.00797], [-96.3583, 30.00776], [-96.3585499, 30.00759], [-96.35888, 30.00728], [-96.3592, 30.00698], [-96.35948, 30.00671], [-96.35964, 30.00655], [-96.35975, 30.00644], [-96.35982, 30.00637], [-96.36029, 30.00589], [-96.36049, 30.00564], [-96.36063, 30.00549], [-96.36066, 30.00546], [-96.36134, 30.00478], [-96.36134, 30.00477], [-96.36211, 30.004], [-96.36216, 30.00396], [-96.36244, 30.0037], [-96.36251, 30.00364], [-96.36278, 30.0034], [-96.36293, 30.00326], [-96.36301, 30.00318], [-96.36306, 30.00313], [-96.36319, 30.00299], [-96.36323, 30.00296], [-96.36328, 30.00291], [-96.3634299, 30.00277], [-96.36347, 30.00273], [-96.3637, 30.00252], [-96.36371, 30.00251], [-96.36375, 30.00246], [-96.36431, 30.00193], [-96.36451, 30.00175], [-96.36468, 30.00158], [-96.3651, 30.00118], [-96.36516, 30.00112], [-96.36552, 30.00077], [-96.36593, 30.00037], [-96.36635, 29.99997], [-96.36676, 29.99957], [-96.36689, 29.99944], [-96.36703, 29.99926], [-96.36716, 29.999], [-96.36726, 29.99872], [-96.3673699, 29.99852], [-96.36744, 29.99842], [-96.36773, 29.99811], [-96.36891, 29.99699], [-96.36901, 29.9969], [-96.3699, 29.99611], [-96.37017, 29.99587], [-96.37034, 29.99572], [-96.37047, 29.99562], [-96.37078, 29.99538], [-96.37105, 29.99518], [-96.37151, 29.99472], [-96.37164, 29.9946], [-96.37222, 29.99409], [-96.3728, 29.99357], [-96.37294, 29.99344], [-96.37337, 29.99305], [-96.37396, 29.99252], [-96.3740399, 29.99245], [-96.37423, 29.99226], [-96.37491, 29.99159], [-96.37508, 29.99142], [-96.37527, 29.99115], [-96.37529, 29.99112], [-96.37548, 29.99081], [-96.3755, 29.99075], [-96.37551, 29.99065], [-96.37551, 29.99047], [-96.37548, 29.99018], [-96.37545, 29.98994], [-96.37544, 29.98987], [-96.37545, 29.98962], [-96.37548, 29.98947], [-96.37549, 29.98927], [-96.37548, 29.98923], [-96.37548, 29.98919], [-96.3754, 29.98905], [-96.37518, 29.9889], [-96.37435, 29.9882], [-96.3739, 29.98783], [-96.37345, 29.98745], [-96.3727, 29.98683], [-96.37267, 29.9868], [-96.3725599, 29.98671], [-96.37249, 29.98659], [-96.37253, 29.98654], [-96.37426, 29.98508], [-96.37531, 29.98416], [-96.37588, 29.98367], [-96.37642, 29.9832], [-96.37693, 29.98276], [-96.37749, 29.98229], [-96.37757, 29.98216], [-96.3779799, 29.98097], [-96.37801, 29.98088], [-96.3781, 29.98063], [-96.37818, 29.98043], [-96.37852, 29.98005], [-96.37875, 29.97982], [-96.37875, 29.97982], [-96.37878, 29.97994], [-96.37891, 29.98013], [-96.37902, 29.98023], [-96.37938, 29.98051], [-96.37981, 29.98083], [-96.38077, 29.98159], [-96.38123, 29.98195], [-96.38139, 29.98207], [-96.3815599, 29.9822], [-96.38216, 29.98267], [-96.38262, 29.98304], [-96.38314, 29.98345], [-96.38324, 29.98351], [-96.38326, 29.98353], [-96.38341, 29.9836], [-96.38388, 29.98378], [-96.38392, 29.9838], [-96.38491, 29.98414], [-96.38557, 29.98438], [-96.38631, 29.98463], [-96.38654, 29.98471], [-96.38701, 29.98488], [-96.3874699, 29.98504], [-96.38845, 29.98538], [-96.38887, 29.98553], [-96.38974, 29.98582], [-96.38975, 29.98583], [-96.39046, 29.98606], [-96.39087, 29.98622], [-96.39094, 29.98627], [-96.39098, 29.98631], [-96.391, 29.98639], [-96.39102, 29.98656], [-96.39102, 29.98662], [-96.39102, 29.98781], [-96.39101, 29.98799], [-96.39103, 29.98813], [-96.39116, 29.98848], [-96.39152, 29.98915], [-96.3916799, 29.98945], [-96.39179, 29.98963], [-96.39193, 29.98982], [-96.39203, 29.98993], [-96.39211, 29.98999], [-96.3922599, 29.99012], [-96.39258, 29.99036], [-96.39287, 29.99058], [-96.39289, 29.99059], [-96.39299, 29.99066], [-96.39384, 29.99131], [-96.39416, 29.99155], [-96.39416, 29.99155], [-96.3952, 29.99055], [-96.39548, 29.99031], [-96.3957, 29.99009], [-96.3967, 29.98914], [-96.39728, 29.98859], [-96.39811, 29.98779], [-96.39913, 29.98681], [-96.39945, 29.98652], [-96.39948, 29.98645], [-96.39949, 29.98637], [-96.3994699, 29.98632], [-96.39943, 29.98627], [-96.39923, 29.98605], [-96.3991999, 29.98599], [-96.39918, 29.98592], [-96.39918, 29.98585], [-96.39921, 29.9858], [-96.40028, 29.98478], [-96.40083, 29.98426], [-96.40128, 29.98383], [-96.4015299, 29.9836], [-96.40198, 29.98318], [-96.40259, 29.98261], [-96.4029, 29.98229], [-96.40388, 29.98139], [-96.40421, 29.98108], [-96.4047, 29.98059], [-96.405, 29.98032], [-96.40504, 29.98028], [-96.40528, 29.98005], [-96.40535, 29.97998], [-96.40556, 29.97978], [-96.40563, 29.97972], [-96.4057, 29.97965], [-96.40613, 29.97926], [-96.4062, 29.97919], [-96.40627, 29.97913], [-96.4063199, 29.97909], [-96.40643, 29.97902], [-96.40647, 29.97899], [-96.40658, 29.97892], [-96.40659, 29.97891], [-96.40668, 29.97885]]}, "properties": {"surface": "unknown", "label": "Unverified", "color": "#9A9389", "miles": 6.15, "start_mi": 10.82, "end_mi": 16.97, "road": "Albert Road", "elev_ft": [316, 316, 310, 310, 305, 302, 300, 300, 300, 298, 290, 290, 290, 289, 286, 285, 285, 284, 283, 281, 281, 278, 271, 260, 248, 238, 235, 234, 234, 234, 224, 218, 217, 214, 213, 213, 213, 213, 212, 212, 212, 218, 240, 241, 240, 240, 238, 236, 234, 231, 231, 228, 225, 220, 217, 213, 212, 211, 210, 211, 211, 215, 215, 223, 222, 231, 231, 233, 235, 244, 250, 252, 254, 257, 257, 258, 258, 258, 256, 256, 254, 234, 227, 220, 208, 207, 201, 196, 193, 193, 193, 192, 192, 192, 191, 191, 191, 194, 195, 204, 208, 211, 212, 212, 210, 202, 201, 204, 208, 209, 210, 218, 219, 220, 219, 219, 220, 220, 220, 220, 220, 220, 220, 221, 221, 223, 227, 235, 237, 237, 241, 246, 266, 275, 273, 260, 259, 258, 256, 256, 265, 264, 265, 263, 266, 272, 272, 280, 281, 284, 287, 299, 304, 304, 303, 302, 304, 310, 311, 307, 305, 303, 301, 294, 290, 285, 286, 286, 287, 289, 289, 293, 294, 294, 295, 298, 300, 307, 309, 309, 309, 303, 298, 297, 296, 296, 294, 294, 288, 288, 288, 285, 275, 266, 264, 260, 251, 247, 245, 263, 275, 276, 279, 301, 305, 305, 312, 312, 312, 312, 310, 310, 314, 314, 314, 314, 315, 315, 314, 314, 314, 314, 314, 299, 289, 283, 279, 272, 268, 262, 253, 250, 248, 239, 239, 244, 249, 260, 262, 266, 280, 284, 287, 289, 290, 290, 292, 293, 295]}}, {"type": "Feature", "geometry": {"type": "LineString", "coordinates": [[-96.40675, 29.97881], [-96.40675, 29.97881], [-96.40679, 29.97888], [-96.4068099, 29.97892], [-96.4068999, 29.97905], [-96.40695, 29.97912], [-96.40697, 29.97915], [-96.40703, 29.97923], [-96.40709, 29.9793], [-96.40715, 29.97936], [-96.4071699, 29.97937], [-96.40723, 29.97944], [-96.4073499, 29.97954], [-96.40746, 29.97963], [-96.40752, 29.97968], [-96.40769, 29.97981], [-96.40776, 29.97987], [-96.40787, 29.97996], [-96.40822, 29.98023], [-96.40849, 29.98045], [-96.40895, 29.9808], [-96.40899, 29.98084], [-96.4091399, 29.98096], [-96.40929, 29.98109], [-96.4095, 29.98125], [-96.40967, 29.98139], [-96.40983, 29.98151], [-96.40998, 29.98163], [-96.41013, 29.98175], [-96.41029, 29.98187], [-96.41046, 29.982], [-96.41059, 29.98211], [-96.4107499, 29.98223], [-96.4109, 29.98235], [-96.41106, 29.98247], [-96.41121, 29.9826], [-96.4113, 29.98267], [-96.41167, 29.98296], [-96.41182, 29.98308], [-96.41197, 29.9832], [-96.41228, 29.98344], [-96.41244, 29.98357], [-96.41245, 29.98357], [-96.41274, 29.98381], [-96.41285, 29.98389], [-96.41344, 29.98436], [-96.41383, 29.98466], [-96.41405, 29.98484], [-96.41416, 29.98492], [-96.41429, 29.98502], [-96.41431, 29.98504], [-96.41447, 29.98517], [-96.41508, 29.98565], [-96.4152299, 29.98578], [-96.41569, 29.98614], [-96.41597, 29.98636], [-96.41625, 29.98658], [-96.41658, 29.98684], [-96.41667, 29.98692], [-96.4179599, 29.98794], [-96.41828, 29.98819], [-96.41849, 29.98835], [-96.41849, 29.98835], [-96.41837, 29.98846], [-96.418, 29.9888], [-96.41792, 29.98888], [-96.41701, 29.98974], [-96.41649, 29.99024], [-96.41522, 29.99143], [-96.4148, 29.99183]]}, "properties": {"surface": "pavement", "label": "Pavement", "color": "#4A5568", "miles": 1.29, "start_mi": 16.97, "end_mi": 18.26, "road": "Farm-to-Market Road 2502", "elev_ft": [296, 296, 296, 296, 296, 296, 296, 295, 295, 295, 295, 294, 293, 293, 292, 291, 291, 291, 284, 282, 278, 277, 272, 269, 269, 270, 273, 275, 277, 278, 280, 282, 284, 286, 287, 287, 286, 281, 279, 277, 279, 283, 283, 288, 289, 305, 312, 316, 317, 316, 315, 314, 302, 301, 287, 298, 302, 307, 308, 330, 332, 332, 332, 331, 329, 329, 310, 302, 282, 270]}}, {"type": "Feature", "geometry": {"type": "LineString", "coordinates": [[-96.4145, 29.99211], [-96.41424, 29.99237], [-96.41424, 29.99237], [-96.41468, 29.99271], [-96.41489, 29.99287], [-96.41535, 29.99324], [-96.41627, 29.99397], [-96.41654, 29.99418], [-96.41737, 29.99485], [-96.41738, 29.99487], [-96.41744, 29.99494], [-96.41746, 29.99498], [-96.41747, 29.99502], [-96.41747, 29.99505], [-96.41745, 29.99511], [-96.41741, 29.99519], [-96.4174, 29.99521], [-96.41713, 29.99546], [-96.41649, 29.99607], [-96.41644, 29.99613], [-96.41616, 29.9964], [-96.41557, 29.997], [-96.41522, 29.99736], [-96.41513, 29.99746], [-96.41484, 29.99778], [-96.41483, 29.99779], [-96.41474, 29.99793], [-96.41472, 29.99803], [-96.41472, 29.99811], [-96.41473, 29.99815], [-96.41477, 29.9982], [-96.41482, 29.99827], [-96.415, 29.9984], [-96.41545, 29.99876], [-96.4156, 29.99889], [-96.41739, 30.00023], [-96.4175, 30.0003], [-96.41763, 30.0004], [-96.41784, 30.00056], [-96.4178699, 30.00059], [-96.41789, 30.00061], [-96.41791, 30.00066], [-96.41791, 30.00069], [-96.41791, 30.0007], [-96.4179, 30.00075], [-96.4178699, 30.00081], [-96.41775, 30.00095], [-96.41713, 30.00151], [-96.41623, 30.00233], [-96.41555, 30.00299], [-96.41474, 30.00379], [-96.41458, 30.00394], [-96.41433, 30.00418], [-96.41413, 30.00436], [-96.41392, 30.00456], [-96.41337, 30.00508], [-96.41316, 30.00529], [-96.41296, 30.00547], [-96.41268, 30.00573], [-96.41241, 30.00598], [-96.41219, 30.00618], [-96.41184, 30.00654], [-96.41138, 30.00699], [-96.41107, 30.00729], [-96.41015, 30.00816], [-96.41012, 30.00818], [-96.40967, 30.00861], [-96.40954, 30.00875], [-96.4095, 30.00884], [-96.4095, 30.00884], [-96.40962, 30.00887], [-96.40969, 30.00891], [-96.4098, 30.00899], [-96.41, 30.00915], [-96.41031, 30.00939], [-96.41034, 30.00941], [-96.4104, 30.00946], [-96.41072, 30.00972], [-96.41079, 30.00977], [-96.41087, 30.00983], [-96.41092, 30.00987], [-96.41165, 30.01043], [-96.4117, 30.01047], [-96.41183, 30.01056], [-96.41198, 30.01069], [-96.4126, 30.01118], [-96.41301, 30.01151], [-96.41301, 30.01151], [-96.41275, 30.01176], [-96.41231, 30.01219], [-96.41203, 30.01246], [-96.41161, 30.01286], [-96.41144, 30.01302], [-96.41117, 30.01328], [-96.41105, 30.0134], [-96.41089, 30.01355], [-96.41077, 30.01367], [-96.41074, 30.01369], [-96.4106599, 30.01377], [-96.40994, 30.01449], [-96.40968, 30.01474], [-96.40965, 30.01477], [-96.4096, 30.01482], [-96.40856, 30.01584], [-96.40845, 30.01594], [-96.40803, 30.01635], [-96.40758, 30.01679], [-96.40743, 30.01693], [-96.4072599, 30.01711], [-96.40709, 30.01734], [-96.40704, 30.01743], [-96.4067, 30.01789], [-96.40647, 30.01819], [-96.40624, 30.01851], [-96.4057, 30.01926], [-96.40559, 30.01942], [-96.40533, 30.01988], [-96.40518, 30.02018], [-96.40509, 30.0204], [-96.40498, 30.02066], [-96.40473, 30.02143], [-96.40469, 30.02155], [-96.40459, 30.02196], [-96.40458, 30.02199], [-96.40428, 30.02326], [-96.4042599, 30.02337], [-96.40411, 30.02416], [-96.40409, 30.02444], [-96.4041, 30.02459], [-96.40413, 30.02485], [-96.40418, 30.02525], [-96.4042, 30.02571], [-96.40427, 30.02643], [-96.40429, 30.02673], [-96.40432, 30.02697], [-96.40436, 30.02733], [-96.40437, 30.02739], [-96.4044, 30.02768], [-96.40446, 30.02814], [-96.40446, 30.02827], [-96.4044399, 30.0284], [-96.40443, 30.0285], [-96.4044, 30.02862], [-96.40436, 30.02878], [-96.40431, 30.02892], [-96.40419, 30.02911], [-96.40414, 30.02918], [-96.40394, 30.02945], [-96.4038, 30.02967], [-96.40372, 30.0298], [-96.4036, 30.03002], [-96.40351, 30.03015], [-96.40337, 30.03043], [-96.40329, 30.03062], [-96.40327, 30.03067], [-96.40312, 30.03113], [-96.40311, 30.03117], [-96.40304, 30.03144], [-96.40302, 30.03153], [-96.40291, 30.03214], [-96.40284, 30.0325], [-96.40278, 30.0328], [-96.40277, 30.03285], [-96.40266, 30.03338], [-96.40258, 30.03373], [-96.40257, 30.03378], [-96.40248, 30.03424], [-96.40246, 30.03438], [-96.4024, 30.03482], [-96.4023799, 30.03503], [-96.4023799, 30.03534], [-96.4023799, 30.03588], [-96.4023799, 30.03592], [-96.40242, 30.03693], [-96.40243, 30.03724], [-96.40245, 30.0375], [-96.4025, 30.03807], [-96.40258, 30.03887], [-96.40265, 30.03914], [-96.40293, 30.04011], [-96.40297, 30.04035], [-96.40302, 30.04068], [-96.40304, 30.04083], [-96.40308, 30.04154], [-96.40308, 30.04158], [-96.40309, 30.04219], [-96.40308, 30.04268], [-96.40308, 30.04284], [-96.40308, 30.04328], [-96.40306, 30.04379], [-96.4030499, 30.04392], [-96.40304, 30.04397], [-96.40293, 30.04499], [-96.40293, 30.04504], [-96.4029, 30.04544], [-96.4029, 30.04565], [-96.40291, 30.04588], [-96.40297, 30.04637], [-96.40301, 30.04661], [-96.40306, 30.0469], [-96.40317, 30.04749], [-96.40334, 30.04838], [-96.40342, 30.04879], [-96.40349, 30.04909], [-96.40349, 30.04909]]}, "properties": {"surface": "unknown", "label": "Unverified", "color": "#9A9389", "miles": 4.66, "start_mi": 18.26, "end_mi": 22.93, "road": "West Ueckert Road", "elev_ft": [266, 269, 269, 281, 280, 277, 284, 288, 293, 293, 293, 293, 294, 294, 295, 296, 296, 301, 306, 307, 307, 305, 300, 299, 297, 297, 297, 298, 298, 299, 299, 299, 301, 306, 307, 337, 337, 337, 338, 338, 338, 338, 338, 338, 338, 338, 337, 334, 323, 317, 324, 323, 322, 320, 316, 308, 302, 297, 301, 304, 306, 310, 311, 311, 300, 299, 279, 276, 273, 273, 273, 272, 270, 267, 269, 269, 271, 281, 284, 288, 290, 305, 306, 307, 309, 307, 300, 300, 298, 294, 294, 298, 300, 305, 306, 307, 306, 306, 305, 291, 288, 287, 287, 274, 271, 272, 272, 272, 272, 274, 275, 274, 272, 269, 255, 251, 241, 238, 235, 232, 222, 221, 219, 219, 214, 213, 212, 212, 212, 212, 220, 228, 232, 231, 230, 227, 227, 225, 218, 213, 210, 210, 210, 210, 210, 210, 210, 210, 210, 210, 210, 210, 210, 210, 210, 218, 219, 222, 222, 227, 229, 231, 232, 234, 234, 234, 231, 230, 226, 226, 227, 229, 229, 228, 230, 230, 231, 231, 231, 232, 233, 234, 235, 238, 238, 239, 240, 241, 243, 245, 245, 246, 250, 250, 253, 255, 257, 260, 260, 260, 263, 264, 259, 257, 257]}}, {"type": "Feature", "geometry": {"type": "LineString", "coordinates": [[-96.40364, 30.04978], [-96.40365, 30.04984], [-96.40366, 30.04999], [-96.40366, 30.05006], [-96.40364, 30.05013], [-96.40358, 30.05022], [-96.40353, 30.05028], [-96.40342, 30.05038], [-96.4034099, 30.05039], [-96.40319, 30.05052], [-96.40299, 30.05064], [-96.40288, 30.05071], [-96.40198, 30.05123], [-96.40148, 30.05152], [-96.4011, 30.05171], [-96.40103, 30.05174], [-96.40093, 30.0518], [-96.40074, 30.05197], [-96.40043, 30.05237], [-96.40028, 30.05256], [-96.39995, 30.05289], [-96.39976, 30.05306], [-96.39967, 30.05314], [-96.39914, 30.05363], [-96.39905, 30.05372], [-96.39876, 30.05397], [-96.3984399, 30.05426], [-96.39831, 30.05436], [-96.39819, 30.05444], [-96.3976799, 30.05482], [-96.39731, 30.05509], [-96.39694, 30.05544], [-96.39567, 30.05663], [-96.39556, 30.05673], [-96.3946799, 30.05761]]}, "properties": {"surface": "two_track", "label": "Ranch two-track", "color": "#6B5A45", "miles": 0.77, "start_mi": 22.93, "end_mi": 23.7, "road": "Bleiblerville Road", "elev_ft": [252, 252, 252, 253, 254, 255, 257, 258, 258, 264, 268, 268, 277, 278, 284, 284, 285, 287, 295, 298, 302, 303, 304, 308, 309, 314, 319, 320, 323, 329, 329, 328, 327, 326, 323]}}, {"type": "Feature", "geometry": {"type": "LineString", "coordinates": [[-96.39456, 30.0577], [-96.39456, 30.0577], [-96.39467, 30.0578], [-96.39501, 30.05807], [-96.3956199, 30.05856], [-96.39624, 30.05904], [-96.39627, 30.05907], [-96.39718, 30.05975], [-96.39749, 30.05999], [-96.39758, 30.06006], [-96.39776, 30.06021], [-96.39804, 30.06042], [-96.39809, 30.06049], [-96.3981, 30.06049], [-96.39813, 30.06056], [-96.39814, 30.06067], [-96.39813, 30.06073], [-96.3981, 30.06078], [-96.39806, 30.06082], [-96.39779, 30.06109], [-96.39757, 30.0613], [-96.39748, 30.06138], [-96.39729, 30.06157], [-96.39728, 30.06158], [-96.39702, 30.06184], [-96.39688, 30.06197], [-96.3966, 30.06224], [-96.39646, 30.06238], [-96.39634, 30.0625], [-96.39633, 30.06251], [-96.39619, 30.06265], [-96.39604, 30.06278], [-96.3956199, 30.06318], [-96.39534, 30.06344], [-96.39506, 30.06371], [-96.39478, 30.06397], [-96.39476, 30.06399], [-96.3947, 30.06405], [-96.3943199, 30.06442], [-96.39409, 30.06464], [-96.39363, 30.06509], [-96.39268, 30.06604], [-96.3925, 30.06621], [-96.39211, 30.06657], [-96.39207, 30.06661], [-96.39184, 30.06684], [-96.39138, 30.0673], [-96.3912, 30.06748], [-96.39099, 30.06768], [-96.39096, 30.06773], [-96.39095, 30.06777], [-96.39094, 30.06781], [-96.39094, 30.06811], [-96.39094, 30.06811], [-96.39124, 30.06825], [-96.39128, 30.06827], [-96.3914, 30.06834], [-96.39171, 30.06854], [-96.39184, 30.06864], [-96.39222, 30.06894], [-96.39252, 30.06917], [-96.39269, 30.06929], [-96.39277, 30.06935], [-96.39287, 30.06942], [-96.39299, 30.06947], [-96.39312, 30.0695], [-96.39317, 30.06951], [-96.39322, 30.06951], [-96.39324, 30.06951], [-96.3932899, 30.06951], [-96.39339, 30.06948], [-96.39363, 30.06938], [-96.39379, 30.06932], [-96.39416, 30.06911], [-96.3943199, 30.06903], [-96.39446, 30.06893], [-96.39457, 30.06886], [-96.3948, 30.06865], [-96.39482, 30.06863], [-96.39511, 30.06836], [-96.39521, 30.06827], [-96.39536, 30.06812], [-96.39578, 30.06772], [-96.39634, 30.06719], [-96.39639, 30.06714], [-96.3971, 30.06644], [-96.39717, 30.06637], [-96.3975899, 30.06599], [-96.39763, 30.06595], [-96.39769, 30.06591], [-96.3978, 30.06582], [-96.3984399, 30.06553], [-96.39869, 30.06541], [-96.39903, 30.06524], [-96.40062, 30.06436], [-96.40167, 30.06377], [-96.40205, 30.06356], [-96.40269, 30.06314], [-96.40271, 30.06312], [-96.40309, 30.06278], [-96.40343, 30.06248], [-96.40348, 30.06244], [-96.40396, 30.062], [-96.40415, 30.06183], [-96.40423, 30.06176], [-96.40462, 30.06142], [-96.40478, 30.06126], [-96.40491, 30.06121], [-96.40505, 30.06118], [-96.40536, 30.06135], [-96.40611, 30.06188], [-96.4062, 30.06194], [-96.40636, 30.06207], [-96.40676, 30.06239], [-96.40682, 30.06244], [-96.40727, 30.06283], [-96.40743, 30.06294], [-96.40812, 30.06342], [-96.40856, 30.06373], [-96.40904, 30.06408], [-96.40939, 30.06432], [-96.40958, 30.06446], [-96.40964, 30.0645], [-96.40968, 30.06454], [-96.40971, 30.06459], [-96.4097199, 30.06464], [-96.4097199, 30.06469], [-96.40971, 30.06472], [-96.40966, 30.06481], [-96.40958, 30.0649], [-96.40949, 30.06498], [-96.40941, 30.06504], [-96.40934, 30.06513], [-96.40931, 30.06517], [-96.40931, 30.06523], [-96.40931, 30.06524], [-96.40931, 30.06528], [-96.4093199, 30.06536], [-96.40933, 30.06541], [-96.40935, 30.06546], [-96.40937, 30.06549], [-96.40944, 30.06556], [-96.4099899, 30.066], [-96.41055, 30.06643], [-96.4110199, 30.06679], [-96.41122, 30.06695], [-96.41148, 30.06717], [-96.4116, 30.0673], [-96.41163, 30.06734], [-96.41191, 30.06769], [-96.41206, 30.06789], [-96.41252, 30.0685], [-96.41275, 30.0688], [-96.41286, 30.06895], [-96.41294, 30.06904], [-96.4129899, 30.06909], [-96.41301, 30.0691], [-96.41314, 30.06918], [-96.4132599, 30.06924], [-96.41344, 30.0693], [-96.41361, 30.06937], [-96.4138, 30.06945], [-96.41383, 30.06947], [-96.41397, 30.06955], [-96.41453, 30.06999], [-96.41473, 30.07015], [-96.41502, 30.07036], [-96.41531, 30.07058], [-96.4159899, 30.07108], [-96.4169299, 30.07172], [-96.41775, 30.07229], [-96.41802, 30.07247], [-96.4188999, 30.07307], [-96.419, 30.07315], [-96.42001, 30.07384], [-96.42004, 30.07387], [-96.42005, 30.07388], [-96.42005, 30.07389], [-96.42006, 30.0739], [-96.42007, 30.07393], [-96.42007, 30.07397], [-96.42008, 30.07402], [-96.42007, 30.07404], [-96.42007, 30.07406], [-96.42003, 30.07412], [-96.41995, 30.07421], [-96.41952, 30.07466], [-96.41946, 30.07472], [-96.4192, 30.07503], [-96.41907, 30.07518], [-96.41901, 30.07524], [-96.4186299, 30.07563], [-96.41816, 30.07608], [-96.41813, 30.0761], [-96.4179, 30.0763], [-96.41771, 30.07648], [-96.41743, 30.07674], [-96.41736, 30.0768], [-96.41717, 30.07697], [-96.4171, 30.07705], [-96.41709, 30.07707], [-96.41708, 30.07711], [-96.41707, 30.07714], [-96.41707, 30.07716], [-96.41707, 30.07719], [-96.41708, 30.07721], [-96.4171, 30.07724], [-96.41717, 30.07733], [-96.41747, 30.07756], [-96.4184, 30.07828], [-96.41848, 30.07834], [-96.41859, 30.07843], [-96.41877, 30.07858], [-96.41882, 30.07863], [-96.41884, 30.07866], [-96.41885, 30.0787], [-96.41886, 30.07875], [-96.41886, 30.07877], [-96.41885, 30.0788], [-96.4188099, 30.07886], [-96.41878, 30.07889], [-96.41869, 30.07896], [-96.41869, 30.07896], [-96.4185399, 30.07913], [-96.41785, 30.07978], [-96.41763, 30.07999], [-96.41754, 30.0801], [-96.4175, 30.08015], [-96.41747, 30.08029], [-96.4175, 30.08044], [-96.4175, 30.08046], [-96.41757, 30.0806], [-96.4177, 30.08076], [-96.41781, 30.08083], [-96.41789, 30.08087], [-96.41809, 30.08098], [-96.41833, 30.08111], [-96.41894, 30.0815], [-96.41924, 30.08174], [-96.42016, 30.08247], [-96.42062, 30.08284], [-96.42108, 30.0832], [-96.42155, 30.08358], [-96.42191, 30.08386], [-96.42193, 30.08388], [-96.42205, 30.08398], [-96.4221, 30.08404], [-96.42211, 30.08406], [-96.42212, 30.0841], [-96.42212, 30.08414], [-96.42212, 30.08423], [-96.42204, 30.08438], [-96.42182, 30.08459], [-96.42129, 30.08509], [-96.4208699, 30.08549], [-96.42047, 30.08586], [-96.41995, 30.08634], [-96.41983, 30.08645], [-96.41955, 30.08672], [-96.41951, 30.08676], [-96.4195, 30.08677], [-96.41925, 30.08701], [-96.41912, 30.0871], [-96.41911, 30.0871], [-96.41906, 30.08712], [-96.4189899, 30.08715], [-96.41829, 30.08713], [-96.41798, 30.08712], [-96.41743, 30.08709], [-96.41737, 30.0871], [-96.41736, 30.08711], [-96.41723, 30.08714], [-96.41691, 30.08733], [-96.41664, 30.08749], [-96.41571, 30.08804], [-96.41535, 30.08825], [-96.4152, 30.08835], [-96.4147, 30.08867], [-96.41466, 30.08869], [-96.41458, 30.08874], [-96.41449, 30.0888], [-96.41435, 30.08889], [-96.41409, 30.08904], [-96.41368, 30.08929], [-96.41357, 30.08935], [-96.41334, 30.0895], [-96.41283, 30.08981], [-96.41283, 30.08981], [-96.41235, 30.08957], [-96.41148, 30.08913], [-96.41145, 30.08911], [-96.4108399, 30.08878], [-96.41037, 30.08853], [-96.40993, 30.0883], [-96.4098999, 30.08829], [-96.40941, 30.08806], [-96.4094, 30.08805], [-96.4091, 30.08793], [-96.40903, 30.08789], [-96.40891, 30.08787], [-96.40879, 30.08787], [-96.40866, 30.08789], [-96.40843, 30.08799], [-96.40842, 30.088], [-96.4079, 30.08826], [-96.40752, 30.08845], [-96.40722, 30.0886], [-96.40702, 30.08867], [-96.40688, 30.08872], [-96.40665, 30.08874], [-96.40626, 30.0887], [-96.40621, 30.0887], [-96.40562, 30.08863], [-96.40532, 30.0886], [-96.40498, 30.08862], [-96.40448, 30.08877], [-96.40397, 30.08897], [-96.40375, 30.08906], [-96.40345, 30.08914], [-96.40307, 30.08917], [-96.40304, 30.08917], [-96.40297, 30.08917], [-96.40263, 30.0892], [-96.40237, 30.08921], [-96.40115, 30.08935], [-96.40049, 30.08943], [-96.39991, 30.08949], [-96.39979, 30.08952], [-96.39973, 30.08954], [-96.39967, 30.08956], [-96.39963, 30.08959], [-96.39963, 30.0896], [-96.3996, 30.08963], [-96.39958, 30.08968], [-96.39957, 30.08975], [-96.39955, 30.08985], [-96.39955, 30.08986], [-96.39955, 30.08991], [-96.39954, 30.09003], [-96.39953, 30.09015], [-96.39951, 30.09034], [-96.39949, 30.09052], [-96.39941, 30.09141], [-96.3993799, 30.09177], [-96.39927, 30.09288], [-96.39925, 30.09327], [-96.39922, 30.09362], [-96.39919, 30.09399], [-96.39914, 30.09471], [-96.39913, 30.09496], [-96.39909, 30.09507], [-96.39897, 30.09519], [-96.39881, 30.09521], [-96.39838, 30.09512], [-96.39797, 30.09501], [-96.39739, 30.09484], [-96.39717, 30.09479], [-96.39658, 30.09463], [-96.39641, 30.09461], [-96.39639, 30.0946], [-96.39621, 30.09461], [-96.39606, 30.09468], [-96.39604, 30.09471], [-96.3960199, 30.09476], [-96.39598, 30.09501], [-96.39598, 30.09507], [-96.39598, 30.09525], [-96.39598, 30.09538], [-96.39597, 30.09543], [-96.39595, 30.09561], [-96.39593, 30.09571], [-96.3959, 30.09578], [-96.39575, 30.09612], [-96.39546, 30.09659], [-96.39513, 30.09712], [-96.39477, 30.09769], [-96.39473, 30.09775], [-96.3938, 30.09916], [-96.3936499, 30.0994], [-96.3936, 30.09947], [-96.3935, 30.09963], [-96.3933, 30.09995], [-96.39292, 30.10058], [-96.39266, 30.10101], [-96.39251, 30.10127], [-96.39245, 30.10139], [-96.39241, 30.10143], [-96.39238, 30.10147], [-96.39234, 30.1015], [-96.39227, 30.10153], [-96.39214, 30.10152], [-96.39169, 30.10135], [-96.39103, 30.10112], [-96.39092, 30.10108], [-96.39084, 30.10106], [-96.39071, 30.10105], [-96.39071, 30.10105], [-96.39057, 30.10045], [-96.39036, 30.09975], [-96.39036, 30.09975], [-96.38928, 30.09995], [-96.38888, 30.10002], [-96.38846, 30.10008], [-96.38805, 30.10015], [-96.38797, 30.10016], [-96.38703, 30.10033], [-96.38669, 30.10037], [-96.3864399, 30.1004], [-96.3851, 30.1005], [-96.38439, 30.10055], [-96.38424, 30.10057], [-96.38366, 30.10061], [-96.38323, 30.10064], [-96.38272, 30.10068], [-96.38263, 30.10071], [-96.3826, 30.10072], [-96.38246, 30.10081], [-96.38239, 30.10086], [-96.38237, 30.10087], [-96.3823, 30.10094], [-96.3819, 30.10131], [-96.38116, 30.10191], [-96.38114, 30.10192], [-96.381, 30.10203], [-96.38086, 30.10214], [-96.3807099, 30.10225], [-96.38059, 30.1023], [-96.38038, 30.10236], [-96.38027, 30.10238], [-96.38013, 30.1024], [-96.37964, 30.10247], [-96.37925, 30.10253], [-96.37911, 30.10256], [-96.37882, 30.1026], [-96.37866, 30.10265], [-96.37854, 30.10269], [-96.37852, 30.1027], [-96.37842, 30.10275], [-96.37827, 30.10282], [-96.37732, 30.10336], [-96.3772, 30.10343], [-96.37699, 30.10353], [-96.3765899, 30.10356], [-96.37616, 30.1036], [-96.37575, 30.10363], [-96.37554, 30.10365], [-96.37513, 30.10369], [-96.37501, 30.1037], [-96.37438, 30.10373], [-96.3743, 30.10373], [-96.37397, 30.10376], [-96.37361, 30.10378], [-96.37356, 30.10379], [-96.37341, 30.1038], [-96.37341, 30.1038], [-96.37307, 30.10384], [-96.3728, 30.10387], [-96.37262, 30.10389], [-96.37037, 30.10424], [-96.37023, 30.10426], [-96.36976, 30.10434], [-96.36894, 30.10448], [-96.36792, 30.10465], [-96.36751, 30.10472], [-96.3669, 30.10482], [-96.36583, 30.105], [-96.36527, 30.10509], [-96.36424, 30.10525], [-96.3638299, 30.10531], [-96.36377, 30.10532], [-96.36341, 30.10539], [-96.36321, 30.10542], [-96.3625, 30.10555], [-96.3622199, 30.1056], [-96.3620399, 30.10564], [-96.36177, 30.10571], [-96.36096, 30.10605], [-96.36024, 30.10641], [-96.35969, 30.10668], [-96.35924, 30.10691], [-96.3584599, 30.10729], [-96.35829, 30.10738], [-96.35732, 30.1079], [-96.35731, 30.10791], [-96.35677, 30.10818], [-96.35647, 30.10832], [-96.35551, 30.10881], [-96.35504, 30.10905], [-96.35442, 30.10937], [-96.35378, 30.10969], [-96.35356, 30.10979], [-96.3532, 30.10997], [-96.35238, 30.11037], [-96.3523, 30.11041], [-96.35175, 30.11068], [-96.35107, 30.11102], [-96.35054, 30.11128], [-96.34971, 30.1117], [-96.34945, 30.11184], [-96.34943, 30.11185], [-96.34889, 30.11212], [-96.34835, 30.11239], [-96.3481599, 30.11246], [-96.34784, 30.11263], [-96.34759, 30.11275], [-96.34694, 30.11308], [-96.34658, 30.11327], [-96.3463, 30.11341], [-96.3463, 30.11341], [-96.34616, 30.11282], [-96.34605, 30.11234], [-96.34582, 30.11122], [-96.34581, 30.11118], [-96.34571, 30.1108], [-96.34557, 30.11013], [-96.34553, 30.10999], [-96.34538, 30.10933], [-96.34535, 30.10912], [-96.3453, 30.10902], [-96.3452499, 30.10895], [-96.34518, 30.10892], [-96.34512, 30.10892], [-96.34463, 30.10903], [-96.34453, 30.10905], [-96.34424, 30.10911], [-96.34384, 30.1092], [-96.3438199, 30.1092], [-96.3438199, 30.1092], [-96.34343, 30.10925], [-96.34342, 30.10926], [-96.34282, 30.10938], [-96.34271, 30.1094], [-96.34201, 30.10955], [-96.34169, 30.10962]]}, "properties": {"surface": "unknown", "label": "Unverified", "color": "#9A9389", "miles": 10.6, "start_mi": 23.7, "end_mi": 34.31, "road": "Emshoff Road", "elev_ft": [324, 324, 325, 328, 334, 337, 337, 334, 333, 333, 332, 329, 329, 329, 329, 330, 330, 331, 331, 332, 331, 331, 328, 328, 320, 315, 303, 299, 298, 298, 299, 304, 320, 329, 332, 327, 326, 326, 324, 326, 332, 313, 316, 319, 319, 318, 305, 300, 300, 300, 301, 302, 308, 308, 306, 306, 307, 307, 308, 309, 306, 302, 299, 296, 293, 290, 290, 289, 289, 289, 289, 289, 289, 289, 289, 289, 289, 289, 289, 289, 289, 289, 287, 285, 285, 281, 281, 281, 281, 281, 281, 283, 283, 282, 279, 274, 277, 280, 280, 280, 280, 279, 278, 276, 275, 275, 273, 273, 272, 271, 265, 265, 267, 269, 270, 279, 280, 292, 300, 310, 312, 311, 310, 310, 310, 309, 309, 309, 308, 308, 309, 309, 309, 309, 309, 309, 309, 308, 308, 307, 307, 306, 292, 280, 272, 269, 266, 266, 266, 276, 282, 299, 303, 306, 307, 308, 308, 309, 310, 311, 311, 311, 311, 310, 302, 300, 297, 295, 281, 276, 271, 270, 264, 264, 259, 258, 258, 258, 258, 258, 258, 257, 257, 257, 256, 255, 251, 252, 257, 259, 260, 269, 280, 281, 281, 282, 284, 285, 287, 287, 287, 288, 288, 288, 288, 288, 288, 287, 286, 280, 280, 279, 277, 277, 277, 277, 277, 277, 277, 278, 278, 278, 278, 280, 283, 283, 283, 283, 282, 281, 281, 280, 277, 276, 275, 273, 271, 263, 260, 250, 247, 244, 241, 240, 240, 241, 242, 242, 242, 243, 245, 246, 248, 247, 246, 245, 252, 253, 256, 256, 256, 257, 257, 257, 257, 257, 255, 255, 255, 255, 256, 256, 257, 258, 257, 257, 258, 259, 259, 260, 261, 263, 268, 272, 273, 273, 272, 272, 273, 275, 275, 270, 270, 267, 267, 262, 262, 261, 261, 261, 262, 262, 262, 262, 264, 266, 267, 266, 267, 267, 267, 267, 266, 264, 265, 269, 271, 272, 273, 273, 273, 273, 274, 274, 274, 273, 276, 277, 278, 278, 279, 279, 279, 279, 279, 279, 279, 279, 279, 279, 279, 279, 285, 287, 298, 302, 306, 309, 319, 324, 326, 328, 330, 332, 333, 332, 332, 332, 332, 331, 331, 331, 331, 331, 331, 331, 332, 333, 333, 334, 334, 334, 334, 330, 326, 338, 339, 361, 365, 366, 368, 366, 358, 365, 369, 371, 372, 373, 373, 374, 374, 372, 367, 366, 366, 367, 367, 358, 347, 347, 348, 340, 336, 336, 336, 352, 353, 353, 338, 335, 334, 342, 348, 353, 354, 354, 354, 354, 355, 355, 355, 362, 362, 362, 363, 364, 366, 371, 372, 373, 379, 381, 382, 382, 383, 383, 383, 384, 384, 385, 384, 382, 373, 364, 355, 353, 357, 359, 370, 371, 372, 370, 370, 370, 370, 371, 369, 368, 339, 337, 332, 323, 316, 322, 330, 348, 358, 372, 377, 377, 376, 375, 370, 368, 366, 364, 361, 350, 341, 334, 322, 321, 324, 324, 324, 322, 308, 300, 290, 312, 317, 325, 334, 335, 335, 336, 340, 352, 358, 358, 368, 373, 372, 368, 363, 356, 355, 354, 354, 349, 350, 367, 368, 368, 365, 365, 366, 367, 369, 370, 370, 371, 372, 372, 367, 359, 359, 359, 354, 354, 353, 353, 353, 353]}}, {"type": "Feature", "geometry": {"type": "LineString", "coordinates": [[-96.3409999, 30.10977], [-96.3409999, 30.10977], [-96.34092, 30.10936], [-96.34085, 30.10906], [-96.34078, 30.10877], [-96.34076, 30.10871], [-96.34069, 30.10836], [-96.34049, 30.10747]]}, "properties": {"surface": "pavement", "label": "Pavement", "color": "#4A5568", "miles": 0.16, "start_mi": 34.31, "end_mi": 34.47, "road": "Wonder Hill Road", "elev_ft": [355, 355, 347, 337, 329, 328, 325, 334]}}, {"type": "Feature", "geometry": {"type": "LineString", "coordinates": [[-96.34042, 30.10714], [-96.34031, 30.10668], [-96.34013, 30.10583], [-96.34002, 30.10532], [-96.3399, 30.10475], [-96.33972, 30.10404]]}, "properties": {"surface": "unknown", "label": "Unverified", "color": "#9A9389", "miles": 0.22, "start_mi": 34.47, "end_mi": 34.69, "road": "Wonder Hill Road", "elev_ft": [336, 336, 341, 343, 336, 321]}}, {"type": "Feature", "geometry": {"type": "LineString", "coordinates": [[-96.33962, 30.10369], [-96.3395199, 30.1033], [-96.33951, 30.10323], [-96.33945, 30.10302], [-96.33934, 30.10268], [-96.33928, 30.10246], [-96.33922, 30.1022], [-96.33917, 30.10193], [-96.33909, 30.10138], [-96.33905, 30.1012], [-96.33899, 30.10092], [-96.33891, 30.10057], [-96.3388499, 30.10032], [-96.33883, 30.10021], [-96.3387599, 30.09986], [-96.33866, 30.09939], [-96.33854, 30.09884], [-96.33834, 30.09798], [-96.33829, 30.09772], [-96.33826, 30.09763], [-96.33815, 30.09716], [-96.33803, 30.09663], [-96.33797, 30.09637], [-96.3378199, 30.09569], [-96.3378199, 30.09569]]}, "properties": {"surface": "pavement", "label": "Pavement", "color": "#4A5568", "miles": 0.56, "start_mi": 34.69, "end_mi": 35.25, "road": "Wonder Hill Road", "elev_ft": [315, 309, 308, 309, 314, 315, 316, 317, 326, 331, 336, 343, 349, 350, 348, 338, 325, 313, 310, 309, 303, 306, 307, 296, 296]}}, {"type": "Feature", "geometry": {"type": "LineString", "coordinates": [[-96.33754, 30.09574], [-96.33732, 30.09575], [-96.33695, 30.09576], [-96.3357, 30.0958], [-96.33496, 30.09583], [-96.33461, 30.09584], [-96.33446, 30.09584], [-96.33431, 30.09582], [-96.33414, 30.09578], [-96.33398, 30.09576], [-96.33383, 30.09578], [-96.33355, 30.09585], [-96.3334, 30.09587], [-96.33262, 30.09597], [-96.33217, 30.09605], [-96.33206, 30.09607], [-96.33119, 30.09621], [-96.3311499, 30.09622], [-96.33053, 30.09632], [-96.33015, 30.09637], [-96.32971, 30.09644], [-96.3293, 30.09651], [-96.32869, 30.0966], [-96.32858, 30.09662], [-96.32842, 30.09665], [-96.32767, 30.09678], [-96.32761, 30.09679], [-96.32747, 30.09682], [-96.32719, 30.09688], [-96.32692, 30.09693], [-96.32602, 30.09708], [-96.32554, 30.09716], [-96.32513, 30.09724], [-96.32411, 30.09742], [-96.3234, 30.09755], [-96.3230899, 30.0976], [-96.32268, 30.09766], [-96.32187, 30.0978], [-96.32157, 30.09785], [-96.32146, 30.09787], [-96.32105, 30.09793], [-96.32065, 30.098], [-96.31972, 30.09817], [-96.3193, 30.09823], [-96.31909, 30.09827], [-96.31883, 30.09831], [-96.31881, 30.09832], [-96.31869, 30.09837], [-96.3185, 30.09847], [-96.31845, 30.0985], [-96.3184, 30.09855], [-96.3182999, 30.09863], [-96.3182099, 30.09871], [-96.3180299, 30.0989], [-96.31802, 30.0989], [-96.3179399, 30.09895], [-96.31775, 30.09899], [-96.31732, 30.09904], [-96.31661, 30.09915], [-96.31573, 30.0993], [-96.31559, 30.09933], [-96.31518, 30.09939], [-96.31477, 30.09946], [-96.31471, 30.09947], [-96.31375, 30.09963], [-96.31348, 30.09968], [-96.31314, 30.09974], [-96.31274, 30.09982], [-96.31269, 30.09983], [-96.31252, 30.09986], [-96.31153, 30.10003], [-96.31152, 30.10004], [-96.31096, 30.10014], [-96.3107, 30.10018], [-96.3104199, 30.10023], [-96.31035, 30.10024], [-96.31009, 30.10027], [-96.30999, 30.10029], [-96.30965, 30.10036], [-96.30917, 30.10043], [-96.30907, 30.10044], [-96.3084499, 30.10051], [-96.30844, 30.10051], [-96.30761, 30.10063], [-96.30722, 30.10069], [-96.30681, 30.10075], [-96.3065, 30.1008], [-96.3064, 30.10082], [-96.30609, 30.10088], [-96.30579, 30.10093], [-96.30481, 30.1011], [-96.30477, 30.10111], [-96.30428, 30.10119], [-96.30416, 30.10122], [-96.30414, 30.10123], [-96.30408, 30.10127], [-96.30403, 30.10133], [-96.30386, 30.1017], [-96.30371, 30.10195], [-96.30362, 30.10217], [-96.30361, 30.1022], [-96.30358, 30.10252], [-96.3035699, 30.10307], [-96.30356, 30.10347], [-96.30356, 30.10392], [-96.30356, 30.10464], [-96.30356, 30.10579], [-96.30356, 30.10579], [-96.30307, 30.106], [-96.303, 30.10603], [-96.3028999, 30.10608], [-96.3028099, 30.10614], [-96.30275, 30.10619], [-96.3027, 30.10624], [-96.30265, 30.10631], [-96.30258, 30.10641], [-96.30238, 30.10676], [-96.30231, 30.1069], [-96.30218, 30.10716], [-96.30217, 30.10719], [-96.30206, 30.10744], [-96.30206, 30.10752], [-96.30207, 30.10758], [-96.30209, 30.10765], [-96.30224, 30.10807], [-96.30225, 30.1081], [-96.30233, 30.10832], [-96.30235, 30.10844], [-96.30253, 30.10939], [-96.30255, 30.1095], [-96.30258, 30.10968], [-96.3026, 30.10983], [-96.30271, 30.11039], [-96.30277, 30.11075], [-96.30284, 30.1111], [-96.30293, 30.11157], [-96.30297, 30.11181], [-96.30314, 30.1127], [-96.30319, 30.11294], [-96.30322, 30.11326], [-96.30318, 30.11331], [-96.30297, 30.11345], [-96.3027199, 30.11358], [-96.30252, 30.11364], [-96.3023599, 30.11369], [-96.30213, 30.11374], [-96.3018, 30.11382], [-96.30172, 30.11384], [-96.30072, 30.11407], [-96.30059, 30.1141], [-96.30041, 30.11413], [-96.30032, 30.11415], [-96.29991, 30.11424], [-96.29986, 30.11425], [-96.2993, 30.11437], [-96.29849, 30.11454], [-96.29829, 30.11458], [-96.29798, 30.11463], [-96.29788, 30.11464], [-96.29747, 30.11468], [-96.29714, 30.11472], [-96.29701, 30.11474], [-96.29598, 30.1149], [-96.29516, 30.11503], [-96.2939899, 30.11521], [-96.29373, 30.11525], [-96.2931399, 30.11534], [-96.29271, 30.11542], [-96.29247, 30.11546], [-96.29231, 30.11551], [-96.29229, 30.11552], [-96.29221, 30.11559], [-96.29216, 30.11568], [-96.29215, 30.11579], [-96.29228, 30.11681], [-96.29244, 30.11766], [-96.29264, 30.11848], [-96.29267, 30.11862], [-96.2929, 30.11944], [-96.29293, 30.11953], [-96.29297, 30.11968], [-96.29297, 30.11971], [-96.29301, 30.11987], [-96.29301, 30.11991], [-96.29298, 30.12009], [-96.29289, 30.12065], [-96.2926899, 30.12183], [-96.29268, 30.12184], [-96.29265, 30.12202], [-96.29262, 30.1222], [-96.2925, 30.12291], [-96.29245, 30.12322], [-96.29242, 30.12345], [-96.29239, 30.12362], [-96.29236, 30.12381], [-96.29238, 30.12396], [-96.29243, 30.12416], [-96.29256, 30.12454], [-96.29259, 30.12468], [-96.29264, 30.12485], [-96.29267, 30.12499], [-96.29276, 30.12526], [-96.29293, 30.1259], [-96.29298, 30.12608], [-96.293, 30.12615], [-96.2931, 30.12648], [-96.2931, 30.12648], [-96.29319, 30.12677], [-96.29334, 30.1273], [-96.29334, 30.1273], [-96.29288, 30.12738]]}, "properties": {"surface": "unknown", "label": "Unverified", "color": "#9A9389", "miles": 4.47, "start_mi": 35.25, "end_mi": 39.72, "road": "Stern Road", "elev_ft": [296, 293, 292, 297, 291, 287, 283, 280, 280, 280, 281, 281, 281, 281, 277, 276, 273, 273, 272, 281, 287, 296, 309, 311, 316, 336, 338, 341, 343, 342, 342, 339, 334, 323, 310, 309, 313, 323, 323, 323, 317, 310, 297, 288, 283, 277, 276, 273, 266, 265, 266, 271, 274, 277, 277, 279, 283, 291, 293, 281, 279, 278, 286, 287, 296, 296, 295, 294, 293, 291, 279, 279, 273, 271, 267, 266, 264, 264, 264, 265, 266, 276, 276, 287, 291, 293, 293, 293, 289, 284, 266, 265, 256, 253, 253, 252, 251, 251, 247, 242, 242, 244, 250, 253, 253, 252, 230, 230, 229, 229, 228, 228, 228, 228, 227, 226, 222, 221, 220, 220, 221, 222, 222, 222, 226, 226, 228, 229, 240, 241, 244, 247, 259, 266, 271, 277, 278, 281, 281, 283, 283, 285, 287, 288, 288, 287, 284, 283, 261, 257, 254, 255, 260, 260, 267, 279, 280, 282, 283, 282, 279, 277, 260, 252, 242, 242, 240, 239, 237, 236, 236, 235, 234, 234, 237, 240, 242, 241, 240, 240, 240, 240, 240, 240, 242, 249, 255, 255, 256, 257, 257, 259, 259, 260, 262, 265, 266, 267, 268, 269, 270, 271, 272, 272, 272, 269, 269, 268, 267, 267, 269]}}, {"type": "Feature", "geometry": {"type": "LineString", "coordinates": [[-96.29208, 30.1275], [-96.29205, 30.12751], [-96.29164, 30.12758], [-96.29144, 30.12762], [-96.29124, 30.12765], [-96.29042, 30.1278], [-96.28952, 30.12795], [-96.28879, 30.12807], [-96.28859, 30.1281], [-96.28818, 30.12817], [-96.28755, 30.12827], [-96.28716, 30.12832], [-96.28682, 30.12837], [-96.2859299, 30.12853], [-96.28582, 30.12855], [-96.28573, 30.12856], [-96.28552, 30.12859], [-96.2848999, 30.12866], [-96.2847, 30.12869], [-96.28433, 30.12874], [-96.28429, 30.12874], [-96.28388, 30.1288], [-96.28367, 30.12883], [-96.28336, 30.12888], [-96.28326, 30.12889], [-96.28286, 30.12898], [-96.2823, 30.1291], [-96.28202, 30.12916], [-96.28175, 30.12924], [-96.28146, 30.12935], [-96.28133, 30.12939], [-96.28129, 30.1294], [-96.2811399, 30.12943], [-96.28088, 30.12947], [-96.28054, 30.12952], [-96.2804699, 30.12953], [-96.28006, 30.12958], [-96.27999, 30.12958], [-96.27946, 30.12965], [-96.27937, 30.12965], [-96.27854, 30.12972], [-96.2782299, 30.12974], [-96.2780499, 30.12978], [-96.27779, 30.12987], [-96.27774, 30.12989], [-96.27753, 30.12993], [-96.27595, 30.13017], [-96.27575, 30.1302], [-96.27554, 30.13023], [-96.2743799, 30.1304], [-96.27404, 30.13046], [-96.27385, 30.1305], [-96.27351, 30.13056], [-96.2726, 30.1307], [-96.27219, 30.13077], [-96.27193, 30.13081], [-96.27178, 30.13083], [-96.27096, 30.13095], [-96.27069, 30.131], [-96.26973, 30.13115], [-96.26917, 30.13123], [-96.26843, 30.13137], [-96.26835, 30.13138], [-96.26815, 30.13141], [-96.26815, 30.13141], [-96.26807, 30.1312], [-96.26804, 30.13106], [-96.26785, 30.13036], [-96.2678, 30.13019], [-96.26775, 30.13001], [-96.2677, 30.12984], [-96.26766, 30.12966], [-96.26723, 30.12808], [-96.26709, 30.1276], [-96.26709, 30.12756], [-96.26688, 30.12668], [-96.26685, 30.12653], [-96.26684, 30.1265], [-96.26669, 30.12599], [-96.26664, 30.12564], [-96.26662, 30.12553], [-96.26658, 30.12526], [-96.26654, 30.12504], [-96.26648, 30.12464]]}, "properties": {"surface": "pavement", "label": "Pavement", "color": "#4A5568", "miles": 1.94, "start_mi": 39.72, "end_mi": 41.65, "road": "Chadwick-Hogan Road", "elev_ft": [278, 278, 280, 284, 288, 299, 309, 313, 313, 313, 313, 314, 314, 313, 313, 312, 311, 309, 306, 301, 301, 301, 302, 305, 306, 309, 320, 326, 329, 332, 333, 334, 334, 334, 332, 331, 330, 330, 320, 320, 319, 320, 320, 322, 323, 324, 330, 330, 330, 313, 309, 306, 300, 290, 286, 285, 287, 299, 303, 320, 323, 324, 324, 323, 323, 323, 323, 321, 321, 321, 322, 323, 330, 329, 329, 325, 325, 324, 322, 320, 319, 319, 318, 315]}}, {"type": "Feature", "geometry": {"type": "LineString", "coordinates": [[-96.26645, 30.12432], [-96.26645, 30.12432], [-96.26654, 30.12431], [-96.26675, 30.12428], [-96.26688, 30.12426], [-96.2671, 30.12421], [-96.26734, 30.12412], [-96.26751, 30.12401], [-96.26755, 30.12399], [-96.26774, 30.12382], [-96.2678, 30.12375], [-96.26789, 30.12365], [-96.26798, 30.12351], [-96.26801, 30.12346], [-96.26831, 30.12281], [-96.26848, 30.12252], [-96.26866, 30.12219], [-96.26879, 30.12196], [-96.26884, 30.12187], [-96.26919, 30.12117], [-96.26926, 30.12104], [-96.26939, 30.12079], [-96.26943, 30.12072], [-96.26962, 30.1204], [-96.26972, 30.12021], [-96.27009, 30.11959], [-96.27028, 30.11927], [-96.27046, 30.11895], [-96.27095, 30.11811], [-96.27096, 30.11808], [-96.27116, 30.11779], [-96.27124, 30.11763], [-96.27135, 30.11741], [-96.27152, 30.1171], [-96.27161, 30.11698], [-96.27169, 30.11689], [-96.27254, 30.11628], [-96.27281, 30.1161], [-96.27298, 30.11597], [-96.27348, 30.11564], [-96.2735, 30.11563], [-96.27385, 30.11542], [-96.274, 30.11529], [-96.27412, 30.11514], [-96.27422, 30.11499], [-96.27432, 30.11479], [-96.2744, 30.11441], [-96.27442, 30.11432], [-96.27452, 30.11379], [-96.27467, 30.11304], [-96.27488, 30.11184], [-96.27493, 30.11152], [-96.27518, 30.11024], [-96.27536, 30.10932], [-96.27549, 30.10883], [-96.2755899, 30.10845], [-96.27579, 30.10778], [-96.27589, 30.10743], [-96.27625, 30.10621], [-96.2764399, 30.10559], [-96.27662, 30.10506], [-96.27673, 30.10485], [-96.27689, 30.10464], [-96.27712, 30.10441], [-96.27717, 30.10437], [-96.27745, 30.10411], [-96.27792, 30.1037], [-96.27849, 30.10327], [-96.27907, 30.10286], [-96.27947, 30.10261], [-96.2798399, 30.10237], [-96.2803, 30.10209], [-96.28103, 30.10171], [-96.2812, 30.10163], [-96.28144, 30.10151], [-96.2815, 30.10145], [-96.28155, 30.10139], [-96.28165, 30.10126], [-96.28182, 30.10102], [-96.28187, 30.10095], [-96.2820799, 30.10064], [-96.28216, 30.10053], [-96.2823, 30.1004], [-96.28236, 30.10037], [-96.28249, 30.10031], [-96.28273, 30.10022], [-96.28344, 30.09996], [-96.2835, 30.09994], [-96.28407, 30.09973], [-96.28503, 30.09938], [-96.28556, 30.09918], [-96.28623, 30.09892], [-96.28671, 30.09875], [-96.28672, 30.09875], [-96.28724, 30.09851], [-96.28779, 30.0982], [-96.28807, 30.09802], [-96.2882599, 30.09785], [-96.28858, 30.09758], [-96.28882, 30.09739], [-96.28885, 30.09735], [-96.28891, 30.09727], [-96.28899, 30.09693], [-96.289, 30.09688], [-96.289, 30.09683], [-96.289, 30.09683], [-96.28901, 30.09674], [-96.28888, 30.09601], [-96.28883, 30.09595], [-96.28881, 30.09589], [-96.28879, 30.0958], [-96.28867, 30.09502], [-96.28859, 30.0945], [-96.28849, 30.09377], [-96.28838, 30.093], [-96.28824, 30.09207], [-96.28819, 30.09136], [-96.28819, 30.09127], [-96.28819, 30.09037], [-96.28819, 30.09029], [-96.28818, 30.08944], [-96.28818, 30.08929], [-96.28819, 30.08921], [-96.28822, 30.08896], [-96.28822, 30.08893], [-96.28828, 30.08857], [-96.28841, 30.08801], [-96.28863, 30.08712], [-96.2887, 30.08681], [-96.28878, 30.08646], [-96.28909, 30.08527], [-96.2891, 30.08523], [-96.28929, 30.08453], [-96.28956, 30.08348], [-96.28963, 30.08322], [-96.2897, 30.08295], [-96.28974, 30.08278], [-96.28976, 30.08269], [-96.28973, 30.08218], [-96.2896899, 30.08206], [-96.2896899, 30.08206], [-96.29013, 30.0824], [-96.29041, 30.08265], [-96.29114, 30.08329], [-96.29124, 30.08339], [-96.29178, 30.08388], [-96.29186, 30.08394], [-96.292, 30.08403], [-96.29207, 30.08406], [-96.29215, 30.08408], [-96.29223, 30.08407], [-96.29228, 30.08407], [-96.29345, 30.08387], [-96.29447, 30.0837], [-96.29504, 30.0836], [-96.29651, 30.08336], [-96.2965399, 30.08336], [-96.29733, 30.08322], [-96.29794, 30.08311], [-96.29812, 30.08308], [-96.29903, 30.08292], [-96.29984, 30.08277], [-96.30017, 30.08277], [-96.30047, 30.08274], [-96.30062, 30.08272], [-96.30103, 30.08267], [-96.30137, 30.08261], [-96.30173, 30.08251], [-96.30224, 30.0824], [-96.30231, 30.08239], [-96.30235, 30.08238], [-96.30333, 30.0822], [-96.30407, 30.08207], [-96.30455, 30.08199], [-96.30614, 30.08173], [-96.30618, 30.08172], [-96.30659, 30.08166], [-96.30665, 30.08165], [-96.30716, 30.08155], [-96.3074, 30.08159], [-96.30757, 30.08161], [-96.30825, 30.08208], [-96.30837, 30.08216], [-96.30892, 30.08253], [-96.3092999, 30.08264], [-96.30938, 30.08267], [-96.31004, 30.08272], [-96.3103299, 30.08271], [-96.3105, 30.08271], [-96.31098, 30.08265], [-96.31116, 30.08264], [-96.31157, 30.08261], [-96.31158, 30.08261], [-96.31184, 30.08262], [-96.31201, 30.08268], [-96.31207, 30.08272], [-96.31209, 30.08278], [-96.3121199, 30.08291], [-96.31216, 30.0831], [-96.31219, 30.08315], [-96.3122099, 30.0832], [-96.31225, 30.08323], [-96.31227, 30.08325], [-96.31233, 30.08326], [-96.31238, 30.08327], [-96.31253, 30.08325], [-96.31274, 30.08322], [-96.31376, 30.08306], [-96.31457, 30.08295], [-96.31759, 30.08244], [-96.3178, 30.0824], [-96.3182099, 30.08234], [-96.31922, 30.08217], [-96.31983, 30.08207], [-96.3204499, 30.08197], [-96.32106, 30.08186], [-96.32167, 30.08176], [-96.32208, 30.0817], [-96.3233599, 30.08148], [-96.3235, 30.08146], [-96.32358, 30.08145], [-96.32391, 30.08139], [-96.32432, 30.08132], [-96.32513, 30.08119], [-96.32594, 30.08105], [-96.32673, 30.08092], [-96.32714, 30.08085], [-96.32794, 30.08071], [-96.32805, 30.08069], [-96.32866, 30.08059], [-96.32929, 30.08049], [-96.32968, 30.08043], [-96.32977, 30.08041], [-96.33016, 30.08035], [-96.33033, 30.08032], [-96.33074, 30.08025], [-96.33197, 30.08003], [-96.33217, 30.08], [-96.3336, 30.07979], [-96.33395, 30.07973], [-96.33481, 30.0796], [-96.3349, 30.07959]]}, "properties": {"surface": "caliche", "label": "Caliche / gravel", "color": "#C98A24", "miles": 6.38, "start_mi": 41.65, "end_mi": 48.03, "road": "Sempronius Road", "elev_ft": [315, 315, 314, 312, 310, 306, 300, 297, 296, 291, 290, 291, 292, 293, 294, 296, 298, 298, 296, 280, 277, 271, 271, 277, 282, 296, 300, 303, 303, 303, 301, 301, 301, 302, 302, 302, 306, 305, 303, 301, 301, 301, 301, 302, 303, 305, 306, 306, 306, 303, 293, 290, 271, 262, 258, 253, 247, 246, 240, 233, 228, 228, 227, 226, 226, 222, 220, 218, 214, 212, 211, 211, 210, 210, 209, 208, 208, 210, 218, 220, 228, 231, 237, 238, 239, 242, 244, 245, 242, 231, 226, 222, 221, 221, 219, 216, 215, 213, 211, 210, 208, 202, 200, 200, 200, 200, 200, 211, 211, 211, 212, 217, 216, 216, 218, 220, 227, 228, 238, 239, 251, 252, 253, 256, 257, 260, 265, 269, 269, 275, 278, 278, 279, 284, 284, 284, 284, 284, 288, 289, 289, 280, 280, 280, 280, 290, 291, 293, 293, 293, 293, 292, 271, 258, 253, 232, 232, 226, 222, 221, 224, 220, 221, 222, 222, 223, 224, 226, 229, 230, 230, 238, 238, 234, 262, 262, 261, 260, 256, 253, 250, 252, 254, 259, 260, 260, 262, 264, 265, 268, 269, 272, 273, 277, 280, 282, 283, 287, 292, 294, 296, 297, 298, 299, 300, 300, 300, 294, 298, 325, 325, 322, 307, 299, 292, 282, 288, 295, 320, 321, 322, 327, 328, 326, 327, 326, 328, 335, 336, 340, 350, 354, 355, 358, 358, 357, 349, 348, 350, 347, 336, 334]}}, {"type": "Feature", "geometry": {"type": "LineString", "coordinates": [[-96.33543, 30.07954], [-96.33543, 30.07954], [-96.33534, 30.07917], [-96.33521, 30.07864], [-96.33487, 30.07705], [-96.33486, 30.07697], [-96.33483, 30.07677], [-96.33484, 30.07669], [-96.33486, 30.07648], [-96.33487, 30.07645], [-96.33488, 30.07636], [-96.3349999, 30.07585], [-96.33502, 30.07568], [-96.33504, 30.07557], [-96.33501, 30.07544], [-96.33499, 30.07529], [-96.33495, 30.07513], [-96.33485, 30.07476], [-96.33477, 30.07451], [-96.33463, 30.07401], [-96.33452, 30.07363], [-96.33433, 30.07291], [-96.33419, 30.07241], [-96.33401, 30.0717], [-96.33394, 30.07142], [-96.33378, 30.07082], [-96.33364, 30.07028], [-96.33362, 30.0702], [-96.33346, 30.06963], [-96.33345, 30.06958], [-96.33341, 30.06943], [-96.33341, 30.06933], [-96.33345, 30.06926], [-96.33351, 30.0692], [-96.3337899, 30.06911], [-96.33384, 30.0691], [-96.33426, 30.06904], [-96.33446, 30.069], [-96.33471, 30.06896], [-96.33507, 30.0689], [-96.33527, 30.06886], [-96.33588, 30.06877], [-96.33589, 30.06877], [-96.33644, 30.06868], [-96.33691, 30.0686], [-96.33711, 30.06856], [-96.3375499, 30.0685], [-96.33793, 30.06843], [-96.33795, 30.06842], [-96.33829, 30.06837], [-96.33833, 30.06835], [-96.33839, 30.06833], [-96.33842, 30.06827], [-96.33844, 30.06821], [-96.33845, 30.06819], [-96.33839, 30.06806], [-96.33789, 30.06766], [-96.33721, 30.06714], [-96.33651, 30.0666], [-96.33623, 30.06637], [-96.33559, 30.06589], [-96.33451, 30.06504], [-96.33436, 30.06492], [-96.3341, 30.06471], [-96.33408, 30.0647], [-96.33382, 30.06449], [-96.33322, 30.064], [-96.33246, 30.06339], [-96.33233, 30.06328], [-96.33214, 30.06316], [-96.33214, 30.06316], [-96.33205, 30.06316], [-96.33196, 30.06317], [-96.33181, 30.06321], [-96.33167, 30.06325], [-96.33144, 30.06333], [-96.33065, 30.06351], [-96.33038, 30.06354], [-96.3298499, 30.06355], [-96.3297, 30.06355], [-96.32862, 30.0636], [-96.32861, 30.0636], [-96.32832, 30.06361], [-96.32829, 30.06361], [-96.32774, 30.06365], [-96.32771, 30.06364], [-96.32731, 30.06368], [-96.32713, 30.06368], [-96.3271199, 30.06368], [-96.32663, 30.06363], [-96.32646, 30.06364], [-96.32598, 30.06368], [-96.32567, 30.06372], [-96.32383, 30.064], [-96.32331, 30.06409], [-96.32301, 30.06413], [-96.32199, 30.06428], [-96.32143, 30.06437], [-96.32122, 30.06439], [-96.3206, 30.0645], [-96.31979, 30.06463], [-96.31938, 30.0647], [-96.3191, 30.06475], [-96.3189699, 30.06477], [-96.31827, 30.0649], [-96.31782, 30.065], [-96.31767, 30.06502], [-96.31695, 30.06513], [-96.31644, 30.0652], [-96.31623, 30.06524], [-96.31611, 30.06525], [-96.3160599, 30.06525], [-96.31604, 30.06525], [-96.316, 30.06523], [-96.31592, 30.06518], [-96.31591, 30.06516], [-96.31588, 30.06512], [-96.31587, 30.0651], [-96.31577, 30.06448], [-96.31576, 30.06442], [-96.31572, 30.06432], [-96.31571, 30.06431], [-96.3157, 30.0643], [-96.31569, 30.06429], [-96.31568, 30.06429], [-96.31567, 30.06429], [-96.3156, 30.06428], [-96.31529, 30.0643], [-96.31487, 30.06434], [-96.31428, 30.06438], [-96.31404, 30.06441], [-96.31363, 30.06445], [-96.31242, 30.06458], [-96.3123899, 30.06458], [-96.31177, 30.06463], [-96.31146, 30.06466], [-96.3103299, 30.06478], [-96.30971, 30.06484], [-96.30909, 30.0649], [-96.30826, 30.06498], [-96.30771, 30.06504], [-96.3075099, 30.06506], [-96.30723, 30.06509], [-96.30689, 30.06512], [-96.30646, 30.06515], [-96.30607, 30.06519], [-96.30565, 30.06523], [-96.30562, 30.06523], [-96.30549, 30.06531], [-96.30548, 30.06532], [-96.30535, 30.06545], [-96.30509, 30.06584], [-96.30463, 30.06655], [-96.30443, 30.06687], [-96.30439, 30.06692], [-96.30425, 30.06711], [-96.30419, 30.06716], [-96.3041, 30.06725], [-96.30397, 30.06732], [-96.30369, 30.06741], [-96.30325, 30.0675], [-96.30277, 30.06759], [-96.30154, 30.06779], [-96.30121, 30.06782], [-96.30117, 30.06782], [-96.30053, 30.06786], [-96.30038, 30.06788], [-96.30011, 30.06792], [-96.29998, 30.06793], [-96.29997, 30.06794], [-96.29979, 30.06797], [-96.29918, 30.06807], [-96.29804, 30.06827], [-96.2977, 30.06832], [-96.29647, 30.06851], [-96.29565, 30.06863], [-96.2944799, 30.0688], [-96.29442, 30.06881], [-96.2934, 30.06897], [-96.29238, 30.06912], [-96.29231, 30.06913], [-96.29197, 30.06918], [-96.29094, 30.06935], [-96.29092, 30.06935], [-96.29034, 30.06946], [-96.28993, 30.06954], [-96.28964, 30.0696], [-96.28952, 30.06962], [-96.28951, 30.06962], [-96.28891, 30.06973], [-96.28749, 30.06997], [-96.28676, 30.0701], [-96.28676, 30.0701], [-96.2869, 30.07069], [-96.28699, 30.07105], [-96.28721, 30.07198], [-96.28724, 30.0721], [-96.28751, 30.07316], [-96.28751, 30.07316], [-96.2871399, 30.07314], [-96.28672, 30.07312], [-96.28638, 30.0731], [-96.2863, 30.0731], [-96.28548, 30.07305], [-96.28492, 30.07301], [-96.28465, 30.07299], [-96.2842299, 30.07295], [-96.28299, 30.07285], [-96.28258, 30.07281], [-96.28201, 30.07277], [-96.28196, 30.07276], [-96.28115, 30.0727], [-96.28003, 30.07265], [-96.2799, 30.07264], [-96.27975, 30.07263], [-96.27949, 30.07262], [-96.27928, 30.0726], [-96.27789, 30.07251], [-96.27703, 30.07246], [-96.27534, 30.07234], [-96.2751399, 30.07233], [-96.27493, 30.07234], [-96.27484, 30.07234], [-96.27442, 30.07238], [-96.2741, 30.07242], [-96.27369, 30.07248], [-96.27328, 30.07254], [-96.27297, 30.07258], [-96.27267, 30.07262], [-96.27226, 30.07268], [-96.27191, 30.07273], [-96.27185, 30.07274], [-96.27126, 30.0728], [-96.2704, 30.07291], [-96.26999, 30.07296], [-96.26958, 30.07302], [-96.26897, 30.07309], [-96.26855, 30.07315], [-96.2681099, 30.0732], [-96.2675299, 30.07328], [-96.26712, 30.07334], [-96.2667, 30.07339], [-96.26588, 30.0735], [-96.2654699, 30.07356], [-96.26506, 30.07361], [-96.26495, 30.07363], [-96.26487, 30.07362], [-96.26482, 30.0736], [-96.26478, 30.07356], [-96.2647, 30.07316], [-96.26451, 30.07214], [-96.26431, 30.07121], [-96.26406, 30.06997], [-96.26405, 30.06994], [-96.26399, 30.06969], [-96.26395, 30.06961], [-96.26385, 30.06947], [-96.2637699, 30.06941], [-96.2636799, 30.06936], [-96.2636, 30.06935], [-96.26347, 30.06934], [-96.26244, 30.06927], [-96.26223, 30.06926], [-96.26211, 30.06925], [-96.26182, 30.06923], [-96.26099, 30.06919], [-96.26057, 30.06916], [-96.26048, 30.06916], [-96.26016, 30.06913], [-96.25933, 30.06907], [-96.25892, 30.06904], [-96.25882, 30.06903], [-96.25767, 30.069], [-96.25719, 30.06898], [-96.25704, 30.06899], [-96.25688, 30.06902], [-96.25645, 30.06914], [-96.25643, 30.06914], [-96.25621, 30.06919], [-96.25616, 30.0692], [-96.25584, 30.06925], [-96.25525, 30.06934], [-96.25522, 30.06935], [-96.254, 30.06955], [-96.25339, 30.06965], [-96.25297, 30.06972], [-96.25277, 30.06975], [-96.2518599, 30.06988], [-96.2518599, 30.06988]]}, "properties": {"surface": "unknown", "label": "Unverified", "color": "#9A9389", "miles": 7.04, "start_mi": 48.03, "end_mi": 55.07, "road": "Kiemsteadt Road", "elev_ft": [338, 338, 336, 338, 318, 317, 314, 313, 305, 305, 304, 319, 322, 325, 330, 331, 335, 345, 349, 355, 360, 368, 373, 375, 375, 370, 367, 366, 358, 358, 356, 354, 353, 352, 348, 348, 342, 341, 341, 345, 347, 353, 353, 360, 366, 369, 375, 382, 382, 386, 386, 386, 385, 385, 384, 381, 371, 363, 350, 347, 338, 356, 359, 363, 363, 360, 350, 331, 329, 325, 325, 323, 321, 319, 319, 319, 319, 318, 310, 310, 295, 295, 291, 292, 308, 308, 311, 309, 309, 307, 306, 305, 303, 305, 303, 300, 285, 281, 281, 288, 300, 304, 302, 299, 291, 293, 296, 313, 314, 314, 314, 313, 313, 313, 312, 312, 312, 312, 315, 315, 315, 315, 315, 315, 315, 314, 314, 311, 311, 316, 318, 319, 310, 310, 299, 289, 273, 264, 257, 252, 247, 246, 255, 262, 270, 273, 275, 275, 275, 275, 274, 269, 260, 256, 255, 255, 256, 257, 260, 264, 272, 276, 285, 291, 291, 296, 296, 295, 293, 293, 290, 287, 276, 271, 268, 269, 277, 277, 277, 287, 287, 283, 264, 263, 253, 247, 243, 242, 243, 256, 277, 281, 281, 291, 293, 292, 292, 293, 293, 298, 302, 298, 296, 283, 275, 274, 281, 298, 299, 289, 289, 280, 261, 260, 256, 257, 260, 269, 275, 290, 289, 283, 281, 277, 274, 273, 276, 280, 284, 281, 279, 278, 267, 251, 248, 256, 264, 266, 266, 268, 265, 254, 232, 227, 229, 230, 231, 231, 231, 224, 203, 196, 190, 190, 192, 193, 194, 195, 196, 197, 198, 212, 211, 209, 207, 198, 197, 198, 203, 219, 220, 219, 218, 221, 221, 222, 224, 224, 223, 223, 220, 218, 218, 199, 191, 192, 192, 190, 190]}}, {"type": "Feature", "geometry": {"type": "LineString", "coordinates": [[-96.25171, 30.06926], [-96.25163, 30.0689], [-96.25146, 30.0682], [-96.25134, 30.06767], [-96.25118, 30.06702], [-96.25086, 30.06561], [-96.2508, 30.06534], [-96.25079, 30.06528], [-96.25078, 30.06526], [-96.2507, 30.06485], [-96.25063, 30.06455], [-96.25055, 30.0642], [-96.25042, 30.06367], [-96.25031, 30.0632], [-96.25026, 30.06297], [-96.25018, 30.06262], [-96.24993, 30.06151], [-96.24991, 30.06139], [-96.24967, 30.06033], [-96.24963, 30.06016], [-96.24948, 30.05945], [-96.2492199, 30.05821], [-96.24915, 30.05787], [-96.24914, 30.05768], [-96.2491299, 30.05762], [-96.24914, 30.05744], [-96.2492, 30.05721], [-96.24946, 30.05666], [-96.24961, 30.05632], [-96.24963, 30.05628], [-96.24973, 30.05608], [-96.24978, 30.056], [-96.24979, 30.05598], [-96.24986, 30.0559], [-96.24997, 30.05582], [-96.2501, 30.05577], [-96.2505, 30.05569], [-96.25095, 30.0556], [-96.25096, 30.0556], [-96.25112, 30.05557], [-96.25154, 30.05549], [-96.25219, 30.05537], [-96.25219, 30.05537]]}, "properties": {"surface": "two_track", "label": "Ranch two-track", "color": "#6B5A45", "miles": 1.09, "start_mi": 55.07, "end_mi": 56.16, "road": "Kramer Road", "elev_ft": [201, 209, 217, 226, 238, 249, 252, 252, 252, 244, 239, 230, 240, 251, 255, 260, 258, 258, 258, 258, 257, 263, 263, 261, 261, 259, 258, 247, 242, 242, 240, 240, 240, 242, 246, 248, 252, 255, 255, 256, 253, 246, 246]}}, {"type": "Feature", "geometry": {"type": "LineString", "coordinates": [[-96.25274, 30.05531], [-96.25276, 30.05531], [-96.25313, 30.05527], [-96.25332, 30.05525], [-96.2535599, 30.05523], [-96.2537, 30.05521], [-96.25408, 30.05517], [-96.2549499, 30.055], [-96.25538, 30.0549], [-96.25593, 30.05477], [-96.25597, 30.05476], [-96.25684, 30.05454], [-96.25699, 30.0545], [-96.25718, 30.05447], [-96.2575899, 30.0544], [-96.25796, 30.05434], [-96.25833, 30.05428], [-96.2589, 30.05419], [-96.25907, 30.05416], [-96.2597399, 30.05405], [-96.2598299, 30.05403], [-96.2609499, 30.05385], [-96.26122, 30.05381], [-96.2618899, 30.05371], [-96.2623799, 30.05364], [-96.26259, 30.05361], [-96.26299, 30.05356], [-96.26331, 30.05351], [-96.26348, 30.05348], [-96.26371, 30.05344], [-96.2637699, 30.05343], [-96.26396, 30.0534], [-96.26423, 30.05336], [-96.26441, 30.05334], [-96.2647999, 30.05328], [-96.26589, 30.05313], [-96.26607, 30.0531], [-96.26628, 30.05306], [-96.26648, 30.05303], [-96.26709, 30.05292], [-96.26721, 30.0529], [-96.26749, 30.05285], [-96.26797, 30.05276], [-96.26806, 30.05274], [-96.26814, 30.05273], [-96.26831, 30.0527], [-96.26907, 30.05257], [-96.26913, 30.05256], [-96.26954, 30.05249], [-96.26975, 30.05245], [-96.26991, 30.05243], [-96.27036, 30.05235], [-96.27072, 30.05229], [-96.27077, 30.05228], [-96.27084, 30.05227], [-96.27097, 30.05225], [-96.27113, 30.05222], [-96.27133, 30.05219], [-96.2713799, 30.05218], [-96.27154, 30.05216], [-96.27178, 30.05211], [-96.27194, 30.05209], [-96.2726, 30.05198], [-96.27316, 30.05188], [-96.27321, 30.05188], [-96.2736199, 30.05181], [-96.27423, 30.05171], [-96.2744699, 30.05167], [-96.27464, 30.05164], [-96.27545, 30.0515], [-96.27586, 30.05143], [-96.27606, 30.0514], [-96.27647, 30.05133], [-96.27708, 30.05122], [-96.2781, 30.05104], [-96.27973, 30.05076], [-96.28, 30.05072], [-96.28034, 30.05066], [-96.2803799, 30.05065], [-96.2809599, 30.05056], [-96.28142, 30.05048], [-96.28177, 30.05043], [-96.28219, 30.05038], [-96.28246, 30.05034], [-96.2826, 30.05032], [-96.28337, 30.05022], [-96.28342, 30.05021], [-96.28388, 30.05015], [-96.28485, 30.05002], [-96.28507, 30.04999], [-96.28558, 30.04991], [-96.28608, 30.04983], [-96.2866, 30.04975], [-96.28748, 30.04961], [-96.28762, 30.04959], [-96.28773, 30.04957], [-96.28789, 30.04955], [-96.28803, 30.04953], [-96.2883, 30.04949], [-96.2886, 30.04944], [-96.28879, 30.04943], [-96.28919, 30.04939], [-96.28933, 30.04938], [-96.2897, 30.04935], [-96.28975, 30.04934], [-96.28992, 30.04931], [-96.2901, 30.04927], [-96.29012, 30.04926], [-96.29015, 30.04925], [-96.29034, 30.04919], [-96.29036, 30.04918], [-96.29094, 30.04902], [-96.29114, 30.04897], [-96.2913, 30.04892], [-96.29133, 30.04891], [-96.29153, 30.04886], [-96.29154, 30.04886], [-96.29173, 30.04882], [-96.29222, 30.04873], [-96.29234, 30.04871], [-96.29256, 30.04867], [-96.29275, 30.04863], [-96.29304, 30.04858], [-96.2933, 30.04855], [-96.29347, 30.04852], [-96.29371, 30.04849], [-96.2938099, 30.04847], [-96.29412, 30.04843], [-96.29432, 30.0484], [-96.29494, 30.04831], [-96.29525, 30.04827], [-96.29555, 30.04822], [-96.29561, 30.04822], [-96.2959599, 30.04816], [-96.29629, 30.04811], [-96.2966, 30.04806], [-96.2967, 30.04804], [-96.2968999, 30.04801], [-96.29691, 30.04801], [-96.29706, 30.04798], [-96.29722, 30.04796], [-96.29737, 30.04794], [-96.29746, 30.04792], [-96.29818, 30.04782], [-96.29859, 30.04775], [-96.2992, 30.04765], [-96.29955, 30.04759], [-96.2998099, 30.04755], [-96.30002, 30.04752], [-96.30043, 30.04746], [-96.30063, 30.04742], [-96.3008399, 30.04739], [-96.30103, 30.04736], [-96.30165, 30.04726], [-96.30214, 30.04718], [-96.30255, 30.04711], [-96.30286, 30.04706], [-96.3035699, 30.04694], [-96.30418, 30.04684], [-96.30438, 30.04681], [-96.30453, 30.04677], [-96.30459, 30.04675], [-96.30464, 30.04673], [-96.30468, 30.04671], [-96.30472, 30.04668], [-96.30474, 30.04665], [-96.30476, 30.04661], [-96.30477, 30.04659], [-96.3047799, 30.04656], [-96.3047799, 30.04655], [-96.3047799, 30.04653], [-96.30476, 30.04644], [-96.30466, 30.04581], [-96.30462, 30.04563], [-96.30459, 30.04547], [-96.30454, 30.04517], [-96.30453, 30.04511], [-96.30453, 30.0451], [-96.30453, 30.04505], [-96.30453, 30.04502], [-96.30455, 30.04499], [-96.30456, 30.04496], [-96.30458, 30.04493], [-96.30461, 30.0449], [-96.30464, 30.04488], [-96.30467, 30.04487], [-96.30471, 30.04485], [-96.30484, 30.04482], [-96.30508, 30.04479], [-96.3051799, 30.04477], [-96.30524, 30.04477], [-96.30537, 30.04475], [-96.30578, 30.04468], [-96.30599, 30.04465], [-96.30605, 30.04464], [-96.3066, 30.04455], [-96.30701, 30.04449], [-96.30706, 30.04448], [-96.30721, 30.04446], [-96.308, 30.04433], [-96.30844, 30.04426], [-96.30886, 30.04418], [-96.30905, 30.04415], [-96.30925, 30.04411], [-96.31022, 30.04395], [-96.31027, 30.04394], [-96.31035, 30.04392], [-96.31039, 30.04392], [-96.31091, 30.04383], [-96.3112699, 30.04377], [-96.31162, 30.04371], [-96.31166, 30.0437], [-96.3117, 30.04368], [-96.31173, 30.04365], [-96.31174, 30.04363], [-96.31175, 30.04362], [-96.31177, 30.0436], [-96.31177, 30.04358], [-96.31178, 30.04355], [-96.31178, 30.04353], [-96.31178, 30.04349], [-96.31176, 30.04334], [-96.31173, 30.04322], [-96.3117199, 30.04317], [-96.31171, 30.04309], [-96.3116299, 30.0427], [-96.31162, 30.04264], [-96.31159, 30.04246], [-96.31158, 30.04236], [-96.31158, 30.04231], [-96.31158, 30.04229], [-96.31159, 30.04225], [-96.31161, 30.04222], [-96.31162, 30.04221], [-96.31164, 30.04218], [-96.31171, 30.04214], [-96.31174, 30.04213], [-96.31184, 30.04208], [-96.31202, 30.04198], [-96.31238, 30.0418], [-96.31256, 30.04171], [-96.31278, 30.0416], [-96.31295, 30.04152], [-96.3131499, 30.04142], [-96.31343, 30.04126], [-96.3135, 30.04123], [-96.31356, 30.0412], [-96.31365, 30.04116], [-96.3136899, 30.04115], [-96.31372, 30.04114], [-96.31379, 30.04113], [-96.31387, 30.04112], [-96.31389, 30.04112], [-96.31394, 30.04111], [-96.31415, 30.04111], [-96.31431, 30.04112], [-96.31441, 30.04112], [-96.31462, 30.04113], [-96.31464, 30.04113], [-96.31472, 30.04114], [-96.31486, 30.04115], [-96.31488, 30.04115], [-96.31493, 30.04116], [-96.31509, 30.04117], [-96.31534, 30.04121], [-96.3155, 30.04123], [-96.31575, 30.04127], [-96.31589, 30.0413], [-96.31595, 30.04131], [-96.31602, 30.04132], [-96.31605, 30.04133], [-96.31609, 30.04134], [-96.31616, 30.04136], [-96.31622, 30.0414], [-96.31627, 30.04143], [-96.31635, 30.04149], [-96.31644, 30.04157], [-96.31647, 30.04159], [-96.31655, 30.04167], [-96.31689, 30.04199], [-96.31694, 30.04203], [-96.31703, 30.04212], [-96.3173599, 30.04243], [-96.31772, 30.04275], [-96.31774, 30.04277], [-96.31788, 30.0429], [-96.3180299, 30.04303], [-96.31818, 30.04315], [-96.3182, 30.04317], [-96.3182999, 30.04324], [-96.31843, 30.04334], [-96.31856, 30.04342], [-96.31861, 30.04344], [-96.3187, 30.04349], [-96.31879, 30.04353], [-96.31881, 30.04354], [-96.31887, 30.04356], [-96.3188799, 30.04356], [-96.31895, 30.04358], [-96.31899, 30.04359], [-96.31902, 30.0436], [-96.31908, 30.04361], [-96.31914, 30.04362], [-96.31919, 30.04362], [-96.31921, 30.04362], [-96.31927, 30.04361], [-96.31928, 30.04361], [-96.3193299, 30.0436], [-96.31939, 30.04359], [-96.31943, 30.04357], [-96.31949, 30.04354], [-96.31957, 30.04348], [-96.31957, 30.04348]]}, "properties": {"surface": "unknown", "label": "Unverified", "color": "#9A9389", "miles": 4.4, "start_mi": 56.16, "end_mi": 60.55, "road": "Lynn Road", "elev_ft": [235, 235, 224, 230, 234, 235, 241, 253, 259, 265, 265, 271, 271, 271, 276, 283, 288, 296, 297, 290, 289, 276, 273, 267, 260, 256, 249, 247, 246, 242, 241, 240, 238, 236, 232, 237, 235, 234, 233, 232, 233, 236, 243, 244, 245, 247, 260, 260, 263, 262, 260, 246, 239, 237, 235, 232, 230, 225, 223, 220, 222, 228, 245, 260, 262, 270, 267, 266, 265, 246, 238, 237, 232, 231, 251, 280, 282, 289, 289, 292, 293, 290, 288, 287, 289, 295, 295, 297, 304, 307, 315, 324, 328, 340, 341, 341, 342, 342, 342, 341, 338, 328, 326, 320, 319, 318, 319, 320, 320, 325, 326, 338, 341, 345, 346, 348, 349, 349, 340, 338, 334, 330, 324, 314, 315, 322, 323, 330, 335, 350, 359, 366, 368, 371, 377, 376, 375, 374, 374, 371, 370, 368, 367, 356, 354, 351, 353, 355, 356, 356, 355, 353, 350, 341, 338, 334, 332, 327, 322, 321, 322, 322, 323, 323, 323, 323, 324, 324, 325, 325, 325, 326, 336, 340, 342, 342, 342, 342, 342, 342, 342, 342, 342, 342, 342, 342, 342, 341, 339, 338, 338, 336, 330, 327, 327, 324, 331, 331, 332, 337, 341, 342, 343, 343, 346, 346, 346, 347, 348, 348, 347, 347, 347, 347, 348, 348, 348, 348, 348, 348, 349, 350, 351, 351, 352, 352, 352, 351, 351, 351, 351, 351, 351, 351, 351, 351, 351, 351, 352, 351, 350, 349, 350, 354, 357, 357, 358, 359, 359, 360, 361, 362, 362, 363, 366, 369, 370, 371, 372, 375, 380, 380, 381, 381, 380, 379, 376, 374, 374, 373, 372, 372, 371, 370, 370, 370, 369, 369, 369, 370, 371, 372, 376, 382, 383, 385, 386, 388, 389, 390, 392, 394, 394, 395, 395, 395, 395, 395, 395, 395, 395, 395, 394, 394, 394, 393, 393, 393, 393, 393, 393, 394, 394]}}, {"type": "Feature", "geometry": {"type": "LineString", "coordinates": [[-96.31973, 30.0442], [-96.31981, 30.04454], [-96.31985, 30.04472], [-96.31989, 30.0449], [-96.31993, 30.04507], [-96.31996, 30.0452], [-96.31998, 30.04525], [-96.32001, 30.04535], [-96.32005, 30.04542], [-96.3200899, 30.0455], [-96.32015, 30.04557], [-96.32016, 30.04558], [-96.32025, 30.04565], [-96.32035, 30.04572], [-96.32059, 30.04581], [-96.32073, 30.04586], [-96.32088, 30.0459], [-96.32101, 30.04591], [-96.32111, 30.04592], [-96.3211199, 30.04592], [-96.32122, 30.04592], [-96.32135, 30.04592], [-96.3214799, 30.04592], [-96.32158, 30.04593], [-96.32167, 30.04594], [-96.32182, 30.04597], [-96.32191, 30.04601], [-96.32207, 30.04611], [-96.32209, 30.04612], [-96.32226, 30.04622], [-96.32227, 30.04622], [-96.32243, 30.04629], [-96.32245, 30.04631], [-96.32265, 30.04639], [-96.3228199, 30.04646], [-96.3229999, 30.04652], [-96.32322, 30.04659], [-96.32341, 30.04665], [-96.32347, 30.04667], [-96.3238, 30.04678], [-96.32397, 30.04683], [-96.32444, 30.04698], [-96.32478, 30.0471], [-96.32494, 30.04716], [-96.32526, 30.04729], [-96.32554, 30.0474], [-96.32581, 30.04751], [-96.32615, 30.04766], [-96.32645, 30.04781], [-96.3266, 30.04789], [-96.32717, 30.04819], [-96.32727, 30.04824], [-96.32762, 30.04844], [-96.3277899, 30.04854], [-96.32785, 30.04858]]}, "properties": {"surface": "pavement", "label": "Pavement", "color": "#4A5568", "miles": 0.61, "start_mi": 60.55, "end_mi": 61.16, "road": "Loop 497", "elev_ft": [376, 367, 365, 364, 363, 362, 362, 361, 361, 361, 361, 361, 362, 364, 368, 369, 370, 371, 371, 371, 372, 372, 374, 375, 376, 375, 374, 373, 373, 373, 373, 372, 372, 373, 375, 376, 378, 379, 379, 380, 381, 382, 384, 385, 385, 386, 388, 389, 390, 390, 390, 390, 390, 389, 389]}}]}