{"type": "FeatureCollection", "features": [{"type": "Feature", "geometry": {"type": "LineString", "coordinates": [[-97.15348, 29.95448], [-97.15324, 29.95455], [-97.15317, 29.95439], [-97.15299, 29.95411], [-97.15275, 29.95385], [-97.152289, 29.95347], [-97.15182, 29.9531], [-97.15122, 29.95258], [-97.15061, 29.95207], [-97.15001, 29.95155], [-97.14948, 29.95106], [-97.14895, 29.95056], [-97.14843, 29.95007], [-97.14794, 29.94963], [-97.14745, 29.94919], [-97.14708, 29.94882], [-97.1467, 29.94845], [-97.14654, 29.94822], [-97.14639, 29.94792], [-97.14633, 29.94776], [-97.14615, 29.94711], [-97.14598, 29.94645], [-97.1458, 29.94579], [-97.14575, 29.94564], [-97.14568, 29.9455], [-97.14534, 29.94502], [-97.145, 29.94454], [-97.14452, 29.94379], [-97.14428, 29.94334], [-97.1442, 29.94309], [-97.14408, 29.94253]]}, "properties": {"surface": "pavement", "label": "Pavement", "color": "#4A5568", "miles": 1.03, "start_mi": 0.0, "end_mi": 1.03, "road": "Zapalac Road", "elev_ft": [378, 376, 375, 372, 371, 372, 373, 370, 367, 364, 361, 356, 350, 346, 339, 333, 329, 328, 326, 326, 323, 322, 321, 320, 318, 314, 325, 345, 352, 355, 366]}}, {"type": "Feature", "geometry": {"type": "LineString", "coordinates": [[-97.14394, 29.94173], [-97.1438, 29.94094], [-97.14367, 29.94031], [-97.14354, 29.93969], [-97.1433, 29.93918], [-97.14307, 29.93868], [-97.14259, 29.93811], [-97.14212, 29.93754], [-97.14164, 29.93697], [-97.14112, 29.93644], [-97.14094, 29.93623], [-97.14052, 29.93568], [-97.14039, 29.93543], [-97.140199, 29.93513], [-97.13979, 29.93458], [-97.13938, 29.93404], [-97.13899, 29.93362], [-97.138589, 29.93312], [-97.13848, 29.93292], [-97.13827, 29.93241], [-97.13822, 29.93217], [-97.13824, 29.93192], [-97.13837, 29.93155], [-97.13849, 29.93131], [-97.13885, 29.93074], [-97.13922, 29.93016], [-97.13952, 29.92976], [-97.13982, 29.92936], [-97.14014, 29.9287], [-97.14034, 29.92815], [-97.14055, 29.92761], [-97.14078, 29.92714], [-97.14101, 29.92667], [-97.14111, 29.92635], [-97.14113, 29.92612], [-97.14111, 29.92561], [-97.1411, 29.92511], [-97.14113, 29.92468], [-97.1412, 29.92422], [-97.14127, 29.92376], [-97.141409, 29.92301], [-97.14155, 29.92225], [-97.1417, 29.9215], [-97.14176, 29.921], [-97.14183, 29.92049], [-97.14183, 29.92025], [-97.14179, 29.92002], [-97.14174, 29.91979], [-97.14164, 29.91954], [-97.1414, 29.91899], [-97.14103, 29.91829], [-97.14066, 29.91759], [-97.1403, 29.917], [-97.13994, 29.9164], [-97.139529, 29.91587], [-97.13913, 29.91533], [-97.138769, 29.91493], [-97.138409, 29.91454], [-97.13777, 29.91394], [-97.13714, 29.91334], [-97.13691, 29.913], [-97.13675, 29.91259], [-97.13667, 29.91221], [-97.13659, 29.91157], [-97.13658, 29.91089], [-97.13656, 29.9102], [-97.13656, 29.90971], [-97.13656, 29.90922], [-97.13654, 29.90842], [-97.13652, 29.90763], [-97.1365, 29.90713], [-97.13648, 29.90664], [-97.13647, 29.90591], [-97.13647, 29.90519], [-97.136439, 29.90457], [-97.136439, 29.90394], [-97.136439, 29.90331], [-97.13642, 29.90253], [-97.1364, 29.90175], [-97.13638, 29.90096], [-97.13637, 29.90018], [-97.13634, 29.89932], [-97.13631, 29.89845], [-97.13628, 29.89759], [-97.13625, 29.89672], [-97.13624, 29.89604], [-97.13623, 29.89536], [-97.1362, 29.89468], [-97.13617, 29.89399], [-97.13614, 29.89331], [-97.13615, 29.89305], [-97.13619, 29.89268], [-97.1364, 29.89209], [-97.13657, 29.89175], [-97.1367, 29.89143], [-97.13707, 29.89072], [-97.13737, 29.89029], [-97.13781, 29.88958], [-97.13825, 29.88886], [-97.138769, 29.88886], [-97.13938, 29.88885], [-97.13999, 29.88884], [-97.14021, 29.88884], [-97.14034, 29.88889], [-97.1409, 29.88941], [-97.1412, 29.88975], [-97.14148, 29.89001], [-97.14216, 29.89051], [-97.14307, 29.89049], [-97.14402, 29.89049], [-97.144319, 29.89051], [-97.14509, 29.8906], [-97.14585, 29.8907], [-97.14657, 29.8908], [-97.14729, 29.8909], [-97.14801, 29.891], [-97.14825, 29.89111], [-97.14872, 29.8914], [-97.148929, 29.89145], [-97.14955, 29.89148], [-97.15057, 29.89147], [-97.15159, 29.89145], [-97.15261, 29.89144], [-97.15363, 29.89142], [-97.15465, 29.8914], [-97.15567, 29.89139], [-97.1564, 29.89136], [-97.15713, 29.89134], [-97.15786, 29.89131], [-97.15832, 29.89129], [-97.15922, 29.89131], [-97.16013, 29.89133], [-97.160259, 29.89139], [-97.1603, 29.8915], [-97.16031, 29.89229], [-97.16032, 29.89308], [-97.160349, 29.8938], [-97.16038, 29.89452], [-97.16041, 29.89525], [-97.16043, 29.89597], [-97.16045, 29.89615], [-97.16047, 29.89618], [-97.16054, 29.89622], [-97.16069, 29.89624], [-97.16144, 29.89624], [-97.16219, 29.89624], [-97.16304, 29.89622], [-97.1639, 29.8962], [-97.16475, 29.89619], [-97.1656, 29.89617], [-97.16658, 29.89618], [-97.16709, 29.89616], [-97.16761, 29.89614], [-97.16859, 29.89612], [-97.16956, 29.8961], [-97.17053, 29.89608], [-97.17151, 29.89606], [-97.172479, 29.89604], [-97.17346, 29.89602], [-97.17443, 29.896], [-97.1754, 29.89598], [-97.17632, 29.89596], [-97.17723, 29.89594], [-97.17815, 29.89592], [-97.17907, 29.8959], [-97.17998, 29.89588], [-97.1809, 29.89587], [-97.18182, 29.89585], [-97.18283, 29.89583], [-97.18385, 29.89582], [-97.18486, 29.89581], [-97.18587, 29.8958], [-97.18689, 29.89579], [-97.1876, 29.89579], [-97.18832, 29.89579], [-97.18895, 29.89577], [-97.18957, 29.89576], [-97.19016, 29.89576], [-97.19075, 29.89575], [-97.19149, 29.89574], [-97.19223, 29.89573], [-97.19286, 29.89573], [-97.19349, 29.89573], [-97.19422, 29.89571], [-97.1942, 29.89491], [-97.19418, 29.8941]]}, "properties": {"surface": "unknown", "label": "Unverified", "color": "#9A9389", "miles": 7.76, "start_mi": 1.03, "end_mi": 8.79, "road": "Old Smithville Road", "elev_ft": [368, 371, 376, 378, 381, 384, 387, 392, 396, 397, 396, 382, 374, 371, 384, 396, 405, 413, 414, 417, 418, 418, 418, 421, 424, 425, 427, 429, 432, 433, 434, 435, 436, 435, 434, 434, 437, 439, 441, 443, 443, 442, 443, 443, 441, 440, 438, 437, 435, 433, 438, 441, 441, 438, 438, 442, 439, 439, 445, 447, 447, 445, 442, 437, 433, 433, 436, 440, 442, 444, 444, 443, 439, 437, 435, 433, 433, 432, 429, 426, 419, 417, 423, 427, 427, 427, 428, 428, 428, 428, 427, 428, 430, 431, 432, 429, 427, 425, 424, 421, 413, 405, 403, 402, 396, 390, 389, 397, 398, 403, 402, 395, 386, 380, 378, 379, 380, 381, 382, 386, 392, 400, 403, 400, 392, 384, 380, 377, 376, 375, 384, 392, 393, 393, 392, 393, 398, 402, 406, 410, 411, 411, 411, 412, 413, 414, 412, 408, 403, 396, 392, 395, 398, 410, 414, 414, 413, 414, 413, 412, 411, 406, 398, 393, 392, 399, 404, 404, 400, 402, 405, 408, 410, 410, 409, 411, 411, 412, 412, 412, 412, 412, 412, 411, 410, 404]}}, {"type": "Feature", "geometry": {"type": "LineString", "coordinates": [[-97.19417, 29.8933], [-97.194149, 29.8925], [-97.19455, 29.89265], [-97.19488, 29.89269], [-97.19524, 29.89269], [-97.196209, 29.89267], [-97.19717, 29.89265], [-97.19814, 29.89263], [-97.198849, 29.8926], [-97.19901, 29.8926], [-97.19994, 29.89259], [-97.20086, 29.89258], [-97.20179, 29.89257], [-97.20269, 29.89255], [-97.20359, 29.89253], [-97.20449, 29.89252], [-97.20539, 29.8925], [-97.20629, 29.89248], [-97.20719, 29.89246], [-97.20817, 29.89245], [-97.20914, 29.89244], [-97.21012, 29.89242], [-97.21109, 29.89241], [-97.21207, 29.8924], [-97.21304, 29.89238]]}, "properties": {"surface": "two_track", "label": "Ranch two-track", "color": "#6B5A45", "miles": 1.19, "start_mi": 8.79, "end_mi": 9.98, "road": "Hellinger Road", "elev_ft": [401, 401, 400, 402, 404, 411, 412, 413, 414, 414, 415, 415, 414, 414, 414, 414, 413, 411, 403, 416, 422, 423, 423, 421, 419]}}, {"type": "Feature", "geometry": {"type": "LineString", "coordinates": [[-97.21402, 29.89237], [-97.21481, 29.89236], [-97.21559, 29.89236], [-97.21638, 29.89235], [-97.21656, 29.89231], [-97.2167, 29.89225], [-97.21684, 29.89217], [-97.21703, 29.89198], [-97.21711, 29.89186], [-97.21719, 29.89165], [-97.21718, 29.89078], [-97.21716, 29.88992], [-97.21714, 29.88905], [-97.21713, 29.88819], [-97.21711, 29.88733], [-97.21709, 29.88646], [-97.21708, 29.8856], [-97.21706, 29.88474], [-97.21704, 29.88387], [-97.21703, 29.88301], [-97.21706, 29.88282], [-97.21714, 29.88262], [-97.2173, 29.88246], [-97.21753, 29.88232], [-97.21776, 29.88225], [-97.21794, 29.88222], [-97.21776, 29.88225], [-97.21753, 29.88232], [-97.2173, 29.88246], [-97.21714, 29.88262], [-97.21706, 29.88282], [-97.21703, 29.88301], [-97.21704, 29.88387], [-97.21706, 29.88472], [-97.21708, 29.88558], [-97.21709, 29.88644], [-97.21708, 29.88558], [-97.21706, 29.88472], [-97.21704, 29.88387], [-97.21703, 29.88301], [-97.21706, 29.88282], [-97.21714, 29.88262], [-97.2173, 29.88246], [-97.21753, 29.88232], [-97.21776, 29.88225], [-97.21806, 29.88221], [-97.21859, 29.8822], [-97.21912, 29.8822], [-97.219489, 29.88216], [-97.21969, 29.88206], [-97.21992, 29.88186], [-97.22002, 29.88165], [-97.22005, 29.88146], [-97.22003, 29.88065], [-97.22002, 29.87984], [-97.22, 29.87904], [-97.21998, 29.87823], [-97.21996, 29.87742], [-97.21995, 29.87662], [-97.21993, 29.87581], [-97.21995, 29.87574], [-97.22001, 29.87568], [-97.22009, 29.87565], [-97.22087, 29.87566], [-97.22188, 29.87565], [-97.2229, 29.87563], [-97.22392, 29.87562], [-97.22401, 29.8756], [-97.22414, 29.87554], [-97.22421, 29.87548], [-97.22426, 29.87541], [-97.22432, 29.8753], [-97.22433, 29.87521], [-97.22431, 29.87441], [-97.22429, 29.87362], [-97.22427, 29.87282], [-97.22425, 29.87202], [-97.22423, 29.87122], [-97.22427, 29.87113], [-97.224369, 29.87108], [-97.22533, 29.87107], [-97.22629, 29.87105], [-97.22724, 29.87104], [-97.2282, 29.87102], [-97.229159, 29.87101], [-97.23012, 29.871], [-97.23108, 29.87098], [-97.23101, 29.87022], [-97.231, 29.87005], [-97.23099, 29.86932], [-97.23098, 29.86858], [-97.23096, 29.86785], [-97.23095, 29.86712], [-97.23094, 29.8663], [-97.23093, 29.86547], [-97.23092, 29.86465], [-97.2309, 29.86413], [-97.23089, 29.86361], [-97.23089, 29.86284], [-97.2309, 29.86276], [-97.23095, 29.8627], [-97.23101, 29.86267], [-97.2311, 29.86265], [-97.23197, 29.86262], [-97.23295, 29.8626], [-97.23393, 29.86259], [-97.2349, 29.86257], [-97.23588, 29.86255], [-97.23685, 29.86254], [-97.23783, 29.86252], [-97.23881, 29.8625], [-97.23978, 29.86249], [-97.24076, 29.86247], [-97.24087, 29.86246], [-97.241069, 29.8624], [-97.24118, 29.86233], [-97.24168, 29.86208], [-97.242189, 29.86182], [-97.24187, 29.86127], [-97.24155, 29.86071], [-97.24123, 29.86016], [-97.24087, 29.85953], [-97.24051, 29.8589], [-97.24015, 29.85827], [-97.23978, 29.85764], [-97.23939, 29.85694]]}, "properties": {"surface": "unknown", "label": "Unverified", "color": "#9A9389", "miles": 4.7, "start_mi": 9.98, "end_mi": 14.68, "road": "Hellinger Road", "elev_ft": [420, 416, 414, 417, 418, 419, 420, 421, 422, 424, 427, 428, 428, 428, 425, 419, 415, 411, 414, 414, 413, 413, 413, 413, 413, 412, 413, 413, 413, 413, 413, 414, 414, 411, 415, 419, 415, 411, 414, 414, 413, 413, 413, 413, 413, 412, 411, 412, 412, 412, 413, 414, 415, 419, 426, 431, 435, 439, 446, 452, 453, 453, 453, 450, 446, 441, 434, 433, 432, 432, 432, 431, 430, 437, 441, 444, 447, 451, 451, 451, 452, 454, 458, 464, 471, 473, 472, 470, 469, 463, 460, 458, 457, 455, 455, 455, 454, 451, 449, 449, 449, 449, 449, 449, 451, 453, 454, 453, 452, 449, 444, 432, 433, 433, 433, 434, 436, 438, 437, 436, 436, 433, 430, 427, 427, 426]}}, {"type": "Feature", "geometry": {"type": "LineString", "coordinates": [[-97.239, 29.85623], [-97.23897, 29.85615], [-97.23861, 29.85554], [-97.238249, 29.85493], [-97.23808, 29.85467], [-97.23797, 29.85423], [-97.23796, 29.85339], [-97.23794, 29.85256], [-97.23792, 29.85172], [-97.2379, 29.85089], [-97.23788, 29.85006], [-97.23785, 29.84936], [-97.23781, 29.84866], [-97.23779, 29.84845], [-97.23776, 29.84835], [-97.23766, 29.84816], [-97.23725, 29.84769], [-97.23685, 29.84721], [-97.23653, 29.84681], [-97.23622, 29.84641], [-97.23577, 29.84587], [-97.23532, 29.84534], [-97.23522, 29.8452], [-97.23506, 29.84491], [-97.235, 29.84475], [-97.23476, 29.84389], [-97.23452, 29.84302], [-97.23428, 29.84216], [-97.234039, 29.84129], [-97.2338, 29.84043], [-97.23368, 29.83998], [-97.23356, 29.83952], [-97.23326, 29.83885], [-97.23297, 29.83817], [-97.23267, 29.83749], [-97.23237, 29.83681], [-97.23218, 29.8363], [-97.23213, 29.83575], [-97.232069, 29.8352], [-97.232, 29.83489], [-97.23168, 29.83409], [-97.23136, 29.83328], [-97.231039, 29.83247], [-97.2309, 29.83199], [-97.23076, 29.8315], [-97.23045, 29.83074], [-97.23015, 29.83006], [-97.22985, 29.82938], [-97.22956, 29.8287], [-97.22926, 29.82802], [-97.22906, 29.82745], [-97.22886, 29.82688], [-97.2287, 29.82636], [-97.22855, 29.82585], [-97.22832, 29.82517], [-97.22808, 29.8245], [-97.22785, 29.82382], [-97.22752, 29.82297], [-97.2272, 29.82212], [-97.22707, 29.82184], [-97.22692, 29.82158], [-97.22666, 29.82124], [-97.22658, 29.82106], [-97.22655, 29.82087], [-97.2265, 29.82005], [-97.22645, 29.81924]]}, "properties": {"surface": "pavement", "label": "Pavement", "color": "#4A5568", "miles": 2.7, "start_mi": 14.68, "end_mi": 17.38, "road": "Rosanky Road", "elev_ft": [425, 425, 424, 421, 421, 422, 425, 429, 434, 437, 435, 433, 427, 425, 424, 424, 425, 430, 432, 432, 428, 422, 423, 427, 428, 434, 442, 448, 456, 462, 463, 463, 462, 460, 458, 455, 453, 451, 448, 448, 450, 452, 450, 450, 449, 448, 446, 444, 444, 445, 446, 446, 446, 444, 443, 446, 449, 448, 443, 441, 436, 441, 442, 442, 442, 444]}}, {"type": "Feature", "geometry": {"type": "LineString", "coordinates": [[-97.2264, 29.81843], [-97.22642, 29.81763], [-97.22642, 29.81679], [-97.22642, 29.81594], [-97.22641, 29.81509], [-97.22639, 29.81437], [-97.22636, 29.81366], [-97.22637, 29.81311], [-97.22638, 29.8124], [-97.22635, 29.81183], [-97.22632, 29.81127], [-97.2263, 29.81057], [-97.22628, 29.80988], [-97.22626, 29.80903], [-97.22624, 29.80818], [-97.22622, 29.80733], [-97.2262, 29.80648], [-97.22618, 29.80563], [-97.22617, 29.80479], [-97.22615, 29.80394], [-97.22613, 29.80309], [-97.22611, 29.80224], [-97.22614, 29.80194], [-97.22655, 29.80251], [-97.22666, 29.80259], [-97.22677, 29.80263], [-97.22684, 29.80264], [-97.22786, 29.80263], [-97.22889, 29.80262], [-97.22991, 29.80261], [-97.23087, 29.80259], [-97.23183, 29.80256], [-97.23279, 29.80253], [-97.23374, 29.8025], [-97.23471, 29.8025], [-97.23567, 29.80249], [-97.23663, 29.80248], [-97.23759, 29.80248], [-97.23855, 29.80247], [-97.23951, 29.80246], [-97.240039, 29.80249], [-97.24073, 29.80259]]}, "properties": {"surface": "unknown", "label": "Unverified", "color": "#9A9389", "miles": 2.04, "start_mi": 17.38, "end_mi": 19.42, "road": "Rosanky Road", "elev_ft": [452, 454, 454, 454, 449, 445, 438, 434, 428, 422, 423, 426, 426, 420, 414, 408, 405, 402, 399, 396, 390, 393, 393, 390, 390, 389, 389, 386, 385, 382, 387, 391, 394, 395, 393, 388, 389, 381, 380, 371, 371, 362]}}, {"type": "Feature", "geometry": {"type": "LineString", "coordinates": [[-97.2413, 29.80261], [-97.24213, 29.8026], [-97.24316, 29.80257], [-97.24418, 29.80254], [-97.24521, 29.80252], [-97.24624, 29.80249], [-97.24726, 29.80246], [-97.24829, 29.80244], [-97.24931, 29.80241], [-97.25034, 29.80239], [-97.25137, 29.80236], [-97.25239, 29.80233], [-97.25342, 29.80231], [-97.25445, 29.80228], [-97.25535, 29.80229], [-97.25625, 29.80227], [-97.25715, 29.80225], [-97.25805, 29.80223], [-97.25895, 29.80221], [-97.25985, 29.80219], [-97.25994, 29.80217], [-97.26002, 29.80209], [-97.26003, 29.80204], [-97.25993, 29.80128], [-97.25982, 29.8006], [-97.25971, 29.79991], [-97.2596, 29.79923], [-97.25957, 29.79882], [-97.25955, 29.798], [-97.25952, 29.79719], [-97.2595, 29.79637], [-97.259469, 29.79556], [-97.25945, 29.79475], [-97.25942, 29.79387], [-97.259379, 29.79299], [-97.25935, 29.79211], [-97.2593, 29.79201], [-97.2593, 29.79195], [-97.25933, 29.79183], [-97.25937, 29.79178], [-97.25944, 29.79172], [-97.25957, 29.79167], [-97.26007, 29.79162], [-97.26023, 29.79152], [-97.260319, 29.79138], [-97.26042, 29.79068], [-97.26051, 29.78998], [-97.26061, 29.78928], [-97.26066, 29.78911], [-97.26097, 29.78835], [-97.26115, 29.78778], [-97.26116, 29.7876], [-97.26111, 29.78747], [-97.260859, 29.78718], [-97.26067, 29.7869], [-97.26058, 29.78669], [-97.26026, 29.78584], [-97.26009, 29.78534], [-97.259919, 29.78485], [-97.25984, 29.78449], [-97.25972, 29.78373], [-97.25963, 29.78328], [-97.25955, 29.78282], [-97.25944, 29.7821], [-97.25933, 29.78139], [-97.259289, 29.78094], [-97.25925, 29.78049], [-97.25903, 29.78024], [-97.2585, 29.77978], [-97.25837, 29.77962], [-97.25831, 29.77954], [-97.25827, 29.77944], [-97.25822, 29.77925], [-97.25813, 29.77847], [-97.25796, 29.77767], [-97.25792, 29.77758], [-97.25788, 29.77754], [-97.25778, 29.77749], [-97.25772, 29.77747], [-97.25688, 29.77748], [-97.25604, 29.77749], [-97.255439, 29.7775], [-97.25483, 29.77751], [-97.2548, 29.77749], [-97.25475, 29.77743], [-97.25473, 29.77682], [-97.25471, 29.77622], [-97.25469, 29.77537], [-97.25467, 29.77453], [-97.25466, 29.77368], [-97.25464, 29.77284], [-97.25462, 29.772], [-97.2546, 29.77115], [-97.25458, 29.77031], [-97.25457, 29.76946], [-97.25457, 29.76888], [-97.25455, 29.76837], [-97.25453, 29.76786], [-97.25455, 29.76719], [-97.25461, 29.76635], [-97.254679, 29.76552], [-97.25474, 29.76468], [-97.25481, 29.76393], [-97.25488, 29.76318], [-97.254949, 29.76243], [-97.25501, 29.76168], [-97.25508, 29.76093], [-97.25515, 29.76018], [-97.2552, 29.75943], [-97.25523, 29.75855], [-97.25522, 29.75767], [-97.2552, 29.7568], [-97.25518, 29.75593], [-97.25516, 29.75538], [-97.25515, 29.75482], [-97.25519, 29.75466], [-97.25536, 29.75415], [-97.255529, 29.75365], [-97.25559, 29.75354], [-97.255619, 29.75341], [-97.255619, 29.75327], [-97.25559, 29.75314], [-97.25557, 29.75228], [-97.25556, 29.75143], [-97.25554, 29.75057]]}, "properties": {"surface": "caliche", "label": "Caliche / gravel", "color": "#C98A24", "miles": 4.97, "start_mi": 19.42, "end_mi": 24.39, "road": "Father Anders Loop", "elev_ft": [369, 374, 372, 376, 379, 382, 384, 387, 391, 396, 399, 400, 413, 419, 418, 417, 413, 417, 423, 433, 434, 435, 435, 437, 439, 441, 438, 437, 431, 426, 418, 414, 413, 409, 402, 396, 396, 396, 395, 394, 394, 393, 390, 388, 387, 387, 388, 387, 386, 383, 380, 381, 382, 380, 380, 381, 382, 382, 379, 377, 373, 372, 371, 371, 372, 372, 370, 370, 369, 370, 370, 370, 370, 370, 369, 369, 369, 369, 369, 372, 376, 378, 382, 383, 383, 380, 379, 379, 372, 368, 365, 363, 360, 362, 367, 362, 372, 386, 391, 388, 381, 386, 387, 385, 385, 382, 379, 375, 371, 366, 361, 357, 353, 351, 346, 345, 344, 349, 351, 352, 352, 352, 354, 357, 359]}}, {"type": "Feature", "geometry": {"type": "LineString", "coordinates": [[-97.256559, 29.75056], [-97.25758, 29.75055], [-97.25847, 29.75054], [-97.25935, 29.75054], [-97.26036, 29.75056], [-97.26136, 29.75058], [-97.26237, 29.75061], [-97.263229, 29.75063], [-97.26409, 29.75066], [-97.26496, 29.75068], [-97.26563, 29.75065], [-97.26631, 29.75061], [-97.26703, 29.75059], [-97.26776, 29.75056], [-97.26804, 29.75053], [-97.26825, 29.75049], [-97.26852, 29.75041], [-97.26878, 29.75031], [-97.26899, 29.75021], [-97.26931, 29.75002], [-97.26961, 29.7498], [-97.26974, 29.74968], [-97.26974, 29.74968], [-97.27002, 29.74941], [-97.27033, 29.74888], [-97.27043, 29.74859], [-97.27051, 29.74824], [-97.27054, 29.74735], [-97.27057, 29.74646], [-97.2706, 29.74556], [-97.270619, 29.74467], [-97.27065, 29.74378], [-97.27068, 29.74288], [-97.270709, 29.74242], [-97.27079, 29.74194]]}, "properties": {"surface": "pavement", "label": "Pavement", "color": "#4A5568", "miles": 1.36, "start_mi": 24.39, "end_mi": 25.75, "road": "FM 1115", "elev_ft": [367, 374, 379, 382, 386, 384, 380, 377, 381, 382, 386, 392, 399, 405, 409, 412, 414, 420, 421, 423, 425, 426, 426, 426, 418, 411, 405, 399, 409, 421, 432, 428, 420, 415, 411]}}, {"type": "Feature", "geometry": {"type": "LineString", "coordinates": [[-97.2709, 29.74155], [-97.27094, 29.74155], [-97.2714, 29.7418], [-97.27204, 29.74213], [-97.27269, 29.74245], [-97.27283, 29.7425], [-97.27352, 29.74287], [-97.274019, 29.74311], [-97.27452, 29.74335], [-97.275139, 29.74367], [-97.27577, 29.744], [-97.2764, 29.74432], [-97.27671, 29.74445], [-97.27706, 29.7445], [-97.27804, 29.74453], [-97.27902, 29.74456], [-97.27974, 29.74459], [-97.28046, 29.74462], [-97.28117, 29.74466], [-97.28219, 29.74468], [-97.2829, 29.74471], [-97.28298, 29.74472], [-97.283109, 29.74476], [-97.28323, 29.74485], [-97.2833, 29.74503], [-97.28339, 29.7458], [-97.28343, 29.74647], [-97.28347, 29.74658], [-97.28358, 29.74666], [-97.28426, 29.74701], [-97.28495, 29.74735], [-97.28564, 29.7477], [-97.28651, 29.74814], [-97.28739, 29.74859], [-97.288259, 29.74904], [-97.28914, 29.74949], [-97.29001, 29.74994], [-97.29071, 29.75025], [-97.29092, 29.75038], [-97.29141, 29.75062], [-97.2919, 29.75085], [-97.29214, 29.75095], [-97.29223, 29.75105], [-97.29244, 29.75162], [-97.29266, 29.75235], [-97.29281, 29.75274], [-97.29301, 29.75328], [-97.29308, 29.75354], [-97.29308, 29.7537], [-97.29295, 29.75395], [-97.2927, 29.75458], [-97.29237, 29.75502], [-97.292, 29.75571], [-97.29171, 29.7562], [-97.29143, 29.75662], [-97.29115, 29.75705], [-97.29109, 29.75718], [-97.291079, 29.75725], [-97.29109, 29.75738], [-97.29112, 29.75744], [-97.2912, 29.75753], [-97.29141, 29.75766], [-97.29197, 29.75795], [-97.29206, 29.75803], [-97.2921, 29.75814], [-97.29209, 29.75826], [-97.29201, 29.75844], [-97.29158, 29.7591], [-97.29114, 29.75976], [-97.29074, 29.76041], [-97.29037, 29.76105], [-97.28999, 29.76168], [-97.28962, 29.76232], [-97.28935, 29.76271], [-97.28914, 29.76298], [-97.28853, 29.76345], [-97.28792, 29.76391], [-97.2873, 29.76437], [-97.286689, 29.76483], [-97.286109, 29.76523], [-97.28553, 29.76562], [-97.28485, 29.76605], [-97.28418, 29.76647], [-97.28406, 29.76648], [-97.28395, 29.76642], [-97.28352, 29.76595], [-97.28318, 29.76548]]}, "properties": {"surface": "unknown", "label": "Unverified", "color": "#9A9389", "miles": 2.94, "start_mi": 25.75, "end_mi": 28.69, "road": "County Road 446", "elev_ft": [411, 411, 412, 415, 419, 420, 426, 430, 433, 436, 435, 425, 419, 414, 402, 394, 389, 388, 385, 379, 379, 379, 379, 379, 380, 382, 391, 391, 391, 389, 396, 409, 402, 394, 387, 379, 375, 375, 377, 384, 391, 393, 394, 399, 403, 405, 406, 406, 406, 405, 401, 394, 394, 396, 400, 404, 405, 405, 405, 405, 405, 403, 405, 407, 408, 409, 412, 416, 422, 427, 432, 436, 441, 448, 449, 453, 456, 458, 461, 462, 456, 447, 438, 437, 436, 436, 438]}}, {"type": "Feature", "geometry": {"type": "LineString", "coordinates": [[-97.28286, 29.76597], [-97.28255, 29.76647], [-97.28241, 29.76666], [-97.28236, 29.76677], [-97.2823, 29.76699], [-97.28229, 29.7671], [-97.28229, 29.76787], [-97.2823, 29.76864], [-97.28231, 29.76946], [-97.28232, 29.77028], [-97.28234, 29.77111], [-97.282349, 29.77193], [-97.28237, 29.77276], [-97.28238, 29.77358], [-97.28239, 29.7744], [-97.28241, 29.77523], [-97.28238, 29.7753], [-97.282349, 29.77535], [-97.28233, 29.77538], [-97.28224, 29.77542], [-97.28133, 29.77543], [-97.28042, 29.77543], [-97.27951, 29.77543], [-97.2786, 29.77544], [-97.27769, 29.77544], [-97.27678, 29.77545], [-97.2758, 29.77545], [-97.27482, 29.77545], [-97.27384, 29.77546], [-97.27286, 29.77546], [-97.27188, 29.77546], [-97.2709, 29.77547], [-97.27085, 29.77548], [-97.27079, 29.77553], [-97.27076, 29.77562], [-97.27078, 29.77617], [-97.2708, 29.77671], [-97.27081, 29.77757], [-97.27083, 29.77843], [-97.27084, 29.77929], [-97.27086, 29.78015], [-97.27083, 29.78024], [-97.27079, 29.78028], [-97.27067, 29.78031], [-97.26982, 29.78031], [-97.2689, 29.78034], [-97.26798, 29.78036], [-97.26706, 29.78038], [-97.26608, 29.78039], [-97.26511, 29.7804], [-97.26413, 29.78041], [-97.26316, 29.78042], [-97.26218, 29.78044], [-97.2612, 29.78045], [-97.26022, 29.78047], [-97.25925, 29.78049], [-97.259289, 29.78094], [-97.25933, 29.78139], [-97.25944, 29.7821], [-97.25955, 29.78282], [-97.25963, 29.78328], [-97.25972, 29.78373], [-97.25984, 29.78449], [-97.259919, 29.78485], [-97.26009, 29.78534], [-97.26026, 29.78584], [-97.26058, 29.78669], [-97.26067, 29.7869], [-97.260859, 29.78718], [-97.26111, 29.78747], [-97.26116, 29.7876], [-97.26115, 29.78778], [-97.26097, 29.78835], [-97.26066, 29.78911], [-97.26061, 29.78928], [-97.26051, 29.78998], [-97.26042, 29.79068], [-97.260319, 29.79138], [-97.26023, 29.79152], [-97.26007, 29.79162], [-97.25957, 29.79167], [-97.25944, 29.79172], [-97.25937, 29.79178], [-97.25933, 29.79183], [-97.2593, 29.79195], [-97.2593, 29.79201], [-97.25935, 29.79211], [-97.259379, 29.79288], [-97.25941, 29.79365], [-97.259379, 29.79288], [-97.25935, 29.79211], [-97.2593, 29.79201], [-97.2593, 29.79195], [-97.25933, 29.79183], [-97.25937, 29.79178]]}, "properties": {"surface": "caliche", "label": "Caliche / gravel", "color": "#C98A24", "miles": 3.48, "start_mi": 28.69, "end_mi": 32.17, "road": "Elm Creek Road", "elev_ft": [433, 427, 424, 422, 419, 417, 408, 405, 402, 406, 416, 417, 418, 433, 443, 443, 443, 443, 442, 442, 431, 419, 409, 402, 397, 400, 409, 416, 415, 413, 417, 414, 413, 413, 413, 416, 420, 424, 427, 428, 429, 429, 429, 430, 432, 426, 412, 400, 396, 389, 387, 381, 378, 378, 376, 370, 372, 372, 371, 371, 372, 373, 377, 379, 382, 382, 381, 380, 380, 382, 381, 380, 383, 386, 387, 388, 387, 387, 388, 390, 393, 394, 394, 395, 396, 396, 396, 401, 407, 401, 396, 396, 396, 395, 394]}}, {"type": "Feature", "geometry": {"type": "LineString", "coordinates": [[-97.259829, 29.79182], [-97.26036, 29.79178], [-97.26125, 29.79174], [-97.26214, 29.7917], [-97.26303, 29.79165], [-97.26371, 29.79163], [-97.26439, 29.79161], [-97.26515, 29.79159], [-97.26575, 29.79158], [-97.26635, 29.79158], [-97.26718, 29.79154], [-97.26808, 29.79155], [-97.26899, 29.79153], [-97.2699, 29.79152], [-97.27081, 29.79151], [-97.27172, 29.79149], [-97.27245, 29.79151], [-97.27297, 29.7915], [-97.2735, 29.7915], [-97.27423, 29.79147], [-97.274959, 29.79144], [-97.27521, 29.79146], [-97.27545, 29.79152], [-97.27634, 29.79184], [-97.27722, 29.79217], [-97.27786, 29.79243], [-97.27839, 29.79263], [-97.27892, 29.79283], [-97.27966, 29.79312], [-97.2804, 29.79341], [-97.28122, 29.7937], [-97.28175, 29.79393], [-97.28254, 29.79423], [-97.28333, 29.79453], [-97.28411, 29.79482], [-97.284989, 29.79517], [-97.28587, 29.79551], [-97.28675, 29.79586], [-97.28741, 29.79609], [-97.2883, 29.79644], [-97.28918, 29.79679], [-97.29007, 29.79714], [-97.29073, 29.79738], [-97.29151, 29.79769], [-97.2923, 29.798], [-97.29308, 29.79831], [-97.29368, 29.79853], [-97.29429, 29.79875], [-97.29486, 29.79901], [-97.29552, 29.79927], [-97.29619, 29.79953], [-97.2967, 29.79969], [-97.29719, 29.79991], [-97.29746, 29.8], [-97.29816, 29.80028], [-97.29883, 29.80051], [-97.29943, 29.80076], [-97.29949, 29.80076], [-97.29956, 29.80079]]}, "properties": {"surface": "unknown", "label": "Unverified", "color": "#9A9389", "miles": 2.52, "start_mi": 32.17, "end_mi": 34.69, "road": "Harold Road", "elev_ft": [391, 387, 388, 398, 411, 419, 429, 438, 440, 436, 421, 432, 440, 443, 437, 429, 422, 414, 420, 435, 441, 444, 446, 455, 462, 464, 466, 469, 466, 455, 448, 451, 458, 469, 474, 465, 469, 471, 461, 448, 436, 426, 420, 420, 420, 426, 433, 427, 417, 411, 413, 414, 410, 408, 406, 406, 414, 415, 416]}}, {"type": "Feature", "geometry": {"type": "LineString", "coordinates": [[-97.29938, 29.80145], [-97.29899, 29.80219], [-97.29861, 29.80294], [-97.29868, 29.80284], [-97.29882, 29.80273], [-97.29895, 29.80269], [-97.29914, 29.80268], [-97.29958, 29.80282], [-97.30014, 29.80301], [-97.3007, 29.80321], [-97.30162, 29.80357], [-97.302539, 29.80394], [-97.30346, 29.8043], [-97.30438, 29.80467], [-97.30531, 29.80503], [-97.30609, 29.80534], [-97.30687, 29.80565], [-97.30765, 29.80596], [-97.30856, 29.80631], [-97.30946, 29.80666], [-97.31037, 29.80701], [-97.31128, 29.80737], [-97.31218, 29.80772], [-97.31309, 29.80807], [-97.31336, 29.80819], [-97.31363, 29.80829], [-97.3143, 29.8085], [-97.31496, 29.80871], [-97.31531, 29.80885], [-97.31523, 29.80894], [-97.3152, 29.80901], [-97.31519, 29.80909], [-97.31519, 29.80929], [-97.315209, 29.80978], [-97.31523, 29.81028], [-97.31529, 29.81049], [-97.315569, 29.81096], [-97.31585, 29.81143], [-97.315969, 29.8116], [-97.31601, 29.8117], [-97.31607, 29.8119], [-97.31608, 29.81206], [-97.316059, 29.81239], [-97.316, 29.8126], [-97.31571, 29.81326], [-97.31562, 29.81351], [-97.3155, 29.81398], [-97.31538, 29.81444], [-97.31535, 29.81464], [-97.315299, 29.81544], [-97.31518, 29.81612], [-97.3151, 29.81631], [-97.31484, 29.81679], [-97.31457, 29.81726], [-97.31444, 29.81744], [-97.31382, 29.81805], [-97.3132, 29.81866], [-97.31258, 29.81927], [-97.31196, 29.81988], [-97.311359, 29.82049], [-97.31075, 29.82109], [-97.310149, 29.82169], [-97.30954, 29.8223], [-97.3092, 29.82273], [-97.30892, 29.8232], [-97.308539, 29.82397], [-97.30817, 29.82474], [-97.30779, 29.82552], [-97.307419, 29.82629], [-97.30704, 29.82706], [-97.30676, 29.8276], [-97.30649, 29.82813], [-97.306389, 29.82827], [-97.306209, 29.82841], [-97.30599, 29.8285], [-97.30587, 29.82853], [-97.305629, 29.82853], [-97.30506, 29.82843], [-97.30489, 29.82845], [-97.304779, 29.82848], [-97.30437, 29.82866], [-97.3036, 29.82904], [-97.30284, 29.82941], [-97.30213, 29.8298], [-97.30143, 29.83018], [-97.30073, 29.83056], [-97.30061, 29.83059], [-97.30049, 29.83059], [-97.30042, 29.83057], [-97.29965, 29.83029], [-97.29888, 29.83], [-97.29811, 29.82972], [-97.29801, 29.8297], [-97.2978, 29.8297], [-97.29761, 29.82977], [-97.29752, 29.82982], [-97.29745, 29.82989], [-97.29698, 29.8305], [-97.29651, 29.83112], [-97.29611, 29.83163], [-97.2957, 29.83215], [-97.29529, 29.83267], [-97.29489, 29.8332], [-97.29449, 29.83373], [-97.29438, 29.83391], [-97.29391, 29.83465], [-97.29344, 29.83539], [-97.293049, 29.83606], [-97.29267, 29.83672], [-97.29229, 29.83739], [-97.29191, 29.83806], [-97.29153, 29.83873], [-97.29134, 29.83911], [-97.29115, 29.83962], [-97.29091, 29.84042], [-97.29068, 29.84122], [-97.29044, 29.84201], [-97.2902, 29.84281], [-97.29006, 29.84322], [-97.28964, 29.84398], [-97.28922, 29.84473], [-97.2888, 29.84548], [-97.28838, 29.84624], [-97.28796, 29.84699], [-97.28762, 29.84757], [-97.28729, 29.84815], [-97.28695, 29.84873], [-97.28656, 29.84943], [-97.28617, 29.85012], [-97.28577, 29.85082], [-97.28536, 29.85163], [-97.28495, 29.85244], [-97.28455, 29.85311], [-97.28431, 29.85356], [-97.28407, 29.85402], [-97.28371, 29.85467], [-97.28335, 29.85532], [-97.28289, 29.85612], [-97.28242, 29.85692], [-97.28196, 29.85771], [-97.28166, 29.85825], [-97.28137, 29.85878], [-97.280959, 29.85953], [-97.28056, 29.86028], [-97.28015, 29.86103], [-97.27974, 29.86179], [-97.27934, 29.86254], [-97.27893, 29.86329], [-97.27852, 29.86405]]}, "properties": {"surface": "pavement", "label": "Pavement", "color": "#4A5568", "miles": 5.96, "start_mi": 34.69, "end_mi": 40.65, "road": "Jeddo Road", "elev_ft": [422, 429, 433, 433, 434, 436, 438, 442, 449, 453, 431, 415, 411, 413, 417, 421, 423, 426, 429, 433, 436, 439, 444, 448, 449, 451, 458, 463, 464, 464, 464, 465, 465, 466, 466, 466, 466, 463, 463, 462, 457, 452, 463, 465, 476, 480, 483, 486, 487, 492, 496, 497, 497, 496, 495, 497, 498, 495, 489, 489, 490, 490, 487, 487, 489, 486, 483, 485, 484, 481, 479, 476, 474, 474, 473, 473, 472, 469, 468, 467, 464, 466, 468, 466, 465, 464, 464, 464, 464, 463, 462, 459, 458, 457, 456, 456, 456, 454, 449, 445, 440, 435, 429, 430, 430, 432, 438, 447, 455, 461, 465, 468, 467, 467, 466, 467, 468, 467, 465, 459, 456, 455, 450, 454, 456, 457, 457, 458, 457, 456, 450, 447, 443, 441, 449, 455, 461, 466, 468, 468, 468, 467, 467, 467, 467, 467, 466, 464, 462]}}, {"type": "Feature", "geometry": {"type": "LineString", "coordinates": [[-97.27811, 29.8648], [-97.27777, 29.86469], [-97.27685, 29.86434], [-97.27594, 29.86398], [-97.27502, 29.86362], [-97.274109, 29.86326], [-97.27319, 29.86291], [-97.2724, 29.8626], [-97.2716, 29.86229], [-97.2708, 29.86198], [-97.27001, 29.86167], [-97.26989, 29.86165], [-97.26977, 29.8617], [-97.26971, 29.86179], [-97.26972, 29.8619], [-97.26944, 29.86248], [-97.26917, 29.86306], [-97.2689, 29.86364], [-97.26851, 29.86437], [-97.26813, 29.86509], [-97.26774, 29.86582], [-97.26736, 29.86655], [-97.26718, 29.86683], [-97.26698, 29.8671], [-97.26672, 29.8674], [-97.26604, 29.86797], [-97.26598, 29.86804], [-97.26597, 29.8681], [-97.266, 29.86821], [-97.26628, 29.86851], [-97.266319, 29.86864], [-97.2663, 29.86874], [-97.26595, 29.8694], [-97.26561, 29.87005], [-97.26524, 29.87078], [-97.26487, 29.87151], [-97.2645, 29.87224], [-97.26413, 29.87297], [-97.26376, 29.87369], [-97.26339, 29.87442], [-97.26333, 29.8745], [-97.26327, 29.87453], [-97.26317, 29.87456], [-97.26307, 29.87455], [-97.26232, 29.87426], [-97.26158, 29.87398], [-97.26071, 29.87362], [-97.26, 29.87335], [-97.259289, 29.87308], [-97.25858, 29.87281], [-97.25765, 29.87244], [-97.25673, 29.87207], [-97.255799, 29.8717], [-97.25487, 29.87133], [-97.25394, 29.87096], [-97.25302, 29.87059], [-97.25212, 29.87025], [-97.25123, 29.8699], [-97.25034, 29.86956], [-97.24955, 29.86926], [-97.24876, 29.86897], [-97.24797, 29.86867], [-97.2475, 29.86848], [-97.24702, 29.86828], [-97.24688, 29.86827], [-97.24674, 29.86829], [-97.24632, 29.86852], [-97.24602, 29.86858], [-97.24521, 29.86888], [-97.2444, 29.86917], [-97.24363, 29.86943], [-97.24285, 29.86969], [-97.24208, 29.86996], [-97.241159, 29.87027], [-97.24025, 29.87058], [-97.23933, 29.8709], [-97.23841, 29.87121], [-97.23805, 29.87135], [-97.23794, 29.87153], [-97.23787, 29.87173], [-97.237799, 29.87226], [-97.23772, 29.87279], [-97.2377, 29.87321], [-97.23771, 29.87398], [-97.23772, 29.87476], [-97.23774, 29.87554], [-97.23775, 29.87632], [-97.23776, 29.87709], [-97.23777, 29.87787], [-97.23778, 29.87865], [-97.237799, 29.87943], [-97.23783, 29.88021], [-97.23785, 29.88099], [-97.23787, 29.88178], [-97.23791, 29.88187], [-97.23799, 29.88193], [-97.23809, 29.88195], [-97.23908, 29.88192], [-97.24007, 29.88189], [-97.24018, 29.88191], [-97.24025, 29.88194], [-97.24032, 29.88201], [-97.24037, 29.88213], [-97.24041, 29.88298], [-97.24045, 29.88383], [-97.24048, 29.88468], [-97.24052, 29.88554], [-97.24054, 29.88642], [-97.24057, 29.8873], [-97.2406, 29.88818], [-97.24062, 29.88907], [-97.24065, 29.88995], [-97.24068, 29.89083], [-97.2407, 29.8917], [-97.24073, 29.89258], [-97.24075, 29.89345], [-97.24077, 29.89432], [-97.240799, 29.8952], [-97.24082, 29.89607], [-97.24084, 29.89694], [-97.24086, 29.89781], [-97.240889, 29.89869], [-97.24092, 29.89935], [-97.24094, 29.90001], [-97.24097, 29.90067], [-97.24097, 29.90122], [-97.24096, 29.90178], [-97.24096, 29.90242], [-97.24097, 29.90314], [-97.240979, 29.90386], [-97.24099, 29.90458], [-97.24102, 29.9053], [-97.24104, 29.90601], [-97.241069, 29.90673], [-97.24111, 29.9073], [-97.24109, 29.90741], [-97.24106, 29.90748], [-97.24077, 29.90793], [-97.24048, 29.90837], [-97.239949, 29.90909], [-97.23942, 29.90982], [-97.239279, 29.91012], [-97.239189, 29.91043], [-97.23916, 29.91075], [-97.23918, 29.91151], [-97.23921, 29.91227], [-97.23921, 29.91288], [-97.23922, 29.9135], [-97.23923, 29.91411], [-97.23926, 29.91497], [-97.23929, 29.91582], [-97.23932, 29.91668], [-97.23932, 29.91737], [-97.23936, 29.91808], [-97.23938, 29.91897], [-97.2394, 29.91985], [-97.23942, 29.92074], [-97.23944, 29.92163], [-97.23939, 29.92173], [-97.23929, 29.92179], [-97.23828, 29.92181], [-97.23728, 29.92184], [-97.23627, 29.92186], [-97.23527, 29.92188], [-97.23444, 29.9219], [-97.23361, 29.92191], [-97.23278, 29.92192], [-97.23195, 29.92194], [-97.23112, 29.92195], [-97.2302, 29.92196], [-97.22929, 29.92198], [-97.22838, 29.92199], [-97.227459, 29.922], [-97.22655, 29.92201], [-97.22577, 29.92201], [-97.225, 29.92202], [-97.22422, 29.92202], [-97.223519, 29.92202], [-97.22281, 29.92202], [-97.22211, 29.92202], [-97.222, 29.92201]]}, "properties": {"surface": "caliche", "label": "Caliche / gravel", "color": "#C98A24", "miles": 7.89, "start_mi": 40.65, "end_mi": 48.54, "road": "Patterson Road", "elev_ft": [460, 459, 456, 451, 448, 445, 443, 441, 439, 435, 433, 432, 432, 432, 432, 431, 431, 439, 446, 446, 447, 445, 443, 444, 446, 446, 446, 445, 442, 446, 451, 453, 455, 466, 476, 479, 479, 475, 475, 483, 482, 481, 479, 476, 461, 472, 480, 478, 483, 493, 503, 502, 496, 501, 498, 491, 485, 481, 478, 475, 474, 473, 471, 468, 468, 467, 467, 465, 459, 453, 448, 457, 466, 472, 473, 473, 469, 466, 465, 465, 467, 469, 471, 473, 477, 479, 483, 485, 484, 478, 471, 467, 460, 458, 458, 457, 456, 453, 461, 461, 462, 462, 462, 462, 457, 451, 443, 447, 452, 458, 462, 466, 471, 473, 473, 473, 472, 475, 479, 484, 489, 489, 486, 485, 485, 483, 480, 470, 463, 457, 455, 450, 448, 446, 444, 443, 443, 439, 438, 435, 429, 429, 429, 430, 435, 438, 440, 444, 449, 456, 462, 463, 457, 448, 449, 448, 448, 447, 446, 445, 448, 451, 449, 445, 441, 438, 438, 440, 440, 439, 437, 435, 429, 426, 420, 416, 412, 408, 408, 411, 411]}}, {"type": "Feature", "geometry": {"type": "LineString", "coordinates": [[-97.22179, 29.92196], [-97.22183, 29.9217], [-97.22183, 29.9216], [-97.22179, 29.92075], [-97.22178, 29.92005], [-97.22176, 29.91929], [-97.22174, 29.91853], [-97.22171, 29.91777], [-97.22169, 29.91701], [-97.22167, 29.91625], [-97.221639, 29.91549], [-97.22163, 29.9146], [-97.22161, 29.91372], [-97.2216, 29.91283], [-97.22158, 29.91194], [-97.22156, 29.91121], [-97.22153, 29.91048], [-97.2215, 29.90975], [-97.22132, 29.90966], [-97.22087, 29.90965], [-97.22017, 29.90967], [-97.21935, 29.90968], [-97.2184, 29.90966], [-97.21751, 29.90968], [-97.21661, 29.9097], [-97.21571, 29.90971], [-97.21481, 29.90973], [-97.2145, 29.90967], [-97.21438, 29.90963], [-97.2142, 29.9094], [-97.21416, 29.90925], [-97.21414, 29.90864], [-97.21412, 29.90803], [-97.2141, 29.90743], [-97.21408, 29.90675], [-97.21406, 29.90607], [-97.21405, 29.90539], [-97.214029, 29.90471], [-97.21402, 29.90401], [-97.21402, 29.90332], [-97.21402, 29.90254], [-97.214029, 29.90176], [-97.21402, 29.90094], [-97.21401, 29.90012], [-97.214, 29.89931], [-97.21398, 29.89849], [-97.21397, 29.89767], [-97.21396, 29.89696], [-97.213939, 29.89626], [-97.21393, 29.89555], [-97.21391, 29.89484], [-97.21389, 29.89409], [-97.21386, 29.89334], [-97.21384, 29.89259], [-97.21388, 29.89247], [-97.21396, 29.8924], [-97.21402, 29.89237], [-97.214, 29.89237]]}, "properties": {"surface": "unknown", "label": "Unverified", "color": "#9A9389", "miles": 2.48, "start_mi": 48.54, "end_mi": 51.01, "road": "Zimmerhanzel Road", "elev_ft": [411, 412, 412, 411, 410, 410, 414, 418, 418, 418, 419, 428, 439, 451, 463, 464, 462, 465, 464, 462, 459, 458, 458, 458, 454, 451, 443, 440, 439, 439, 440, 447, 451, 452, 451, 450, 451, 452, 453, 453, 452, 451, 447, 442, 438, 436, 433, 432, 431, 430, 428, 424, 422, 421, 420, 420, 420, 420]}}, {"type": "Feature", "geometry": {"type": "LineString", "coordinates": [[-97.21303, 29.89238], [-97.21205, 29.8924], [-97.21108, 29.89241], [-97.21011, 29.89242], [-97.20914, 29.89244], [-97.20816, 29.89245], [-97.20719, 29.89246], [-97.20629, 29.89248], [-97.20539, 29.8925], [-97.20449, 29.89252], [-97.20359, 29.89253], [-97.20269, 29.89255], [-97.20179, 29.89257], [-97.20081, 29.89258], [-97.19983, 29.89259], [-97.198849, 29.8926], [-97.19814, 29.89263], [-97.19758, 29.89264], [-97.19703, 29.89266], [-97.19614, 29.89267], [-97.19524, 29.89269], [-97.19488, 29.89269], [-97.19455, 29.89265], [-97.194149, 29.8925], [-97.19417, 29.8933], [-97.19418, 29.8941]]}, "properties": {"surface": "two_track", "label": "Ranch two-track", "color": "#6B5A45", "miles": 1.24, "start_mi": 51.01, "end_mi": 52.26, "road": "Hellinger Road", "elev_ft": [419, 421, 423, 423, 422, 416, 403, 411, 413, 414, 414, 414, 414, 415, 415, 414, 413, 413, 412, 411, 404, 402, 400, 401, 401, 404]}}, {"type": "Feature", "geometry": {"type": "LineString", "coordinates": [[-97.1942, 29.89491], [-97.19422, 29.89571], [-97.19349, 29.89573], [-97.19286, 29.89573], [-97.19223, 29.89573], [-97.19149, 29.89574], [-97.19075, 29.89575], [-97.19016, 29.89576], [-97.18957, 29.89576], [-97.18895, 29.89577], [-97.18832, 29.89579], [-97.1876, 29.89579], [-97.18689, 29.89579], [-97.18587, 29.8958], [-97.18486, 29.89581], [-97.18385, 29.89582], [-97.18283, 29.89583], [-97.18182, 29.89585], [-97.180809, 29.89587], [-97.17981, 29.89589], [-97.1788, 29.89591], [-97.17779, 29.89593], [-97.17677, 29.89595], [-97.175749, 29.89597], [-97.17474, 29.89599], [-97.17372, 29.89601], [-97.1727, 29.89603], [-97.17168, 29.89606], [-97.17067, 29.89608], [-97.16965, 29.8961], [-97.168629, 29.89612], [-97.16761, 29.89614], [-97.16709, 29.89616], [-97.16658, 29.89618], [-97.1656, 29.89617], [-97.16475, 29.89619], [-97.1639, 29.8962], [-97.16304, 29.89622], [-97.16219, 29.89624], [-97.16144, 29.89624], [-97.16069, 29.89624], [-97.16054, 29.89622], [-97.16047, 29.89618], [-97.16045, 29.89615], [-97.16043, 29.89597], [-97.16041, 29.89525], [-97.16038, 29.89452], [-97.160349, 29.8938], [-97.16032, 29.89308], [-97.16031, 29.89229], [-97.1603, 29.8915], [-97.160259, 29.89139], [-97.16013, 29.89133], [-97.15922, 29.89131], [-97.15832, 29.89129], [-97.15786, 29.89131], [-97.15713, 29.89134], [-97.1564, 29.89136], [-97.15567, 29.89139], [-97.15465, 29.8914], [-97.15363, 29.89142], [-97.15261, 29.89144], [-97.15159, 29.89145], [-97.15057, 29.89147], [-97.14955, 29.89148], [-97.148929, 29.89145], [-97.14872, 29.8914], [-97.14825, 29.89111], [-97.14801, 29.891], [-97.14729, 29.8909], [-97.14657, 29.8908], [-97.14585, 29.8907], [-97.14505, 29.8906], [-97.14426, 29.8905], [-97.14402, 29.89049], [-97.14307, 29.89049], [-97.14216, 29.89051], [-97.14148, 29.89001], [-97.1412, 29.88975], [-97.1409, 29.88941], [-97.14034, 29.88889], [-97.14021, 29.88884], [-97.13999, 29.88884], [-97.13938, 29.88885], [-97.138769, 29.88886], [-97.13825, 29.88886], [-97.13781, 29.88958], [-97.13737, 29.89029], [-97.13707, 29.89072], [-97.1367, 29.89143], [-97.13657, 29.89175], [-97.1364, 29.89209], [-97.13619, 29.89268], [-97.13615, 29.89305], [-97.13614, 29.89331], [-97.13617, 29.89399], [-97.1362, 29.89468], [-97.13623, 29.89536], [-97.13624, 29.89597], [-97.13625, 29.89657], [-97.13627, 29.89729], [-97.1363, 29.89801], [-97.13632, 29.89874], [-97.13634, 29.89946], [-97.13637, 29.90018], [-97.13638, 29.90096], [-97.1364, 29.90175], [-97.13642, 29.90253], [-97.136439, 29.90331], [-97.136439, 29.90394], [-97.136439, 29.90457], [-97.13647, 29.90519], [-97.13647, 29.90591], [-97.13648, 29.90664], [-97.1365, 29.90713], [-97.13652, 29.90763], [-97.13654, 29.90842], [-97.13656, 29.90922], [-97.13656, 29.90971], [-97.13656, 29.9102], [-97.13658, 29.91089], [-97.13659, 29.91157], [-97.13664, 29.91197], [-97.13667, 29.91221], [-97.13675, 29.91259], [-97.13691, 29.913], [-97.13714, 29.91334], [-97.13777, 29.91394], [-97.138409, 29.91454], [-97.138769, 29.91493], [-97.13913, 29.91533], [-97.139529, 29.91587], [-97.13994, 29.9164], [-97.1403, 29.917], [-97.14066, 29.91759], [-97.14103, 29.91829], [-97.1414, 29.91899], [-97.14174, 29.91979], [-97.14179, 29.92002], [-97.14183, 29.92025], [-97.14183, 29.92049], [-97.14176, 29.921], [-97.1417, 29.9215], [-97.14155, 29.92225], [-97.141409, 29.92301], [-97.14127, 29.92376], [-97.1412, 29.92422], [-97.14113, 29.92468], [-97.1411, 29.92511], [-97.14111, 29.92561], [-97.14113, 29.92612], [-97.14111, 29.92635], [-97.14101, 29.92667], [-97.14078, 29.92714], [-97.14055, 29.92761], [-97.14034, 29.92815], [-97.14014, 29.9287], [-97.13982, 29.92936], [-97.13952, 29.92976], [-97.13922, 29.93016], [-97.13885, 29.93074], [-97.13849, 29.93131], [-97.13837, 29.93155], [-97.13824, 29.93192], [-97.13822, 29.93217], [-97.13827, 29.93241], [-97.13848, 29.93292], [-97.138589, 29.93312], [-97.13899, 29.93362], [-97.13938, 29.93404], [-97.13979, 29.93458], [-97.140199, 29.93513], [-97.14039, 29.93543], [-97.14052, 29.93568], [-97.14094, 29.93623], [-97.14112, 29.93644], [-97.14164, 29.93697], [-97.14212, 29.93754], [-97.14259, 29.93811], [-97.14307, 29.93868], [-97.14333, 29.93924], [-97.14354, 29.93969], [-97.14367, 29.94031], [-97.1438, 29.94094], [-97.14394, 29.94173]]}, "properties": {"surface": "unknown", "label": "Unverified", "color": "#9A9389", "miles": 7.7, "start_mi": 52.26, "end_mi": 59.96, "road": "Old Smithville Road", "elev_ft": [410, 411, 412, 412, 412, 412, 412, 412, 411, 411, 409, 410, 410, 408, 405, 402, 400, 404, 404, 398, 390, 394, 402, 410, 412, 413, 413, 413, 413, 414, 410, 398, 395, 392, 396, 403, 408, 412, 414, 413, 412, 411, 411, 411, 410, 406, 402, 398, 393, 392, 393, 393, 392, 384, 375, 376, 377, 380, 384, 392, 400, 403, 400, 392, 386, 382, 381, 380, 379, 378, 380, 386, 396, 402, 403, 398, 397, 389, 390, 396, 402, 403, 405, 413, 421, 424, 425, 427, 429, 432, 431, 430, 428, 427, 428, 428, 428, 428, 427, 427, 427, 425, 421, 417, 419, 426, 429, 432, 433, 433, 435, 437, 439, 443, 444, 444, 442, 440, 436, 433, 433, 437, 440, 442, 445, 447, 447, 445, 439, 439, 442, 438, 438, 441, 441, 438, 433, 437, 438, 440, 441, 443, 443, 442, 443, 443, 441, 439, 437, 434, 434, 435, 436, 435, 434, 433, 432, 429, 427, 425, 424, 421, 418, 418, 418, 417, 414, 413, 405, 396, 384, 371, 374, 382, 396, 397, 396, 392, 387, 384, 381, 378, 376, 371, 368]}}, {"type": "Feature", "geometry": {"type": "LineString", "coordinates": [[-97.14408, 29.94253], [-97.1442, 29.94309], [-97.14428, 29.94334], [-97.14452, 29.94379], [-97.145, 29.94454], [-97.14534, 29.94502], [-97.14568, 29.9455], [-97.14575, 29.94564], [-97.1458, 29.94579], [-97.14598, 29.94645], [-97.14615, 29.94711], [-97.14633, 29.94776], [-97.14639, 29.94792], [-97.14654, 29.94822], [-97.1467, 29.94845], [-97.14708, 29.94882], [-97.14745, 29.94919], [-97.14794, 29.94963], [-97.14843, 29.95007], [-97.14895, 29.95056], [-97.14948, 29.95106], [-97.15001, 29.95155], [-97.15061, 29.95207], [-97.15122, 29.95258], [-97.15182, 29.9531], [-97.152289, 29.95347], [-97.15275, 29.95385], [-97.15299, 29.95411], [-97.1531, 29.95405], [-97.15318, 29.95399], [-97.15324, 29.95391]]}, "properties": {"surface": "pavement", "label": "Pavement", "color": "#4A5568", "miles": 1.01, "start_mi": 59.96, "end_mi": 60.96, "road": "Zapalac Road", "elev_ft": [366, 355, 352, 345, 325, 314, 318, 320, 321, 322, 323, 326, 326, 328, 329, 333, 339, 346, 350, 356, 361, 364, 367, 370, 373, 372, 371, 372, 373, 374, 374]}}]}